{"germany":[{"name":"aachen","area_code":"241"},{"name":"augsburg","area_code":"821"},{"name":"bergisch gladbach","area_code":"2202"},{"name":"berlin","area_code":"30"},{"name":"bielefeld","area_code":"521"},{"name":"bonn","area_code":"228"},{"name":"bottrop","area_code":"2041"},{"name":"braunschweig","area_code":"531"},{"name":"bremen","area_code":"421"},{"name":"bremerhaven","area_code":"471"},{"name":"chemnitz","area_code":"371"},{"name":"cologne","area_code":"221"},{"name":"cottbus","area_code":"355"},{"name":"darmstadt","area_code":"6151"},{"name":"dortmund","area_code":"231"},{"name":"dresden","area_code":"351"},{"name":"duisburg","area_code":"203"},{"name":"düsseldorf","area_code":"211"},{"name":"erfurt","area_code":"361"},{"name":"erlangen","area_code":"9131"},{"name":"essen","area_code":"201"},{"name":"frankfurt","area_code":"69"},{"name":"frankfurt am main","area_code":"69"},{"name":"frankfurt an der oder","area_code":"335"},{"name":"freiburg","area_code":"761"},{"name":"fürth","area_code":"911"},{"name":"gelsenkirchen","area_code":"209"},{"name":"gera","area_code":"365"},{"name":"göttingen","area_code":""},{"name":"hagen","area_code":"2331"},{"name":"halle","area_code":"345"},{"name":"hamburg","area_code":"40"},{"name":"hamm","area_code":"2381"},{"name":"hannover","area_code":"511"},{"name":"heidelberg","area_code":"6221"},{"name":"heilbronn","area_code":"7131"},{"name":"herne","area_code":"2323"},{"name":"hildesheim","area_code":"5121"},{"name":"ingolstadt","area_code":"841"},{"name":"karlsruhe","area_code":"721"},{"name":"kassel","area_code":"561"},{"name":"kiel","area_code":"431"},{"name":"koblenz","area_code":"261"},{"name":"krefeld","area_code":"2151"},{"name":"leipzig","area_code":"341"},{"name":"leverkusen","area_code":"214"},{"name":"lübeck","area_code":"451"},{"name":"ludwigsburg","area_code":"7141"},{"name":"ludwigshafen","area_code":"621"},{"name":"magdeburg","area_code":"391"},{"name":"mainz","area_code":"6131"},{"name":"mannheim","area_code":"621"},{"name":"mönchengladbach","area_code":"2161"},{"name":"munich","area_code":"89"},{"name":"munster","area_code":"251"},{"name":"neubrandenburg","area_code":"395"},{"name":"neuss","area_code":"2131"},{"name":"nuremberg","area_code":"911"},{"name":"oberhausen","area_code":"208"},{"name":"offenbach","area_code":"69"},{"name":"oldenburg","area_code":"441"},{"name":"osnabrück","area_code":"541"},{"name":"paderborn","area_code":"5251"},{"name":"pforzheim","area_code":"7231"},{"name":"potsdam","area_code":"331"},{"name":"recklinghausen","area_code":"2361"},{"name":"regensburg","area_code":"941"},{"name":"remscheid","area_code":"2191"},{"name":"rostock","area_code":"381"},{"name":"saarbrücken","area_code":"681"},{"name":"salzgitter","area_code":"5341"},{"name":"schwerin","area_code":"385"},{"name":"siegen","area_code":"271"},{"name":"solingen","area_code":"212"},{"name":"stuttgart","area_code":"711"},{"name":"ulm","area_code":"731"},{"name":"wiesbaden","area_code":"611"},{"name":"wolfsburg","area_code":"5361"},{"name":"wuppertal","area_code":"202"},{"name":"würzburg","area_code":"931"},{"name":"zwickau","area_code":"375"}],"france":[{"name":"aix en provence","area_code":"4"},{"name":"ajaccio","area_code":"4"},{"name":"angers","area_code":"2"},{"name":"bastia","area_code":"4"},{"name":"besançon","area_code":"3"},{"name":"bordeaux","area_code":"5"},{"name":"brest","area_code":"2"},{"name":"caen","area_code":"2"},{"name":"clermont ferrand","area_code":"4"},{"name":"dijon","area_code":"3"},{"name":"grenoble","area_code":"4"},{"name":"istres","area_code":"4"},{"name":"le havre","area_code":"2"},{"name":"le mans","area_code":"2"},{"name":"lens","area_code":"3"},{"name":"lille","area_code":"3"},{"name":"limoges","area_code":"5"},{"name":"lyon","area_code":"4"},{"name":"macon","area_code":"478"},{"name":"marseille","area_code":"4"},{"name":"montpellier","area_code":"4"},{"name":"mulhouse","area_code":"3"},{"name":"nancy","area_code":"3"},{"name":"nantes","area_code":"2"},{"name":"nice","area_code":"4"},{"name":"nimes","area_code":"4"},{"name":"orleans","area_code":"2"},{"name":"paris","area_code":"1"},{"name":"perpignan","area_code":"4"},{"name":"reims","area_code":"3"},{"name":"rennes","area_code":"2"},{"name":"rouen","area_code":"2"},{"name":"saint denis","area_code":"1"},{"name":"saint etienne du rouvray","area_code":"4"},{"name":"strasbourg","area_code":"3"},{"name":"toulon","area_code":"4"},{"name":"toulouse","area_code":"5"},{"name":"tours","area_code":"2"},{"name":"versailles","area_code":"859"},{"name":"villeurbanne","area_code":"4"}],"united kingdom":[{"name":"aberdeen","area_code":"1224"},{"name":"belfast city","area_code":"28"},{"name":"birmingham","area_code":"121"},{"name":"blackburn","area_code":"1254"},{"name":"blackpool","area_code":"1253"},{"name":"bolton","area_code":"1204"},{"name":"bournemouth","area_code":"1202"},{"name":"bradford","area_code":"1274"},{"name":"brighton","area_code":"1273"},{"name":"bristol","area_code":"117"},{"name":"cambridge","area_code":"1223"},{"name":"cardiff","area_code":"29"},{"name":"carlisle","area_code":"859"},{"name":"chelsea","area_code":"205"},{"name":"chester","area_code":"563"},{"name":"colchester","area_code":"1206"},{"name":"coventry","area_code":"24"},{"name":"crawley","area_code":"1293"},{"name":"derby","area_code":"1332"},{"name":"dover","area_code":"302"},{"name":"dudley","area_code":"1384"},{"name":"eastbourne","area_code":"1323"},{"name":"edinburgh","area_code":"131"},{"name":"glasgow","area_code":"141"},{"name":"gloucester","area_code":"1452"},{"name":"gosport","area_code":"251"},{"name":"greenwich","area_code":"20"},{"name":"huddersfield","area_code":"1484"},{"name":"ipswich","area_code":"1473"},{"name":"kingston upon hull","area_code":"1482"},{"name":"lancaster","area_code":"913"},{"name":"leeds","area_code":"113"},{"name":"leicester","area_code":"116"},{"name":"lincoln","area_code":"217"},{"name":"liverpool","area_code":"151"},{"name":"london","area_code":"20"},{"name":"luton","area_code":"1582"},{"name":"manchester","area_code":"161"},{"name":"middlesbrough","area_code":"1642"},{"name":"milton keynes","area_code":"1908"},{"name":"newcastle upon tyne","area_code":"191"},{"name":"northampton","area_code":"1604"},{"name":"norwich","area_code":"1603"},{"name":"nottingham","area_code":"115"},{"name":"oldham","area_code":"161"},{"name":"oxford","area_code":"1865"},{"name":"peterborough","area_code":"1733"},{"name":"plymouth","area_code":"1752"},{"name":"poole","area_code":"1202"},{"name":"portland","area_code":"207"},{"name":"portsmouth","area_code":"23"},{"name":"preston","area_code":"1772"},{"name":"reading","area_code":"118"},{"name":"rotherham","area_code":"1709"},{"name":"sheffield","area_code":"114"},{"name":"slough","area_code":"1753"},{"name":"southampton","area_code":"23"},{"name":"st. helens","area_code":"1744"},{"name":"stafford","area_code":"620"},{"name":"stockport","area_code":"161"},{"name":"sunderland","area_code":"191"},{"name":"sutton coldfield","area_code":"121"},{"name":"swansea","area_code":"1792"},{"name":"swindon","area_code":"1793"},{"name":"telford","area_code":"1952"},{"name":"walsall","area_code":"1922"},{"name":"warwick","area_code":"229"},{"name":"watford","area_code":"1923"},{"name":"west bromwich","area_code":"121"},{"name":"westminster","area_code":"720"},{"name":"weymouth","area_code":"781"},{"name":"winchester","area_code":"913"},{"name":"windsor","area_code":"757"},{"name":"wolverhampton","area_code":"1902"},{"name":"worcester","area_code":"774"},{"name":"worthing","area_code":"605"},{"name":"york","area_code":"1904"}],"russia":[{"name":"amursk","area_code":"416"},{"name":"anadyr","area_code":"42722"},{"name":"arkhangelsk","area_code":"8182"},{"name":"astrahanka","area_code":"8512"},{"name":"astrakhan","area_code":"8512"},{"name":"barnaul","area_code":"3852"},{"name":"belgorod","area_code":"472"},{"name":"bryansk","area_code":"483"},{"name":"cheboksary","area_code":"8352"},{"name":"chelyabinsk","area_code":"351"},{"name":"cherepovets","area_code":"820"},{"name":"cherkessk","area_code":"87822"},{"name":"chita","area_code":"302"},{"name":"ekaterinburg","area_code":"343"},{"name":"gorno altaysk","area_code":"388"},{"name":"groznyy","area_code":"871"},{"name":"irkutsk","area_code":"3952"},{"name":"ivanovo","area_code":"493"},{"name":"izhevsk","area_code":"3412"},{"name":"kaliningrad","area_code":"401"},{"name":"kaluga","area_code":"484"},{"name":"kazan","area_code":"843"},{"name":"kemerovo","area_code":"3842"},{"name":"khabarovsk","area_code":"4212"},{"name":"kirov","area_code":"833"},{"name":"kostroma","area_code":"494"},{"name":"krasnodar","area_code":"8612"},{"name":"krasnoyarsk","area_code":"3912"},{"name":"kurgan","area_code":"352"},{"name":"kursk","area_code":"471"},{"name":"lipetsk","area_code":"474"},{"name":"magadan","area_code":"41322"},{"name":"mineral nyye vody","area_code":"879"},{"name":"moscow","area_code":"495"},{"name":"murmansk","area_code":"8152"},{"name":"naberezhnye chelny","area_code":"8552"},{"name":"norilsk","area_code":"39152"},{"name":"novgorod","area_code":"81622"},{"name":"novorossiysk","area_code":"86117"},{"name":"novosibirsk","area_code":"383"},{"name":"omsk","area_code":"3812"},{"name":"orel","area_code":"8262"},{"name":"orenburg","area_code":"3532"},{"name":"penza","area_code":"8412"},{"name":"perm","area_code":"3422"},{"name":"petropavlovsk kamchatskiy","area_code":"4152"},{"name":"petrozavodsk","area_code":"814"},{"name":"rostov","area_code":"863"},{"name":"ryazan","area_code":"491"},{"name":"samara","area_code":"8462"},{"name":"saransk","area_code":"834"},{"name":"saratov","area_code":"8452"},{"name":"smolensk","area_code":"481"},{"name":"sochi","area_code":"862"},{"name":"st. petersburg","area_code":"812"},{"name":"stavropol","area_code":"8652"},{"name":"surgut","area_code":"3462"},{"name":"syktyvkar","area_code":"821"},{"name":"tambov","area_code":"475"},{"name":"tomsk","area_code":"3822"},{"name":"tula","area_code":"487"},{"name":"tura","area_code":"39113"},{"name":"tver","area_code":"482"},{"name":"ufa","area_code":"3472"},{"name":"ul'yanovsk","area_code":"8422"},{"name":"ulan ude","area_code":"3012"},{"name":"ulyanovsk","area_code":"842"},{"name":"vladikavkaz","area_code":"867"},{"name":"vladimir","area_code":"492"},{"name":"vladivostok","area_code":"4232"},{"name":"volgograd","area_code":"8442"},{"name":"vologda","area_code":"817"},{"name":"voronezh","area_code":"473"},{"name":"yakutsk","area_code":"4112"},{"name":"yaroslavl","area_code":"485"},{"name":"yekaterinburg","area_code":"343"},{"name":"yoshkar ola","area_code":"836"}],"italy":[{"name":"alcamo","area_code":"924"},{"name":"alessandria","area_code":"131"},{"name":"ancona","area_code":"71"},{"name":"aosta","area_code":"165"},{"name":"ascoli piceno","area_code":"736"},{"name":"bari","area_code":"80"},{"name":"bergamo","area_code":"35"},{"name":"bologna","area_code":"51"},{"name":"bolzano","area_code":"471"},{"name":"brescia","area_code":"30"},{"name":"brindisi","area_code":"831"},{"name":"brunico","area_code":"474"},{"name":"cagliari","area_code":"70"},{"name":"campobasso","area_code":"874"},{"name":"caserta","area_code":"823"},{"name":"cassino","area_code":"776"},{"name":"catania","area_code":"95"},{"name":"catanzaro","area_code":"961"},{"name":"chieti","area_code":"871"},{"name":"civitavecchia","area_code":"766"},{"name":"como","area_code":"31"},{"name":"cortina d ampezzo","area_code":"436"},{"name":"cremona","area_code":"372"},{"name":"cuneo","area_code":"171"},{"name":"domodossola","area_code":"324"},{"name":"empoli","area_code":"571"},{"name":"ferrara","area_code":"532"},{"name":"florence","area_code":"55"},{"name":"foggia","area_code":"881"},{"name":"formia","area_code":"771"},{"name":"frosinone","area_code":"775"},{"name":"genoa","area_code":"10"},{"name":"gorizia","area_code":"481"},{"name":"grosseto","area_code":"564"},{"name":"imola","area_code":"542"},{"name":"l aquila","area_code":"862"},{"name":"la spezia","area_code":"187"},{"name":"lanciano","area_code":"872"},{"name":"lecce","area_code":"832"},{"name":"livorno","area_code":"586"},{"name":"lucca","area_code":"583"},{"name":"merano","area_code":"473"},{"name":"messina","area_code":"90"},{"name":"milan","area_code":"2"},{"name":"modena","area_code":"59"},{"name":"monza","area_code":"39"},{"name":"naples","area_code":"81"},{"name":"novara","area_code":"321"},{"name":"novi lígure","area_code":"143"},{"name":"nuoro","area_code":"784"},{"name":"orvieto","area_code":"763"},{"name":"palermo","area_code":"91"},{"name":"parma","area_code":"521"},{"name":"perugia","area_code":"75"},{"name":"pesaro","area_code":"721"},{"name":"pescara","area_code":"85"},{"name":"piacenza","area_code":"523"},{"name":"pisa","area_code":"50"},{"name":"pordenone","area_code":"434"},{"name":"potenza","area_code":"971"},{"name":"prato","area_code":"574"},{"name":"rapallo","area_code":"185"},{"name":"ravenna","area_code":"544"},{"name":"reggio calabria","area_code":"965"},{"name":"reggio emilia","area_code":"522"},{"name":"rieti","area_code":"746"},{"name":"rimini","area_code":"541"},{"name":"rome","area_code":"6"},{"name":"rovigo","area_code":"425"},{"name":"salerno","area_code":"89"},{"name":"san marino","area_code":"549"},{"name":"san remo","area_code":"184"},{"name":"sassari","area_code":"79"},{"name":"savona","area_code":"19"},{"name":"siena","area_code":"577"},{"name":"siracusa","area_code":"931"},{"name":"spoleto","area_code":"743"},{"name":"taranto","area_code":"99"},{"name":"teramo","area_code":"861"},{"name":"termoli","area_code":"875"},{"name":"terni","area_code":"744"},{"name":"tivoli","area_code":"774"},{"name":"trapani","area_code":"923"},{"name":"trento","area_code":"461"},{"name":"treviso","area_code":"422"},{"name":"trieste","area_code":"40"},{"name":"turin","area_code":"11"},{"name":"udine","area_code":"432"},{"name":"varese","area_code":"332"},{"name":"vasto","area_code":"873"},{"name":"vatican city","area_code":"6"},{"name":"venice","area_code":"41"},{"name":"verona","area_code":"45"},{"name":"vibo valentia","area_code":"963"},{"name":"vicenza","area_code":"444"},{"name":"viterbo","area_code":"761"}],"spain":[{"name":"albacete","area_code":"967"},{"name":"alicante","area_code":"96"},{"name":"almería","area_code":"950"},{"name":"Ávila","area_code":"920"},{"name":"badajoz","area_code":"924"},{"name":"barcelona","area_code":"93"},{"name":"bilbao","area_code":"94"},{"name":"burgos","area_code":"947"},{"name":"caceres","area_code":"927"},{"name":"cadiz","area_code":"956"},{"name":"ceuta","area_code":"952"},{"name":"cordoba","area_code":"957"},{"name":"cuenca","area_code":"969"},{"name":"durango","area_code":"970"},{"name":"girona","area_code":"972"},{"name":"granada","area_code":"958"},{"name":"guadalajara","area_code":"949"},{"name":"huelva","area_code":"959"},{"name":"huesca","area_code":"974"},{"name":"jaen","area_code":"953"},{"name":"la coruña","area_code":"81"},{"name":"las palmas","area_code":"928"},{"name":"leon","area_code":"987"},{"name":"lerida","area_code":"973"},{"name":"lugo","area_code":"982"},{"name":"madrid","area_code":"91"},{"name":"malaga","area_code":"95"},{"name":"melilla","area_code":"952"},{"name":"murcia","area_code":"968"},{"name":"orense","area_code":"988"},{"name":"oviedo","area_code":"407"},{"name":"palma","area_code":"971"},{"name":"palma de mallorca","area_code":"971"},{"name":"pamplona","area_code":"948"},{"name":"pontevedra","area_code":"986"},{"name":"salamanca","area_code":"923"},{"name":"santa cruz","area_code":"922"},{"name":"santander","area_code":"942"},{"name":"sevilla","area_code":"95"},{"name":"tarragona","area_code":"977"},{"name":"tenerife","area_code":"922"},{"name":"toledo","area_code":"925"},{"name":"valencia","area_code":"96"},{"name":"valladolid","area_code":"983"},{"name":"zamora","area_code":"980"},{"name":"zaragoza","area_code":"976"}],"sweden":[{"name":"alfta","area_code":"271"},{"name":"alingsås","area_code":"322"},{"name":"Älmhult","area_code":"476"},{"name":"alunda","area_code":"174"},{"name":"Älvdalen","area_code":"251"},{"name":"alvesta","area_code":"472"},{"name":"Älvsbyn","area_code":"929"},{"name":"Åmål","area_code":"532"},{"name":"Ånge","area_code":"690"},{"name":"Ängelholm","area_code":"431"},{"name":"arboga","area_code":"589"},{"name":"Åre","area_code":"647"},{"name":"Årjäng","area_code":"573"},{"name":"arjeplog","area_code":"961"},{"name":"arvidsjaur","area_code":"960"},{"name":"arvika","area_code":"570"},{"name":"Åseda","area_code":"474"},{"name":"Åsele","area_code":"941"},{"name":"askersund","area_code":"583"},{"name":"Åtvidaberg","area_code":"120"},{"name":"avesta","area_code":"226"},{"name":"backe","area_code":"624"},{"name":"bastuträsk","area_code":"915"},{"name":"bengtsfors","area_code":"531"},{"name":"bergsjö","area_code":"652"},{"name":"björna","area_code":"662"},{"name":"bjurholm","area_code":"932"},{"name":"boden","area_code":"921"},{"name":"bollnäs","area_code":"278"},{"name":"borås","area_code":"33"},{"name":"borlänge","area_code":"243"},{"name":"bräcke","area_code":"693"},{"name":"bredbyn","area_code":"661"},{"name":"burträsk","area_code":"914"},{"name":"byske","area_code":"912"},{"name":"charlottenberg","area_code":"571"},{"name":"deje","area_code":"552"},{"name":"delsbo","area_code":"653"},{"name":"dorotea","area_code":"942"},{"name":"ed","area_code":"534"},{"name":"eksjö","area_code":"381"},{"name":"emmaboda","area_code":"471"},{"name":"enköping","area_code":"171"},{"name":"eskilstuna","area_code":"16"},{"name":"eslöv","area_code":"413"},{"name":"fagersta","area_code":"223"},{"name":"falkenberg","area_code":"346"},{"name":"falköping","area_code":"515"},{"name":"falun","area_code":"23"},{"name":"färgelanda","area_code":"528"},{"name":"filipstad","area_code":"590"},{"name":"finspång","area_code":"122"},{"name":"fjugesta","area_code":"585"},{"name":"flen","area_code":"157"},{"name":"föllinge","area_code":"645"},{"name":"fredrika","area_code":"943"},{"name":"furudal","area_code":"258"},{"name":"gaddede","area_code":"672"},{"name":"gagnef","area_code":"241"},{"name":"gällivare","area_code":"970"},{"name":"gamleby","area_code":"493"},{"name":"gävle","area_code":"26"},{"name":"gislaved","area_code":"371"},{"name":"gnesta","area_code":"158"},{"name":"göteborg","area_code":"31"},{"name":"gothenburg","area_code":"31"},{"name":"gothenburg (göteborg)","area_code":"31"},{"name":"gotland","area_code":"498"},{"name":"gränna","area_code":"390"},{"name":"grästorp","area_code":"514"},{"name":"grebbestad","area_code":"525"},{"name":"grums","area_code":"555"},{"name":"gullspång","area_code":"551"},{"name":"hagfors","area_code":"563"},{"name":"hakkas","area_code":"975"},{"name":"hällefors","area_code":"591"},{"name":"hallen","area_code":"643"},{"name":"hallsberg","area_code":"582"},{"name":"hallstahammar","area_code":"220"},{"name":"hallstavik","area_code":"175"},{"name":"halmstad","area_code":"35"},{"name":"hammarstrand","area_code":"696"},{"name":"hammerdal","area_code":"644"},{"name":"haparanda","area_code":"922"},{"name":"harads","area_code":"928"},{"name":"härnösand","area_code":"611"},{"name":"hässleholm","area_code":"451"},{"name":"hede","area_code":"684"},{"name":"hedemora","area_code":"225"},{"name":"hedesunda","area_code":"291"},{"name":"helsingborg","area_code":"42"},{"name":"herrljunga","area_code":"513"},{"name":"hindås","area_code":"301"},{"name":"hjo","area_code":"503"},{"name":"hofors","area_code":"290"},{"name":"hörby","area_code":"415"},{"name":"hoting","area_code":"671"},{"name":"hudiksvall","area_code":"650"},{"name":"hultsfred","area_code":"495"},{"name":"hyltebruk","area_code":"345"},{"name":"idre","area_code":"253"},{"name":"jokkmokk","area_code":"971"},{"name":"jönköping","area_code":"36"},{"name":"jörn","area_code":"916"},{"name":"junsele","area_code":"621"},{"name":"kalix","area_code":"923"},{"name":"kalmar","area_code":"480"},{"name":"karlholmsbruk","area_code":"294"},{"name":"karlsborg","area_code":"505"},{"name":"karlshamn","area_code":"454"},{"name":"karlskoga","area_code":"586"},{"name":"karlskrona","area_code":"455"},{"name":"karlstad","area_code":"54"},{"name":"katrineholm","area_code":"150"},{"name":"kil","area_code":"554"},{"name":"kinna","area_code":"320"},{"name":"kiruna","area_code":"980"},{"name":"kisa","area_code":"494"},{"name":"klippan","area_code":"435"},{"name":"köping","area_code":"221"},{"name":"kopparberg","area_code":"580"},{"name":"korpilombolo","area_code":"977"},{"name":"kramfors","area_code":"612"},{"name":"kristianstad","area_code":"44"},{"name":"kristinehamn","area_code":"550"},{"name":"krokom","area_code":"640"},{"name":"kungälv","area_code":"303"},{"name":"kungsbacka","area_code":"300"},{"name":"kungsör","area_code":"227"},{"name":"laholm","area_code":"430"},{"name":"lakaträsk","area_code":"925"},{"name":"landskrona","area_code":"418"},{"name":"laxå","area_code":"584"},{"name":"leksand","area_code":"247"},{"name":"lerum","area_code":"302"},{"name":"lessebo","area_code":"478"},{"name":"liden","area_code":"692"},{"name":"lidköping","area_code":"510"},{"name":"lindesberg","area_code":"581"},{"name":"linköping","area_code":"13"},{"name":"lit","area_code":"642"},{"name":"ljungby","area_code":"372"},{"name":"ljusdal","area_code":"651"},{"name":"los","area_code":"657"},{"name":"lövånger","area_code":"913"},{"name":"ludvika","area_code":"240"},{"name":"luleå","area_code":"920"},{"name":"lycksele","area_code":"950"},{"name":"lysekil","area_code":"523"},{"name":"malå","area_code":"953"},{"name":"malmö","area_code":"40"},{"name":"malung","area_code":"280"},{"name":"mariannelund","area_code":"496"},{"name":"mariefred","area_code":"159"},{"name":"mariestad","area_code":"501"},{"name":"markaryd","area_code":"433"},{"name":"mellerud","area_code":"530"},{"name":"mjölby","area_code":"142"},{"name":"molkom","area_code":"553"},{"name":"mönsterås","area_code":"499"},{"name":"motala","area_code":"141"},{"name":"mullsjö","area_code":"392"},{"name":"munkedal","area_code":"524"},{"name":"näsåker","area_code":"622"},{"name":"nässjö","area_code":"380"},{"name":"nora","area_code":"587"},{"name":"nordmaling","area_code":"930"},{"name":"norrköping","area_code":"11"},{"name":"norrtälje","area_code":"176"},{"name":"norsjö","area_code":"918"},{"name":"nybro","area_code":"481"},{"name":"nyköping","area_code":"155"},{"name":"ockelbo","area_code":"297"},{"name":"Ödeshög","area_code":"144"},{"name":"Öland","area_code":"485"},{"name":"Örbyhus","area_code":"295"},{"name":"Örebro","area_code":"173"},{"name":"Öregrund","area_code":"173"},{"name":"Örnsköldsvik","area_code":"660"},{"name":"orust","area_code":"304"},{"name":"osby","area_code":"479"},{"name":"oskarshamn","area_code":"491"},{"name":"Östersund","area_code":"63"},{"name":"Överkalix","area_code":"926"},{"name":"Övertorneå","area_code":"927"},{"name":"pajala","area_code":"978"},{"name":"piteå","area_code":"911"},{"name":"porjus","area_code":"973"},{"name":"ramsele","area_code":"623"},{"name":"råneå","area_code":"924"},{"name":"rätan","area_code":"682"},{"name":"rättvik","area_code":"248"},{"name":"robertsfors","area_code":"934"},{"name":"ronneby","area_code":"457"},{"name":"ryd","area_code":"459"},{"name":"säffle","area_code":"533"},{"name":"sala","area_code":"224"},{"name":"sävsjö","area_code":"382"},{"name":"simrishamn","area_code":"414"},{"name":"sjöbo","area_code":"416"},{"name":"skara","area_code":"511"},{"name":"skellefteå","area_code":"910"},{"name":"skinnskatteberg","area_code":"222"},{"name":"skövde","area_code":"500"},{"name":"söderhamn","area_code":"270"},{"name":"söderköping","area_code":"121"},{"name":"södertälje","area_code":"8"},{"name":"sollefteå","area_code":"620"},{"name":"sölvesborg","area_code":"456"},{"name":"sorsele","area_code":"952"},{"name":"stockholm","area_code":"8"},{"name":"storuman","area_code":"951"},{"name":"strängnäs","area_code":"152"},{"name":"strömstad","area_code":"526"},{"name":"strömsund","area_code":"670"},{"name":"stugun","area_code":"695"},{"name":"sundsvall","area_code":"60"},{"name":"sunne","area_code":"565"},{"name":"svärdsjö","area_code":"246"},{"name":"sveg","area_code":"680"},{"name":"svenljunga","area_code":"325"},{"name":"svenstavik","area_code":"687"},{"name":"sysslebäck","area_code":"564"},{"name":"tärnaby","area_code":"954"},{"name":"tärnsjö","area_code":"292"},{"name":"tibro","area_code":"504"},{"name":"tidaholm","area_code":"502"},{"name":"tierp","area_code":"293"},{"name":"tingsryd","area_code":"477"},{"name":"tomelilla","area_code":"417"},{"name":"töreboda","area_code":"506"},{"name":"torpshammar","area_code":"691"},{"name":"torsås","area_code":"486"},{"name":"torsby","area_code":"560"},{"name":"tranås","area_code":"140"},{"name":"trelleborg","area_code":"410"},{"name":"trollhättan","area_code":"520"},{"name":"trosa","area_code":"156"},{"name":"uddevalla","area_code":"522"},{"name":"ullånger","area_code":"613"},{"name":"ulricehamn","area_code":"321"},{"name":"umeå","area_code":"90"},{"name":"uppsala","area_code":"18"},{"name":"vadstena","area_code":"143"},{"name":"vaggeryd","area_code":"393"},{"name":"valdemarsvik","area_code":"123"},{"name":"vänersborg","area_code":"521"},{"name":"vännäs","area_code":"935"},{"name":"vansbro","area_code":"281"},{"name":"vara","area_code":"512"},{"name":"varberg","area_code":"340"},{"name":"värnamo","area_code":"370"},{"name":"västerås","area_code":"21"},{"name":"västervik","area_code":"490"},{"name":"växjö","area_code":"470"},{"name":"vetlanda","area_code":"383"},{"name":"vikbolandet","area_code":"125"},{"name":"vilhelmina","area_code":"940"},{"name":"vimmerby","area_code":"492"},{"name":"vindeln","area_code":"933"},{"name":"vingåker","area_code":"151"},{"name":"vittangi","area_code":"981"},{"name":"vuollerim","area_code":"976"},{"name":"ystad","area_code":"411"}],"austria":[{"name":"graz","area_code":"316"},{"name":"innsbruck","area_code":"512"},{"name":"klagenfurt","area_code":"463"},{"name":"linz","area_code":"70"},{"name":"salzburg","area_code":"662"},{"name":"vienna","area_code":"1"},{"name":"wels","area_code":"7242"},{"name":"wiener neustadt","area_code":"2622"}],"ireland":[{"name":"arklow","area_code":"402"},{"name":"cork","area_code":"21"},{"name":"drogheda","area_code":"41"},{"name":"dublin","area_code":"1"},{"name":"ennis","area_code":"65"},{"name":"galway city","area_code":"91"},{"name":"kildare","area_code":"45"},{"name":"killarney","area_code":"64"},{"name":"limerick","area_code":"61"},{"name":"sligo","area_code":"71"},{"name":"tipperary","area_code":"52"},{"name":"tralee","area_code":"66"},{"name":"tullamore","area_code":"506"},{"name":"waterford","area_code":"51"},{"name":"wexford","area_code":"53"}],"greece":[{"name":"acharnes","area_code":"210"},{"name":"aegina","area_code":"2297"},{"name":"aeginio","area_code":"2353"},{"name":"aegio","area_code":"2691"},{"name":"afidnes","area_code":"2295"},{"name":"ag. kirikos","area_code":"2275"},{"name":"ag. nikolaos","area_code":"2841"},{"name":"ag. sotira","area_code":"2293"},{"name":"ag. varvara","area_code":"2894"},{"name":"agia","area_code":"2494"},{"name":"agiasos","area_code":"2252"},{"name":"agrinio","area_code":"2641"},{"name":"agrinion","area_code":"2641"},{"name":"aitoliko","area_code":"2632"},{"name":"akrata","area_code":"2696"},{"name":"alexandroupoli","area_code":"2551"},{"name":"alexandroupolis","area_code":"2551"},{"name":"aliartos","area_code":"2268"},{"name":"aliveri","area_code":"2223"},{"name":"almyros","area_code":"2422"},{"name":"amaliada","area_code":"2622"},{"name":"amari","area_code":"2833"},{"name":"amfikleia","area_code":"2234"},{"name":"amfilochia","area_code":"2642"},{"name":"amfissa","area_code":"2265"},{"name":"amynteo","area_code":"2386"},{"name":"anc. olympia","area_code":"2624"},{"name":"andritsena","area_code":"2626"},{"name":"andros","area_code":"2282"},{"name":"archagelos","area_code":"2244"},{"name":"argos","area_code":"2751"},{"name":"argostoli","area_code":"2671"},{"name":"aridea","area_code":"2384"},{"name":"arkalochori","area_code":"2891"},{"name":"arnea","area_code":"2372"},{"name":"arta","area_code":"2681"},{"name":"asprovalta","area_code":"2397"},{"name":"astros","area_code":"2755"},{"name":"atalanti","area_code":"2233"},{"name":"athens","area_code":"21"},{"name":"chalandritsa","area_code":"2694"},{"name":"chalkiopoulo","area_code":"2647"},{"name":"chania","area_code":"2821"},{"name":"chios","area_code":"2271"},{"name":"chlkidona","area_code":"2391"},{"name":"chrysoupoli","area_code":"2591"},{"name":"corfu","area_code":"2661"},{"name":"delvinaki","area_code":"2657"},{"name":"didymoticho","area_code":"2553"},{"name":"distomo","area_code":"2267"},{"name":"domokos","area_code":"2232"},{"name":"domvrena","area_code":"2264"},{"name":"drama","area_code":"2521"},{"name":"echinos","area_code":"2544"},{"name":"edessa","area_code":"2381"},{"name":"elassona","area_code":"2493"},{"name":"eleftheroupoli","area_code":"2592"},{"name":"eretria","area_code":"2229"},{"name":"farkadona","area_code":"2433"},{"name":"farsala","area_code":"2491"},{"name":"feres","area_code":"2555"},{"name":"filiates","area_code":"2664"},{"name":"florina","area_code":"2385"},{"name":"fyties","area_code":"2646"},{"name":"gargalianoi","area_code":"2763"},{"name":"giannitsa","area_code":"2382"},{"name":"glyfada","area_code":"210"},{"name":"grevena","area_code":"2462"},{"name":"gytheio","area_code":"2733"},{"name":"halkida","area_code":"2221"},{"name":"herakleia","area_code":"2325"},{"name":"heraklion","area_code":"2810"},{"name":"heraklion (iraklion)","area_code":"2810"},{"name":"iasmos","area_code":"2534"},{"name":"ierapetra","area_code":"2842"},{"name":"ierissos","area_code":"2377"},{"name":"igoumenitsa","area_code":"2665"},{"name":"ilio","area_code":"210"},{"name":"iraklion","area_code":"281"},{"name":"k. nevrokopi","area_code":"2523"},{"name":"kala nera","area_code":"2423"},{"name":"kalabaka","area_code":"2432"},{"name":"kalamaria","area_code":"2310"},{"name":"kalamata","area_code":"2721"},{"name":"kalavrita","area_code":"2692"},{"name":"kalentzi","area_code":"2659"},{"name":"kalianoi","area_code":"2747"},{"name":"kalimnos","area_code":"2243"},{"name":"kallikrateia","area_code":"2399"},{"name":"kallisti","area_code":"2535"},{"name":"kallithea","area_code":"210"},{"name":"kalloni","area_code":"2253"},{"name":"kam.vourla","area_code":"2235"},{"name":"kanalaki","area_code":"2684"},{"name":"kantanos","area_code":"2823"},{"name":"kardamila","area_code":"2272"},{"name":"karditsa","area_code":"2441"},{"name":"karies","area_code":"2653"},{"name":"karpathos","area_code":"2245"},{"name":"karpenisi","area_code":"2237"},{"name":"karystos","area_code":"2224"},{"name":"kassandreia","area_code":"2374"},{"name":"kastoria","area_code":"2467"},{"name":"kastri","area_code":"2792"},{"name":"katerini","area_code":"2351"},{"name":"kavala","area_code":"251"},{"name":"kea","area_code":"2288"},{"name":"keratsini","area_code":"210"},{"name":"khaniá","area_code":"28210"},{"name":"khania/souda","area_code":"28210"},{"name":"kiato","area_code":"2742"},{"name":"kilkis","area_code":"2341"},{"name":"kissamos","area_code":"2822"},{"name":"kolympari","area_code":"2824"},{"name":"komotini","area_code":"2531"},{"name":"konitsa","area_code":"2655"},{"name":"kopanaki","area_code":"2765"},{"name":"korinthos","area_code":"2741"},{"name":"koroni","area_code":"2725"},{"name":"kos","area_code":"2242"},{"name":"kozani","area_code":"2461"},{"name":"kranidi","area_code":"2754"},{"name":"krestena","area_code":"2625"},{"name":"kymi","area_code":"2222"},{"name":"kyparissia","area_code":"2761"},{"name":"kyprinos","area_code":"2556"},{"name":"kythira","area_code":"2736"},{"name":"lagadas","area_code":"2394"},{"name":"lagadikia","area_code":"2393"},{"name":"lagonisi","area_code":"2291"},{"name":"lamia","area_code":"2231"},{"name":"larissa","area_code":"241"},{"name":"lavrion","area_code":"2292"},{"name":"lechena","area_code":"2623"},{"name":"lefkada","area_code":"2645"},{"name":"lefkimi corfu","area_code":"2662"},{"name":"leonidio","area_code":"2757"},{"name":"leros","area_code":"2247"},{"name":"levidi","area_code":"2796"},{"name":"lidoriki","area_code":"2266"},{"name":"limenari","area_code":"2593"},{"name":"limin chersonisou","area_code":"2897"},{"name":"livadeia","area_code":"2261"},{"name":"loutra aidipsou","area_code":"2226"},{"name":"loutraki","area_code":"2744"},{"name":"lygourgio","area_code":"2753"},{"name":"makrakomi","area_code":"2236"},{"name":"makrychori","area_code":"2495"},{"name":"mantoudi","area_code":"2227"},{"name":"markopoulo","area_code":"2299"},{"name":"mataraga","area_code":"2635"},{"name":"megalopoli","area_code":"2791"},{"name":"megara","area_code":"2296"},{"name":"meligalas","area_code":"2724"},{"name":"messini","area_code":"2722"},{"name":"messologi","area_code":"2631"},{"name":"mikonos","area_code":"2289"},{"name":"milos","area_code":"2287"},{"name":"mirina","area_code":"2254"},{"name":"mitilini","area_code":"2251"},{"name":"moires","area_code":"2892"},{"name":"molaoi","area_code":"2732"},{"name":"moudania","area_code":"2373"},{"name":"mouzaki","area_code":"2445"},{"name":"nafpaktos","area_code":"2634"},{"name":"nafplion","area_code":"2752"},{"name":"naousa","area_code":"2332"},{"name":"naxos","area_code":"2285"},{"name":"nea smyrni","area_code":"210"},{"name":"nemea","area_code":"2746"},{"name":"nigrita","area_code":"2322"},{"name":"nikaia","area_code":"210"},{"name":"nikitas","area_code":"2375"},{"name":"orestiada","area_code":"2552"},{"name":"palamas","area_code":"2444"},{"name":"paramythia","area_code":"2666"},{"name":"paranesti","area_code":"2524"},{"name":"paros","area_code":"2284"},{"name":"patra","area_code":"261"},{"name":"patras","area_code":"2610"},{"name":"perama","area_code":"2834"},{"name":"peramos","area_code":"2594"},{"name":"perdika","area_code":"2654"},{"name":"perea","area_code":"2392"},{"name":"peristeri","area_code":"210"},{"name":"peristerion","area_code":"210"},{"name":"philippiada","area_code":"2683"},{"name":"piraeus","area_code":"210"},{"name":"plaka","area_code":"2352"},{"name":"polikastro","area_code":"2343"},{"name":"polygyros","area_code":"2371"},{"name":"poros","area_code":"2298"},{"name":"préveza","area_code":"2682"},{"name":"prosotsani","area_code":"2522"},{"name":"psachna","area_code":"2228"},{"name":"ptolemaida","area_code":"2463"},{"name":"pyli","area_code":"2434"},{"name":"pylos","area_code":"2723"},{"name":"pyrgos","area_code":"2621"},{"name":"pyrgos (creta)","area_code":"2893"},{"name":"rafina","area_code":"2294"},{"name":"rethymno","area_code":"2831"},{"name":"rhodes","area_code":"2241"},{"name":"ródhos","area_code":"22410"},{"name":"rodopoli","area_code":"2327"},{"name":"salakos","area_code":"2246"},{"name":"sami","area_code":"2674"},{"name":"samos","area_code":"2273"},{"name":"sapes","area_code":"2532"},{"name":"serres","area_code":"2321"},{"name":"servia","area_code":"2464"},{"name":"siatista","area_code":"2465"},{"name":"sidirokastro","area_code":"2323"},{"name":"siros","area_code":"2281"},{"name":"sitia","area_code":"2843"},{"name":"skala","area_code":"2735"},{"name":"skiathos","area_code":"2427"},{"name":"skopelos","area_code":"2424"},{"name":"skripero corfu","area_code":"2663"},{"name":"sochos","area_code":"2395"},{"name":"sofades","area_code":"2443"},{"name":"soufli","area_code":"2554"},{"name":"sparti","area_code":"2731"},{"name":"spili","area_code":"2832"},{"name":"stavroupoli","area_code":"2542"},{"name":"stilida","area_code":"2238"},{"name":"stratoni","area_code":"2376"},{"name":"tampouria","area_code":"2656"},{"name":"thermo","area_code":"2644"},{"name":"thessaloniki","area_code":"231"},{"name":"thira","area_code":"2286"},{"name":"thiva","area_code":"2262"},{"name":"tinos","area_code":"2283"},{"name":"trikala","area_code":"2431"},{"name":"tripolis","area_code":"271"},{"name":"tropea","area_code":"2797"},{"name":"tyrnavos","area_code":"2492"},{"name":"tzermiades","area_code":"2844"},{"name":"vamos","area_code":"2825"},{"name":"vasilika","area_code":"2396"},{"name":"velestino","area_code":"2425"},{"name":"veroia","area_code":"2331"},{"name":"viannos","area_code":"2895"},{"name":"vilia","area_code":"2263"},{"name":"vitina","area_code":"2795"},{"name":"volissos","area_code":"2274"},{"name":"volos","area_code":"24210"},{"name":"vonitsa","area_code":"2643"},{"name":"voulgareli","area_code":"2685"},{"name":"xanthi","area_code":"2541"},{"name":"xylagani","area_code":"2533"},{"name":"xylokastro","area_code":"2743"},{"name":"zagora","area_code":"2426"},{"name":"zakynthos","area_code":"2695"},{"name":"zichni","area_code":"2324"},{"name":"zitsa","area_code":"2658"}],"portugal":[{"name":"amadora","area_code":"21"},{"name":"aveiro","area_code":"234"},{"name":"beja","area_code":"284"},{"name":"braga","area_code":"253"},{"name":"braganca","area_code":"273"},{"name":"caldar da rainha","area_code":"262"},{"name":"cascais","area_code":"21"},{"name":"castelo branco","area_code":"272"},{"name":"castro verd","area_code":"286"},{"name":"chaves","area_code":"276"},{"name":"coimbra","area_code":"239"},{"name":"covilha","area_code":"275"},{"name":"estremoz","area_code":"268"},{"name":"Évora","area_code":"266"},{"name":"faro","area_code":"289"},{"name":"figueira da foz","area_code":"233"},{"name":"funchal","area_code":"297"},{"name":"guarda","area_code":"271"},{"name":"horta","area_code":"292"},{"name":"leiria","area_code":"244"},{"name":"lisbon","area_code":"21"},{"name":"mirandela","area_code":"278"},{"name":"moura","area_code":"285"},{"name":"odemira","area_code":"283"},{"name":"ponta delgada","area_code":"296"},{"name":"portalegre","area_code":"245"},{"name":"portimão","area_code":"282"},{"name":"porto","area_code":"22"},{"name":"santarem","area_code":"243"},{"name":"setúbal","area_code":"265"},{"name":"tavira","area_code":"281"},{"name":"viana do castelo","area_code":"258"},{"name":"vila nova de gaia","area_code":"22"},{"name":"vila real","area_code":"259"},{"name":"viseu","area_code":"232"}],"turkey":[{"name":"adana","area_code":"322"},{"name":"adapazari","area_code":"264"},{"name":"adiyaman","area_code":"416"},{"name":"afyon","area_code":"272"},{"name":"agri","area_code":"472"},{"name":"aksaray","area_code":"382"},{"name":"amasya","area_code":"358"},{"name":"ankara","area_code":"312"},{"name":"antalya","area_code":"242"},{"name":"ardahan","area_code":"478"},{"name":"artvin","area_code":"466"},{"name":"aydin","area_code":"256"},{"name":"balikesir","area_code":"266"},{"name":"bartin","area_code":"378"},{"name":"batman","area_code":"488"},{"name":"bayburt","area_code":"458"},{"name":"bilecik","area_code":"228"},{"name":"bingol","area_code":"426"},{"name":"bitus","area_code":"434"},{"name":"bolu","area_code":"374"},{"name":"burdur","area_code":"248"},{"name":"bursa","area_code":"224"},{"name":"canakkale","area_code":"286"},{"name":"cankiri","area_code":"376"},{"name":"corum","area_code":"364"},{"name":"denizli","area_code":"258"},{"name":"diyarbakir","area_code":"412"},{"name":"edirne","area_code":"284"},{"name":"elazig","area_code":"424"},{"name":"erzincan","area_code":"446"},{"name":"erzurum","area_code":"442"},{"name":"eskisehir","area_code":"222"},{"name":"gaziantep","area_code":"342"},{"name":"giresun","area_code":"454"},{"name":"gumushane","area_code":"456"},{"name":"hakkari","area_code":"438"},{"name":"hatay","area_code":"326"},{"name":"icel (mersin)","area_code":"324"},{"name":"igdir","area_code":"476"},{"name":"isparta","area_code":"246"},{"name":"istanbul","area_code":"212"},{"name":"istanbul asya (asia side)","area_code":"216"},{"name":"istanbul avrupa (europe side)","area_code":"212"},{"name":"izmir","area_code":"232"},{"name":"izmit","area_code":"262"},{"name":"kahramanmaras","area_code":"344"},{"name":"karaman","area_code":"338"},{"name":"kars","area_code":"474"},{"name":"kastamonu","area_code":"366"},{"name":"kayseri","area_code":"352"},{"name":"kirikkale","area_code":"318"},{"name":"kirklareli","area_code":"288"},{"name":"kirsehir","area_code":"386"},{"name":"kocaeli","area_code":"262"},{"name":"konya","area_code":"332"},{"name":"kutahya","area_code":"274"},{"name":"malatya","area_code":"422"},{"name":"manisa","area_code":"236"},{"name":"mardin","area_code":"482"},{"name":"mugla","area_code":"252"},{"name":"mus","area_code":"436"},{"name":"nigde","area_code":"388"},{"name":"ordu","area_code":"452"},{"name":"rize","area_code":"464"},{"name":"sakarya","area_code":"264"},{"name":"samsun","area_code":"362"},{"name":"sanliurfa","area_code":"414"},{"name":"siirt","area_code":"484"},{"name":"sirnak","area_code":"486"},{"name":"sivas","area_code":"346"},{"name":"tokat","area_code":"356"},{"name":"trabzon","area_code":"462"},{"name":"tunceli","area_code":"428"},{"name":"van","area_code":"432"},{"name":"yalova","area_code":"226"},{"name":"yozgat","area_code":"354"},{"name":"zonguldak","area_code":"372"}],"ukraine":[{"name":"cherkassy","area_code":"47"},{"name":"chernigov","area_code":"46"},{"name":"chernivtsi","area_code":"3722"},{"name":"dnepropetrovsk","area_code":"562"},{"name":"dniprodzerzhynsk","area_code":"56"},{"name":"donetsk","area_code":"62"},{"name":"ivano frankivsk","area_code":"34"},{"name":"kharkov","area_code":"572"},{"name":"kherson","area_code":"55"},{"name":"khmelnitskiy","area_code":"38"},{"name":"kiev","area_code":"44"},{"name":"kirovograd","area_code":"52"},{"name":"kryvyi rih","area_code":"564"},{"name":"lugansk","area_code":"642"},{"name":"lviv","area_code":"322"},{"name":"nikolaev","area_code":"51"},{"name":"odessa","area_code":"432"},{"name":"poltava","area_code":"53"},{"name":"rivne","area_code":"36"},{"name":"sevastopol","area_code":"69"},{"name":"simferopol","area_code":"652"},{"name":"sumy","area_code":"54"},{"name":"ternopil","area_code":"3522"},{"name":"uman","area_code":"4744"},{"name":"uzhgorod","area_code":"31"},{"name":"vinnitsa","area_code":"432"},{"name":"zaporozhye","area_code":"61"}],"norway":[{"name":"arendal","area_code":"37"},{"name":"bergen","area_code":"5"},{"name":"halden","area_code":"69"},{"name":"haugesund","area_code":"5"},{"name":"larvik","area_code":"33"},{"name":"moss","area_code":"69"},{"name":"oslo","area_code":"2"},{"name":"porsgrunn","area_code":"35"}],"denmark":[{"name":"aalborg","area_code":""},{"name":"Århus","area_code":""},{"name":"copenhagen","area_code":""},{"name":"esbjerg","area_code":""},{"name":"odense","area_code":""},{"name":"randers","area_code":""},{"name":"roskilde","area_code":""}],"switzerland":[{"name":"ammerswil (aarau)","area_code":"62"},{"name":"andermatt","area_code":"41"},{"name":"arosa","area_code":"81"},{"name":"baden","area_code":"56"},{"name":"basel","area_code":"61"},{"name":"basel stadt","area_code":"61"},{"name":"bellinzona","area_code":"91"},{"name":"bern","area_code":"31"},{"name":"berne","area_code":"31"},{"name":"biel","area_code":"32"},{"name":"biel (bienne)","area_code":"32"},{"name":"bienne","area_code":"32"},{"name":"chiasso","area_code":"91"},{"name":"crans","area_code":"27"},{"name":"davos","area_code":"81"},{"name":"fribourg","area_code":"26"},{"name":"geneva","area_code":"22"},{"name":"gryon (yverdon","area_code":"24"},{"name":"gstaad","area_code":"33"},{"name":"interlaken","area_code":"33"},{"name":"klosters","area_code":"81"},{"name":"la chaux","area_code":"32"},{"name":"lausanne","area_code":"21"},{"name":"lenk im simmental","area_code":"33"},{"name":"locarno","area_code":"91"},{"name":"lucerne","area_code":"41"},{"name":"lugano","area_code":"91"},{"name":"montreux","area_code":"21"},{"name":"neuchâtel","area_code":"32"},{"name":"obewil im simmental","area_code":"33"},{"name":"schaffhausen","area_code":"52"},{"name":"st. gallen","area_code":"71"},{"name":"st. moritz","area_code":"81"},{"name":"vevey","area_code":"21"},{"name":"wengen","area_code":"33"},{"name":"winterthur","area_code":"52"},{"name":"zermatt","area_code":"27"},{"name":"zug","area_code":"41"},{"name":"zurich","area_code":"43"}],"poland":[{"name":"bialystok","area_code":"85"},{"name":"brzeg","area_code":"71"},{"name":"chojnice","area_code":"76"},{"name":"czêstochowa","area_code":"34"},{"name":"elblag","area_code":"50"},{"name":"gdansk","area_code":"58"},{"name":"gdynia","area_code":"58"},{"name":"goleniów","area_code":"91"},{"name":"gorzów wielkopolski","area_code":"95"},{"name":"hel","area_code":"58"},{"name":"kalisz","area_code":"62"},{"name":"katowice","area_code":"32"},{"name":"kielce","area_code":"41"},{"name":"koszalin","area_code":"94"},{"name":"krakow","area_code":"12"},{"name":"leba","area_code":"59"},{"name":"legnica","area_code":"76"},{"name":"lodz","area_code":"42"},{"name":"lublin","area_code":"81"},{"name":"olesnica","area_code":"71"},{"name":"otwock","area_code":"42"},{"name":"plock","area_code":"24"},{"name":"police","area_code":"91"},{"name":"poznañ","area_code":"61"},{"name":"przemysl","area_code":"10"},{"name":"rybnik","area_code":"36"},{"name":"siedlce","area_code":"25"},{"name":"sosnowiec","area_code":"32"},{"name":"stargard szczecinski","area_code":"92"},{"name":"suwalki","area_code":"87"},{"name":"swinoujscie","area_code":"936"},{"name":"szczecin","area_code":"91"},{"name":"tarnow","area_code":"14"},{"name":"tychy","area_code":"59"},{"name":"warsaw","area_code":"22"},{"name":"wroclaw","area_code":"71"},{"name":"zabrze","area_code":"32"},{"name":"zamosc","area_code":"84"},{"name":"zielona gora","area_code":"68"}],"czech republic":[{"name":"brno","area_code":"54"},{"name":"cheb","area_code":"166"},{"name":"liberec","area_code":"48"},{"name":"ostrava","area_code":"69"},{"name":"plzen","area_code":"377"},{"name":"prague","area_code":""},{"name":"tabor","area_code":"712"}],"netherlands":[{"name":"'s-hertogenbosch","area_code":"73"},{"name":"almere","area_code":"36"},{"name":"amersfoort","area_code":"33"},{"name":"amsterdam","area_code":"20"},{"name":"apeldoorn","area_code":"55"},{"name":"arnhem","area_code":"26"},{"name":"breda","area_code":"76"},{"name":"de meern","area_code":"30"},{"name":"delft","area_code":"15"},{"name":"den bosch","area_code":"73"},{"name":"denventer","area_code":"570"},{"name":"deventer","area_code":"570"},{"name":"dordrecht","area_code":"78"},{"name":"ede","area_code":"318"},{"name":"eindhoven","area_code":"40"},{"name":"emmen","area_code":"591"},{"name":"enschede","area_code":"53"},{"name":"groningen","area_code":"50"},{"name":"haarlem","area_code":"23"},{"name":"heemstede","area_code":"23"},{"name":"hillegersberg","area_code":"10"},{"name":"hilversum","area_code":"35"},{"name":"hoensbroek","area_code":"45"},{"name":"hoofddorp","area_code":"23"},{"name":"hoogkerk","area_code":"50"},{"name":"hoogvliet","area_code":"10"},{"name":"houten","area_code":"30"},{"name":"ijsselstein","area_code":"30"},{"name":"leiden","area_code":"71"},{"name":"maastricht","area_code":"43"},{"name":"nieuwegein","area_code":"30"},{"name":"nijmegen","area_code":"24"},{"name":"oud zuilen","area_code":"30"},{"name":"philipsburg","area_code":""},{"name":"rotterdam","area_code":"10"},{"name":"the hague","area_code":"70"},{"name":"the hague (den haag)","area_code":"70"},{"name":"tilburg","area_code":"13"},{"name":"utrecht","area_code":"30"},{"name":"vught","area_code":"73"},{"name":"zaandam","area_code":"75"},{"name":"zeist","area_code":"30"},{"name":"zoetermeer","area_code":"79"},{"name":"zwolle","area_code":"38"}],"finland":[{"name":"Äänekoski","area_code":"14"},{"name":"alajärvi","area_code":"6"},{"name":"alavus","area_code":"6"},{"name":"björneborg","area_code":"2"},{"name":"borgå","area_code":"19"},{"name":"ekenäs","area_code":"19"},{"name":"espoo","area_code":"9"},{"name":"forssa","area_code":"3"},{"name":"haapajärvi","area_code":"8"},{"name":"hämeenlinna","area_code":"3"},{"name":"hangö","area_code":"19"},{"name":"haukipudas","area_code":"8"},{"name":"heinola","area_code":"3"},{"name":"helsingfors","area_code":"9"},{"name":"helsinki","area_code":"9"},{"name":"imatra","area_code":"5"},{"name":"jakobstad","area_code":"6"},{"name":"jämsä","area_code":"14"},{"name":"joensuu","area_code":"13"},{"name":"joutsa","area_code":"14"},{"name":"jyväskylä","area_code":"14"},{"name":"kajaani","area_code":"8"},{"name":"kankaanpää","area_code":"2"},{"name":"karleby","area_code":"6"},{"name":"kauhajoki","area_code":"6"},{"name":"kemi","area_code":"16"},{"name":"kemijärvi","area_code":"16"},{"name":"kemiö","area_code":"2"},{"name":"kempele","area_code":"8"},{"name":"keuruu","area_code":"14"},{"name":"kimito","area_code":"2"},{"name":"kokkola","area_code":"6"},{"name":"koski hl","area_code":"3"},{"name":"koski tl","area_code":"2"},{"name":"kotka","area_code":"5"},{"name":"kouvola","area_code":"5"},{"name":"kuopio","area_code":"17"},{"name":"kuusamo","area_code":"8"},{"name":"lahti","area_code":"3"},{"name":"lappeenranta","area_code":"5"},{"name":"lieksa","area_code":"13"},{"name":"lohja","area_code":"19"},{"name":"loimaa","area_code":"2"},{"name":"mariehamn","area_code":"18"},{"name":"mikkeli","area_code":"15"},{"name":"muonio","area_code":"16"},{"name":"orivesi","area_code":"3"},{"name":"oulu","area_code":"8"},{"name":"padasjoki","area_code":"3"},{"name":"parkano","area_code":"3"},{"name":"pieksämäki","area_code":"15"},{"name":"pori","area_code":"2"},{"name":"porvoo","area_code":"19"},{"name":"raahe","area_code":"8"},{"name":"rauma","area_code":"2"},{"name":"rouvesi","area_code":"3"},{"name":"rovaniemi","area_code":"16"},{"name":"saarijärvi","area_code":"14"},{"name":"savonlinna","area_code":"15"},{"name":"seinäjoki","area_code":"6"},{"name":"suonenjoki","area_code":"17"},{"name":"tammerfors","area_code":"3"},{"name":"tampere","area_code":"3"},{"name":"tavastehus","area_code":"3"},{"name":"tornio","area_code":"16"},{"name":"turku","area_code":"2"},{"name":"uleåbörg","area_code":"8"},{"name":"vaasa","area_code":"6"},{"name":"valkeakoski","area_code":"3"},{"name":"vammala","area_code":"3"},{"name":"vanda","area_code":"9"},{"name":"vantaa","area_code":"9"},{"name":"varkaus","area_code":"17"},{"name":"vasa","area_code":"6"},{"name":"ylivieska","area_code":"8"}],"hungary":[{"name":"abasar","area_code":"37"},{"name":"baja","area_code":"79"},{"name":"balassagyarmat","area_code":"35"},{"name":"balatonaliga","area_code":"84"},{"name":"békéscsaba","area_code":"66"},{"name":"berettyóújfalu","area_code":"54"},{"name":"biatorbágy","area_code":"23"},{"name":"budapest","area_code":"1"},{"name":"budapest/lorinc","area_code":"1"},{"name":"cegléd","area_code":"53"},{"name":"debrecen","area_code":"52"},{"name":"dorgicse","area_code":"80"},{"name":"dunaújváros","area_code":"25"},{"name":"dunaújvárosi","area_code":"25"},{"name":"eger","area_code":"36"},{"name":"esztergom","area_code":"33"},{"name":"fertoboz","area_code":"99"},{"name":"gödöllo","area_code":"28"},{"name":"gyöngyös","area_code":"37"},{"name":"györ","area_code":"96"},{"name":"jászberény","area_code":"57"},{"name":"kaposvár","area_code":"82"},{"name":"karcag","area_code":"59"},{"name":"kazincbarcika","area_code":"48"},{"name":"kecskemét","area_code":"76"},{"name":"keszthely","area_code":"83"},{"name":"kiskorös","area_code":"78"},{"name":"kiskunhalas","area_code":"77"},{"name":"kisvárda","area_code":"45"},{"name":"komlo","area_code":"72"},{"name":"marcali","area_code":"85"},{"name":"mátészalka","area_code":"44"},{"name":"mezokövesd","area_code":"49"},{"name":"miskolc","area_code":"46"},{"name":"mohács","area_code":"69"},{"name":"monor","area_code":"29"},{"name":"nagykanizsa","area_code":"93"},{"name":"nyíregyháza","area_code":"42"},{"name":"orosháza","area_code":"68"},{"name":"Ózd","area_code":"48"},{"name":"paks","area_code":"75"},{"name":"pápa","area_code":"89"},{"name":"pécs","area_code":"72"},{"name":"pecsvarad","area_code":"72"},{"name":"salgótarján","area_code":"32"},{"name":"sárvár","area_code":"95"},{"name":"siófok","area_code":"84"},{"name":"sopron","area_code":"99"},{"name":"szeged","area_code":"62"},{"name":"székesfehérvár","area_code":"22"},{"name":"szekszárd","area_code":"74"},{"name":"szentendre","area_code":"26"},{"name":"szentes","area_code":"63"},{"name":"szerencs","area_code":"47"},{"name":"szigetszentmiklós","area_code":"24"},{"name":"szigetvár","area_code":"73"},{"name":"szolnok","area_code":"56"},{"name":"szombathely","area_code":"94"},{"name":"tapolca","area_code":"87"},{"name":"tatabánya","area_code":"34"},{"name":"vác","area_code":"27"},{"name":"vacs","area_code":"27"},{"name":"veszprém","area_code":"88"},{"name":"zalaegerszeg","area_code":"92"}],"romania":[{"name":"arad","area_code":"257"},{"name":"bacau","area_code":"234"},{"name":"botosani","area_code":"231"},{"name":"braila","area_code":"239"},{"name":"brasov","area_code":"268"},{"name":"bucharest","area_code":"21"},{"name":"buzau","area_code":"238"},{"name":"calarasi","area_code":"242"},{"name":"caransebes","area_code":"255"},{"name":"ceahlau","area_code":"233"},{"name":"cluj napoca","area_code":"264"},{"name":"constanta","area_code":"241"},{"name":"craiova","area_code":"251"},{"name":"drobeta turnu severin","area_code":"252"},{"name":"focsani","area_code":"237"},{"name":"galati","area_code":"236"},{"name":"gheorgheni","area_code":"266"},{"name":"giurgiu","area_code":"246"},{"name":"iasi","area_code":"232"},{"name":"oradea","area_code":"259"},{"name":"petrosani","area_code":"254"},{"name":"pitesti","area_code":"248"},{"name":"ploiesti","area_code":"244"},{"name":"rosiori de vede","area_code":"247"},{"name":"satu mare","area_code":"261"},{"name":"sibiu","area_code":"269"},{"name":"sighetu marmatiei","area_code":"262"},{"name":"slatina","area_code":"249"},{"name":"slobozia","area_code":"243"},{"name":"sulina","area_code":"240"},{"name":"talmaciu","area_code":"269"},{"name":"timisoara","area_code":"256"},{"name":"tirgoviste","area_code":"245"}],"belarus":[{"name":"brest","area_code":"16"},{"name":"gomel","area_code":"2322"},{"name":"grodno","area_code":"1511"},{"name":"minsk","area_code":"17"},{"name":"mogilev","area_code":"222"},{"name":"vitebsk","area_code":"212"}],"belgium":[{"name":"aalst (alost)","area_code":"53"},{"name":"anderlecht","area_code":"2"},{"name":"antwerp","area_code":"3"},{"name":"arlon","area_code":"63"},{"name":"ath","area_code":"67"},{"name":"bruges","area_code":"50"},{"name":"brugge (bruges)","area_code":"50"},{"name":"brussels","area_code":"2"},{"name":"charleroi","area_code":"71"},{"name":"chimay","area_code":"60"},{"name":"ciney","area_code":"83"},{"name":"dendermonde","area_code":"52"},{"name":"diest","area_code":"13"},{"name":"dinant","area_code":"82"},{"name":"durbuy","area_code":"86"},{"name":"genk","area_code":"89"},{"name":"gent","area_code":"9"},{"name":"ghent","area_code":"9"},{"name":"hasselt","area_code":"11"},{"name":"herentals","area_code":"14"},{"name":"huy (hoei)","area_code":"85"},{"name":"la louvière","area_code":"64"},{"name":"leuven","area_code":"16"},{"name":"leuven (louvain)","area_code":"16"},{"name":"libramont","area_code":"61"},{"name":"liege","area_code":"4"},{"name":"liège (luik)","area_code":"4"},{"name":"mechelen","area_code":"15"},{"name":"mechelen (malines)","area_code":"15"},{"name":"mons","area_code":"65"},{"name":"mons (bergen)","area_code":"65"},{"name":"namur","area_code":"81"},{"name":"namur (namen)","area_code":"81"},{"name":"nieuwpoort (nieuport)","area_code":"58"},{"name":"ninove","area_code":"54"},{"name":"nivelles (nijvel)","area_code":"67"},{"name":"oostende","area_code":"59"},{"name":"roeselare (roulers)","area_code":"51"},{"name":"ronse","area_code":"55"},{"name":"stavelot","area_code":"80"},{"name":"tongeren (tongres)","area_code":"12"},{"name":"tounai","area_code":"69"},{"name":"turnhout","area_code":"14"},{"name":"verviers","area_code":"87"},{"name":"veurne","area_code":"58"},{"name":"wareme","area_code":"19"},{"name":"wavre (waver)","area_code":"10"},{"name":"zeebrugge","area_code":"50"}],"bulgaria":[{"name":"blagoevgrad","area_code":"73"},{"name":"bourgas","area_code":"56"},{"name":"dobritch","area_code":"58"},{"name":"gabrovo","area_code":"66"},{"name":"gotse delchev","area_code":"751"},{"name":"haskovo","area_code":"38"},{"name":"kardjali","area_code":"361"},{"name":"kazanluk","area_code":"431"},{"name":"kjustendil","area_code":"78"},{"name":"lovech","area_code":"68"},{"name":"lovetch","area_code":"68"},{"name":"mobile phones","area_code":"89"},{"name":"montana","area_code":"96"},{"name":"pazardjik","area_code":"34"},{"name":"pernik","area_code":"76"},{"name":"pleven","area_code":"64"},{"name":"plovdiv","area_code":"32"},{"name":"razgrad","area_code":"84"},{"name":"rousse","area_code":"82"},{"name":"ruse","area_code":"82"},{"name":"shoumen","area_code":"54"},{"name":"silistra","area_code":"86"},{"name":"sliven","area_code":"44"},{"name":"smolyan","area_code":"301"},{"name":"sofia","area_code":"2"},{"name":"stara zagora","area_code":"42"},{"name":"targovishte","area_code":"601"},{"name":"varna","area_code":"52"},{"name":"veliko tarnovo","area_code":"62"},{"name":"vidin","area_code":"94"},{"name":"vratsa","area_code":"92"},{"name":"yambol","area_code":"46"}],"slovakia":[{"name":"banská bystrica","area_code":"48"},{"name":"bardejov","area_code":"54"},{"name":"bratislava","area_code":"2"},{"name":"dujanská streda","area_code":"31"},{"name":"humenné","area_code":"57"},{"name":"kosice","area_code":"55"},{"name":"levice 36","area_code":"36"},{"name":"lucenec","area_code":"47"},{"name":"martin","area_code":"43"},{"name":"michalovce","area_code":"56"},{"name":"nitra","area_code":"37"},{"name":"nové zámky","area_code":"35"},{"name":"poprad","area_code":"52"},{"name":"prievidza","area_code":"46"},{"name":"senec","area_code":"34"},{"name":"senica","area_code":"34"},{"name":"topol'cany","area_code":"38"},{"name":"trencín","area_code":"32"},{"name":"trnava","area_code":"33"},{"name":"zvolen","area_code":"45"}],"serbia":[],"croatia":[{"name":"bjelovar","area_code":"43"},{"name":"cakovec","area_code":"40"},{"name":"dubrovnik","area_code":"20"},{"name":"gospic","area_code":"53"},{"name":"karlovac","area_code":"47"},{"name":"koprivnica","area_code":"48"},{"name":"krapina","area_code":"49"},{"name":"mobile phones","area_code":"95"},{"name":"osijek","area_code":"31"},{"name":"pazin","area_code":"52"},{"name":"pozega","area_code":"34"},{"name":"rijeka","area_code":"51"},{"name":"sibenik","area_code":"22"},{"name":"sisak","area_code":"44"},{"name":"slavonski brod","area_code":"35"},{"name":"split","area_code":"21"},{"name":"varazdin","area_code":"42"},{"name":"vinkovci","area_code":"32"},{"name":"virovitica","area_code":"33"},{"name":"zadar","area_code":"23"},{"name":"zagreb","area_code":"1"}],"estonia":[{"name":"tallinn","area_code":""},{"name":"valga","area_code":"76"}],"cyprus":[{"name":"akrotiri","area_code":""},{"name":"cabo kormakitis","area_code":""},{"name":"famagusta","area_code":"23"},{"name":"lárnaca","area_code":"24"},{"name":"limassol","area_code":"25"},{"name":"nicosia","area_code":"22"},{"name":"pafos","area_code":"26"}],"macedonia":[{"name":"berovo","area_code":"33"},{"name":"bitola","area_code":"47"},{"name":"debar","area_code":"46"},{"name":"delchevo","area_code":"33"},{"name":"demir hisar","area_code":"47"},{"name":"dojran","area_code":"34"},{"name":"gevgelija","area_code":"34"},{"name":"gostivar","area_code":"42"},{"name":"kavadarci","area_code":"43"},{"name":"kichevo","area_code":"45"},{"name":"kocani","area_code":"33"},{"name":"kratovo","area_code":"31"},{"name":"kriva palanka","area_code":"31"},{"name":"krushevo","area_code":"48"},{"name":"kumanovo","area_code":"31"},{"name":"makedonski brod","area_code":"48"},{"name":"negotino","area_code":"43"},{"name":"ohrid","area_code":"46"},{"name":"pehchevo","area_code":"33"},{"name":"prilep","area_code":"48"},{"name":"probistip","area_code":"32"},{"name":"radovish","area_code":"32"},{"name":"resen","area_code":"47"},{"name":"shtip","area_code":"32"},{"name":"skopje","area_code":"2"},{"name":"struga","area_code":"46"},{"name":"strumica","area_code":"34"},{"name":"sveti nikole","area_code":"32"},{"name":"tetovo","area_code":"44"},{"name":"valandovo","area_code":"34"},{"name":"veles","area_code":"43"},{"name":"vinica","area_code":"33"}],"south africa":[{"name":"bethlehem","area_code":"835"},{"name":"bloemfontein","area_code":"51"},{"name":"cape town","area_code":"21"},{"name":"durban","area_code":"31"},{"name":"east london","area_code":"431"},{"name":"george","area_code":"712"},{"name":"johannesburg","area_code":"11"},{"name":"port elizabeth","area_code":"41"},{"name":"pretoria","area_code":"12"},{"name":"uitenhage","area_code":"41"},{"name":"vereeniging","area_code":"11"},{"name":"welkom","area_code":"57"}],"algeria":[{"name":"adrar","area_code":"49"},{"name":"algiers","area_code":"21"},{"name":"annaba","area_code":"38"},{"name":"batna","area_code":"33"},{"name":"béchar","area_code":"49"},{"name":"bejaïa","area_code":"34"},{"name":"beskra","area_code":"33"},{"name":"bordj bou arreridj","area_code":"35"},{"name":"chlef","area_code":"27"},{"name":"constantine","area_code":"31"},{"name":"el oued","area_code":"32"},{"name":"ghardaia","area_code":"29"},{"name":"illizi","area_code":"29"},{"name":"jijel","area_code":"34"},{"name":"oran","area_code":"41"},{"name":"skikda","area_code":"38"},{"name":"tamanrasset","area_code":"29"},{"name":"tebessa","area_code":"37"},{"name":"tindouf","area_code":"49"},{"name":"tlemcen","area_code":"43"}],"egypt":[{"name":"al jizah","area_code":"2"},{"name":"alexandria","area_code":"3"},{"name":"assiut","area_code":"88"},{"name":"aswan","area_code":"97"},{"name":"cairo","area_code":"2"},{"name":"el arish","area_code":"68"},{"name":"el tor","area_code":"69"},{"name":"hurghada","area_code":"65"},{"name":"ismailia","area_code":"64"},{"name":"luxor","area_code":"95"},{"name":"port said","area_code":"66"},{"name":"qina","area_code":"96"},{"name":"shibîn el kôm","area_code":"48"},{"name":"suez","area_code":"62"},{"name":"zagazig","area_code":"55"}],"morocco":[{"name":"agadir","area_code":"548"},{"name":"casablanca","area_code":"22"},{"name":"fes","area_code":"55"},{"name":"marrakesh","area_code":"44"},{"name":"meknes","area_code":"55"},{"name":"oujda","area_code":"56"},{"name":"rabat","area_code":"37"},{"name":"tangier","area_code":"5399"},{"name":"tetouan","area_code":"39"}],"tunisia":[{"name":"bizerte","area_code":"2"},{"name":"chebba","area_code":"4"},{"name":"gabes","area_code":"5"},{"name":"gafsa","area_code":"6"},{"name":"monastir","area_code":"3"},{"name":"sfax","area_code":"4"},{"name":"sousse","area_code":"3"},{"name":"tabarka","area_code":"8"},{"name":"tozeur","area_code":"6"},{"name":"tunis","area_code":"1"}],"nigeria":[{"name":"aba","area_code":"82"},{"name":"abakaliki","area_code":"43"},{"name":"abeokuta","area_code":"39"},{"name":"abuja","area_code":"9"},{"name":"ado ekiti","area_code":"30"},{"name":"agbor","area_code":"55"},{"name":"ahoada","area_code":"86"},{"name":"akure","area_code":"34"},{"name":"asaba","area_code":"56"},{"name":"auchi","area_code":"57"},{"name":"awka","area_code":"48"},{"name":"azare","area_code":"71"},{"name":"badagry","area_code":"1"},{"name":"bauchi","area_code":"77"},{"name":"benin","area_code":"52"},{"name":"birnin","area_code":"68"},{"name":"calabar","area_code":"87"},{"name":"damaturu","area_code":"74"},{"name":"edo","area_code":"52"},{"name":"enugu","area_code":"42"},{"name":"gombe","area_code":"72"},{"name":"gusau","area_code":"63"},{"name":"hadejia","area_code":"78"},{"name":"ibadan","area_code":"2"},{"name":"ijebu ode","area_code":"37"},{"name":"ikare","area_code":"50"},{"name":"ile ife","area_code":"36"},{"name":"ilorin","area_code":"31"},{"name":"jalingo","area_code":"79"},{"name":"jos","area_code":"73"},{"name":"kaduna","area_code":"62"},{"name":"kafanchau","area_code":"61"},{"name":"kano","area_code":"64"},{"name":"kano nigeria","area_code":"64"},{"name":"katsina","area_code":"65"},{"name":"kontagora","area_code":"67"},{"name":"lafia","area_code":"47"},{"name":"lagos","area_code":"1"},{"name":"lokoja","area_code":"58"},{"name":"maiduguri","area_code":"76"},{"name":"makurdi","area_code":"44"},{"name":"minna","area_code":"66"},{"name":"new bussa","area_code":"33"},{"name":"niger sate","area_code":"66"},{"name":"ogoja","area_code":"45"},{"name":"okitipupa","area_code":"59"},{"name":"onitsha","area_code":"46"},{"name":"oshogbo","area_code":"35"},{"name":"owerri","area_code":"83"},{"name":"owo","area_code":"51"},{"name":"oyo","area_code":"38"},{"name":"pank shin","area_code":"70"},{"name":"port harcourt","area_code":"84"},{"name":"sapele","area_code":"54"},{"name":"sokobo","area_code":"60"},{"name":"umuahia","area_code":"88"},{"name":"uyo","area_code":"85"},{"name":"warri","area_code":"53"},{"name":"wukari","area_code":"41"},{"name":"yenegoa","area_code":"89"},{"name":"yola","area_code":"75"},{"name":"zaria","area_code":"69"}],"kenya":[{"name":"garissa","area_code":"46"},{"name":"kakamega","area_code":"56"},{"name":"kericho","area_code":"52"},{"name":"kisii","area_code":"58"},{"name":"kisumu","area_code":"57"},{"name":"kitale","area_code":"54"},{"name":"malindi","area_code":"42"},{"name":"marsabit","area_code":"69"},{"name":"meru","area_code":"64"},{"name":"mombasa","area_code":"41"},{"name":"nairobi","area_code":"20"},{"name":"nakuru","area_code":"51"},{"name":"thika","area_code":"67"},{"name":"voi","area_code":"43"}],"botswana":[{"name":"francistown","area_code":"24"},{"name":"gaborone","area_code":"31"},{"name":"ghanzi","area_code":"65"},{"name":"jwaneng","area_code":"58"},{"name":"kasane","area_code":"62"},{"name":"letlhakane","area_code":"29"},{"name":"mahalapye","area_code":"47"},{"name":"maun","area_code":"68"},{"name":"selebi phikwe","area_code":"26"}],"congo (dem. rep.)":[{"name":"kinshasa","area_code":"12"}],"china":[{"name":"aihui","area_code":"456"},{"name":"akesu","area_code":"997"},{"name":"ankang","area_code":"915"},{"name":"anqing","area_code":"556"},{"name":"anshan","area_code":"412"},{"name":"anshun","area_code":"853"},{"name":"anyang","area_code":"372"},{"name":"baise","area_code":"776"},{"name":"baoding","area_code":"312"},{"name":"baoji","area_code":"917"},{"name":"baotou","area_code":"472"},{"name":"beihai","area_code":"779"},{"name":"beijing","area_code":"10"},{"name":"bengbu","area_code":"552"},{"name":"benxi","area_code":"414"},{"name":"changbai","area_code":"4458"},{"name":"changchun","area_code":"431"},{"name":"changde","area_code":"736"},{"name":"changji","area_code":"994"},{"name":"changsha","area_code":"731"},{"name":"changshu","area_code":"512"},{"name":"changzhou","area_code":"519"},{"name":"chaoyang","area_code":"421"},{"name":"chengde","area_code":"314"},{"name":"chengdu","area_code":"28"},{"name":"chifeng","area_code":"476"},{"name":"chongqing","area_code":"23"},{"name":"chuxiong","area_code":"878"},{"name":"dali","area_code":"872"},{"name":"dalian","area_code":"411"},{"name":"dandong","area_code":"415"},{"name":"daqing","area_code":"459"},{"name":"datong","area_code":"352"},{"name":"dongfang","area_code":"8003"},{"name":"dunhua","area_code":"4435"},{"name":"dunhuang","area_code":"9473"},{"name":"erlianhaote","area_code":"4813"},{"name":"fengcheng","area_code":"7888"},{"name":"foshan","area_code":"757"},{"name":"fuding","area_code":"5033"},{"name":"fushun","area_code":"413"},{"name":"fuyang","area_code":"571"},{"name":"fuzhou","area_code":"591"},{"name":"ganzhou","area_code":"797"},{"name":"guang an","area_code":"8269"},{"name":"guangzhou","area_code":"20"},{"name":"guilin","area_code":"773"},{"name":"guiyang","area_code":"851"},{"name":"guyang","area_code":"4823"},{"name":"haikou","area_code":"898"},{"name":"hailun","area_code":"4652"},{"name":"haining","area_code":"5834"},{"name":"hami","area_code":"9022"},{"name":"hangzhou","area_code":"571"},{"name":"hanzhong","area_code":"916"},{"name":"harbin","area_code":"451"},{"name":"hechi","area_code":"778"},{"name":"hefei","area_code":"551"},{"name":"hohhot","area_code":"471"},{"name":"huangshi","area_code":"714"},{"name":"huizhou","area_code":"752"},{"name":"huzhou","area_code":"572"},{"name":"jiangjin","area_code":"8221"},{"name":"jiangling","area_code":"716"},{"name":"jiangmen","area_code":"750"},{"name":"jilin","area_code":"432"},{"name":"jinan","area_code":"531"},{"name":"jingdezhen","area_code":"798"},{"name":"jining","area_code":"537"},{"name":"jinzhou","area_code":"416"},{"name":"jiujiang","area_code":"792"},{"name":"jiuquan","area_code":"937"},{"name":"jixi","area_code":"4617"},{"name":"kaifeng","area_code":"378"},{"name":"kashi","area_code":"998"},{"name":"kunming","area_code":"871"},{"name":"lanxi","area_code":"579"},{"name":"lanzhou","area_code":"931"},{"name":"lhasa","area_code":"891"},{"name":"liaoyang","area_code":"419"},{"name":"lijing","area_code":"5430"},{"name":"linhai","area_code":"576"},{"name":"lintong","area_code":"29"},{"name":"linxi","area_code":"4868"},{"name":"linzhi","area_code":"894"},{"name":"liuyang","area_code":"731"},{"name":"liuzhou","area_code":"772"},{"name":"luoyang","area_code":"379"},{"name":"maoming","area_code":"7683"},{"name":"meishan","area_code":"8425"},{"name":"mianyang","area_code":"816"},{"name":"miquan","area_code":"9041"},{"name":"mohe","area_code":"457"},{"name":"mudanjiang","area_code":"467"},{"name":"nanchang","area_code":"791"},{"name":"nanjing","area_code":"25"},{"name":"nanning","area_code":"771"},{"name":"nantong","area_code":"513"},{"name":"nanyang","area_code":"377"},{"name":"nenjiang","area_code":"4665"},{"name":"ningbo","area_code":"574"},{"name":"pingliang","area_code":"933"},{"name":"qingdao","area_code":"532"},{"name":"qiqihar","area_code":"452"},{"name":"qitai","area_code":"994"},{"name":"quanzhou","area_code":"595"},{"name":"qujiang","area_code":"751"},{"name":"ruili","area_code":"8885"},{"name":"shanghai","area_code":"21"},{"name":"shantou","area_code":"754"},{"name":"shaoguan","area_code":"751"},{"name":"shaoxing","area_code":"575"},{"name":"shaoyang","area_code":"739"},{"name":"shenyang","area_code":"24"},{"name":"shenzhen","area_code":"755"},{"name":"shijiazhuang","area_code":"311"},{"name":"shuangcheng","area_code":"4615"},{"name":"siping","area_code":"434"},{"name":"stanley","area_code":"270"},{"name":"suifenhe","area_code":"4638"},{"name":"tacheng","area_code":"9003"},{"name":"taiyuan","area_code":"351"},{"name":"tangshan","area_code":"315"},{"name":"tianjin","area_code":"22"},{"name":"tianshui","area_code":"938"},{"name":"tongliao","area_code":"475"},{"name":"urumqi","area_code":"991"},{"name":"weifang","area_code":"536"},{"name":"weinan","area_code":"913"},{"name":"wenzhou","area_code":"577"},{"name":"wudu","area_code":"939"},{"name":"wuhan","area_code":"27"},{"name":"wuhu","area_code":"553"},{"name":"wuyishan","area_code":"599"},{"name":"xi an","area_code":"29"},{"name":"xiamen","area_code":"592"},{"name":"xiangtan","area_code":"732"},{"name":"xianyang","area_code":"910"},{"name":"xichang","area_code":"834"},{"name":"xin an","area_code":"5482"},{"name":"xining","area_code":"971"},{"name":"xinjin","area_code":"971"},{"name":"xinxiang","area_code":"373"},{"name":"xinyang","area_code":"373"},{"name":"xinyi","area_code":"859"},{"name":"xuzhou","area_code":"516"},{"name":"ya an","area_code":"835"},{"name":"yan an","area_code":"911"},{"name":"yangquan","area_code":"353"},{"name":"yangzhou","area_code":"514"},{"name":"yanji","area_code":"433"},{"name":"yibin","area_code":"831"},{"name":"yinchuan","area_code":"951"},{"name":"yingkou","area_code":"417"},{"name":"yining","area_code":"999"},{"name":"yiwu","area_code":"579"},{"name":"yiyang","area_code":"7038"},{"name":"yongchuan","area_code":"814"},{"name":"yuanmou","area_code":"8869"},{"name":"yueyang","area_code":"730"},{"name":"yulin","area_code":"912"},{"name":"yushu","area_code":"976"},{"name":"zhangjiakou","area_code":"313"},{"name":"zhangzhou","area_code":"596"},{"name":"zhanjiang","area_code":"759"},{"name":"zhengzhou","area_code":"371"},{"name":"zhenjiang","area_code":"511"},{"name":"zhijiang","area_code":"7420"},{"name":"zhumadian","area_code":"3011"},{"name":"zibo","area_code":"533"},{"name":"zunyi","area_code":"852"}],"india":[{"name":"agartala","area_code":"381"},{"name":"agra","area_code":"562"},{"name":"ahmedabad","area_code":"79"},{"name":"aizawl","area_code":"389"},{"name":"ajmer","area_code":"145"},{"name":"akbarpur","area_code":"5271"},{"name":"akola","area_code":"724"},{"name":"alappuzha","area_code":"477"},{"name":"aligarh","area_code":"571"},{"name":"alipore","area_code":"33"},{"name":"alwar","area_code":"144"},{"name":"amravati","area_code":"721"},{"name":"amritsar","area_code":"183"},{"name":"amroha","area_code":"5922"},{"name":"anand","area_code":"2692"},{"name":"anantapur","area_code":"8554"},{"name":"anantnag","area_code":"193"},{"name":"angul","area_code":"6764"},{"name":"araria","area_code":"6453"},{"name":"arrah","area_code":"6182"},{"name":"asansol","area_code":"341"},{"name":"auraiya","area_code":"5683"},{"name":"aurangabad","area_code":"2432"},{"name":"azamgarh","area_code":"5462"},{"name":"badaun","area_code":"5832"},{"name":"bagpat","area_code":"1234"},{"name":"baharampur","area_code":"3482"},{"name":"bahraich","area_code":"5252"},{"name":"balaghat","area_code":"7632"},{"name":"balangir","area_code":"6652"},{"name":"balasore","area_code":"6782"},{"name":"ballia","area_code":"5498"},{"name":"balrampur","area_code":"5263"},{"name":"balurghat","area_code":"3522"},{"name":"banda","area_code":"5192"},{"name":"bangalore","area_code":"80"},{"name":"banka","area_code":"6424"},{"name":"bankura","area_code":"3242"},{"name":"banswara","area_code":"2962"},{"name":"barabanki","area_code":"5248"},{"name":"baramulla","area_code":"1952"},{"name":"baran","area_code":"7453"},{"name":"barasat","area_code":"33"},{"name":"barddhaman","area_code":"342"},{"name":"bardhaman","area_code":"342"},{"name":"bareilly","area_code":"581"},{"name":"bargarh","area_code":"6646"},{"name":"baripada","area_code":"6792"},{"name":"barmer","area_code":"2982"},{"name":"barnala","area_code":"1679"},{"name":"baroda","area_code":"265"},{"name":"barwani","area_code":"7290"},{"name":"basti","area_code":"5542"},{"name":"bathinda","area_code":"164"},{"name":"beawar","area_code":"1462"},{"name":"beed","area_code":"2442"},{"name":"begusarai","area_code":"6243"},{"name":"berhampur","area_code":"680"},{"name":"bettiah","area_code":"6254"},{"name":"betul","area_code":"7141"},{"name":"bhabua","area_code":"6189"},{"name":"bhadrachalam","area_code":"8743"},{"name":"bhadrak","area_code":"6784"},{"name":"bhagalpur","area_code":"641"},{"name":"bhandara","area_code":"7184"},{"name":"bharatpur","area_code":"5644"},{"name":"bharuch","area_code":"2642"},{"name":"bhavnagar","area_code":"278"},{"name":"bhawanipatna","area_code":"6670"},{"name":"bhilwara","area_code":"1482"},{"name":"bhind","area_code":"7534"},{"name":"bhinga","area_code":"5250"},{"name":"bhopal","area_code":"755"},{"name":"bhubaneshwar","area_code":"674"},{"name":"bhubaneswar","area_code":"674"},{"name":"bhuj","area_code":"2832"},{"name":"bijnor","area_code":"1342"},{"name":"bikaner","area_code":"151"},{"name":"bokaro steel city","area_code":"6542"},{"name":"bombay","area_code":"22"},{"name":"boudh","area_code":"6841"},{"name":"bulandshahr","area_code":"5732"},{"name":"buldhana","area_code":"7262"},{"name":"bundi","area_code":"747"},{"name":"burhanpur","area_code":"7325"},{"name":"buxar","area_code":"6183"},{"name":"calcutta","area_code":"33"},{"name":"chandauli","area_code":"5412"},{"name":"chandigarh","area_code":"172"},{"name":"chandrapur","area_code":"7172"},{"name":"chennai","area_code":"44"},{"name":"chennai (formerly madras)","area_code":"44"},{"name":"chennai (madras)","area_code":"44"},{"name":"cherrapunji","area_code":"3637"},{"name":"chhapra","area_code":"6152"},{"name":"chhatarpur","area_code":"7682"},{"name":"chhatrapur","area_code":"6811"},{"name":"chhindwara","area_code":"7162"},{"name":"chitrakuta","area_code":"5194"},{"name":"chittoor","area_code":"8572"},{"name":"chittorgarh","area_code":"8572"},{"name":"churu","area_code":"1562"},{"name":"cochin (kochi)","area_code":"484"},{"name":"coimbator","area_code":"422"},{"name":"coimbatore","area_code":"422"},{"name":"cooch behar","area_code":"3582"},{"name":"cuddalore","area_code":"4142"},{"name":"cuttack","area_code":"671"},{"name":"daman","area_code":"260"},{"name":"damoh","area_code":"7638"},{"name":"darbhanga","area_code":"6272"},{"name":"darjeeling","area_code":"354"},{"name":"datia","area_code":"7522"},{"name":"dausa","area_code":"1427"},{"name":"debagarh","area_code":"6641"},{"name":"dehra dun","area_code":"135"},{"name":"dehradun","area_code":"135"},{"name":"delhi","area_code":"11"},{"name":"deogarh","area_code":"6432"},{"name":"deoghar","area_code":"6432"},{"name":"deoria","area_code":"5568"},{"name":"dewas","area_code":"7272"},{"name":"dhanbad","area_code":"326"},{"name":"dhar","area_code":"7292"},{"name":"dharmapuri","area_code":"4342"},{"name":"dhenkanal","area_code":"6762"},{"name":"dholpur","area_code":"5642"},{"name":"dhule","area_code":"2562"},{"name":"dibrugarh","area_code":"373"},{"name":"dimapur","area_code":"3862"},{"name":"dindigul","area_code":"451"},{"name":"dispur","area_code":"361"},{"name":"dungarpur","area_code":"2964"},{"name":"eluru","area_code":"8812"},{"name":"erode","area_code":"424"},{"name":"etah","area_code":"5742"},{"name":"etawah","area_code":"5688"},{"name":"faizabad","area_code":"5278"},{"name":"faridabad","area_code":"129"},{"name":"faridkot","area_code":"1639"},{"name":"fatehgarh","area_code":"5692"},{"name":"fatehgarh sahib","area_code":"1763"},{"name":"fatehpur","area_code":"5240"},{"name":"fathepur sikri","area_code":"5619"},{"name":"firozabad","area_code":"5612"},{"name":"firozpur","area_code":"1632"},{"name":"gadchiroli","area_code":"7132"},{"name":"gandhinagar","area_code":"2712"},{"name":"ganganagar","area_code":"154"},{"name":"gangtok","area_code":"3592"},{"name":"gaya","area_code":"631"},{"name":"ghaziabad","area_code":"120"},{"name":"ghazipur","area_code":"548"},{"name":"giridih","area_code":"1933"},{"name":"gonda","area_code":"5262"},{"name":"gondia","area_code":"7182"},{"name":"gopalganj","area_code":"6156"},{"name":"gorakhpur","area_code":"551"},{"name":"gumla","area_code":"6524"},{"name":"guna","area_code":"7542"},{"name":"guntur","area_code":"863"},{"name":"gurdaspur","area_code":"1874"},{"name":"gurgaon","area_code":"124"},{"name":"guwahati","area_code":"361"},{"name":"gwalior","area_code":"751"},{"name":"gyanpur","area_code":"5414"},{"name":"hajipur","area_code":"6224"},{"name":"haldwani","area_code":"5946"},{"name":"hamirpur","area_code":"5282"},{"name":"hanumangarh","area_code":"1552"},{"name":"harda","area_code":"7577"},{"name":"hardoi","area_code":"5852"},{"name":"haridwar","area_code":"1332"},{"name":"hathras","area_code":"5722"},{"name":"hazaribagh","area_code":"6546"},{"name":"hingoli","area_code":"2456"},{"name":"hoshangabad","area_code":"7574"},{"name":"hoshiarpur","area_code":"1882"},{"name":"howrah","area_code":"33"},{"name":"hugli-chuchura","area_code":"33"},{"name":"hyderabad","area_code":"40"},{"name":"imphal","area_code":"3852"},{"name":"indore","area_code":"731"},{"name":"itanagar","area_code":"360"},{"name":"jabalpur","area_code":"761"},{"name":"jagatsinghpur","area_code":"6724"},{"name":"jaipur","area_code":"141"},{"name":"jaisalmer","area_code":"2922"},{"name":"jalandhar","area_code":"181"},{"name":"jalgaon","area_code":"257"},{"name":"jalna","area_code":"2482"},{"name":"jalore","area_code":"2972"},{"name":"jalpaiguri","area_code":"3561"},{"name":"jammu","area_code":"191"},{"name":"jamnagar","area_code":"288"},{"name":"jamshedpur","area_code":"657"},{"name":"jamui","area_code":"6345"},{"name":"jaunpur","area_code":"5452"},{"name":"jehanabad","area_code":"6114"},{"name":"jhabua","area_code":"7392"},{"name":"jhalawar","area_code":"7432"},{"name":"jhansi","area_code":"510"},{"name":"jharsuguda","area_code":"6645"},{"name":"jhunjhunu","area_code":"1595"},{"name":"jodhpur","area_code":"291"},{"name":"jullundur","area_code":"181"},{"name":"junagadh","area_code":"285"},{"name":"kalpetta","area_code":"4936"},{"name":"kanchipuram","area_code":"44"},{"name":"kannauj","area_code":"5694"},{"name":"kanpur","area_code":"512"},{"name":"kapurthala","area_code":"1822"},{"name":"karauli","area_code":"7464"},{"name":"karjat","area_code":"2489"},{"name":"karur","area_code":"4324"},{"name":"kasaragod","area_code":"494"},{"name":"kathua","area_code":"1922"},{"name":"katihar","area_code":"6452"},{"name":"katni","area_code":"7622"},{"name":"kavaratti","area_code":"4896"},{"name":"kendrapara","area_code":"6727"},{"name":"kendujhar","area_code":"6766"},{"name":"khagaria","area_code":"6244"},{"name":"khalilabad","area_code":"5547"},{"name":"khandwa","area_code":"733"},{"name":"kharagpur","area_code":"3222"},{"name":"khargone","area_code":"7282"},{"name":"khordha","area_code":"6755"},{"name":"kishanganj","area_code":"6466"},{"name":"kochi","area_code":"484"},{"name":"kohima","area_code":"370"},{"name":"kolhapur","area_code":"231"},{"name":"kolkata","area_code":"33"},{"name":"kolkata (calcutta)","area_code":"33"},{"name":"kolkatta (formerly calcutta)","area_code":"33"},{"name":"kollam","area_code":"474"},{"name":"koraput","area_code":"6852"},{"name":"kota","area_code":"744"},{"name":"kottayam","area_code":"481"},{"name":"kozhikode","area_code":"495"},{"name":"krishnagiri","area_code":"4343"},{"name":"krishnanagar","area_code":"3472"},{"name":"kulti","area_code":"341"},{"name":"lakhimpur","area_code":"5872"},{"name":"lakhisarai","area_code":"6346"},{"name":"lalitpur","area_code":"5176"},{"name":"latur","area_code":"2382"},{"name":"lucknow","area_code":"522"},{"name":"ludhiana","area_code":"161"},{"name":"madhepura","area_code":"6476"},{"name":"madhubani","area_code":"6276"},{"name":"madras","area_code":"44"},{"name":"madurai","area_code":"452"},{"name":"maharajganj","area_code":"5523"},{"name":"mahoba","area_code":"5281"},{"name":"mainpuri","area_code":"5672"},{"name":"malda","area_code":"3512"},{"name":"malkangiri","area_code":"6861"},{"name":"mandla","area_code":"7642"},{"name":"mandsaur","area_code":"7422"},{"name":"manipal","area_code":"8252"},{"name":"manjhanpur","area_code":"5331"},{"name":"mansa","area_code":"1652"},{"name":"margao","area_code":"8342"},{"name":"mathura","area_code":"565"},{"name":"mau","area_code":"5195"},{"name":"meerut","area_code":"121"},{"name":"midnapore","area_code":"3222"},{"name":"mirzapur","area_code":"5442"},{"name":"moga","area_code":"1636"},{"name":"mohali","area_code":"172"},{"name":"moradabad","area_code":"591"},{"name":"morena","area_code":"7532"},{"name":"motihari","area_code":"6252"},{"name":"mount abu","area_code":"2974"},{"name":"muktsar","area_code":"1633"},{"name":"mumbai","area_code":"22"},{"name":"mumbai (bombay)","area_code":"22"},{"name":"mumbai (formerly bombay )","area_code":"22"},{"name":"munger","area_code":"6344"},{"name":"mussooree","area_code":"1362"},{"name":"muzaffarnagar","area_code":"131"},{"name":"muzaffarpur","area_code":"621"},{"name":"mysore","area_code":"821"},{"name":"nabarangpur","area_code":"685"},{"name":"nadiad","area_code":"268"},{"name":"nagaon","area_code":"3672"},{"name":"nagapattinam","area_code":"4365"},{"name":"nagaur","area_code":"1582"},{"name":"nagercoil","area_code":"4652"},{"name":"nagpur","area_code":"712"},{"name":"nalanda","area_code":"6119"},{"name":"namakkal","area_code":"4286"},{"name":"nanded","area_code":"2462"},{"name":"nandurbar","area_code":"2564"},{"name":"narsinghpur","area_code":"7792"},{"name":"nashik","area_code":"253"},{"name":"nasik","area_code":"253"},{"name":"naugarh","area_code":"5544"},{"name":"navi mumbai","area_code":"22"},{"name":"navsari","area_code":"2637"},{"name":"nawabganj","area_code":"6324"},{"name":"nawada","area_code":"6324"},{"name":"nawanshahr","area_code":"1823"},{"name":"nayagarh","area_code":"6753"},{"name":"neemuch","area_code":"7423"},{"name":"new delhi","area_code":"11"},{"name":"new okhla industrial development authority","area_code":"120"},{"name":"nuapada","area_code":"6678"},{"name":"ootacamund","area_code":"423"},{"name":"orai","area_code":"5162"},{"name":"osmanabad","area_code":"2472"},{"name":"padrauna","area_code":"5564"},{"name":"painavu","area_code":"486"},{"name":"palakkad","area_code":"491"},{"name":"pampore","area_code":"1933"},{"name":"panaji","area_code":"832"},{"name":"panchkula","area_code":"172"},{"name":"panipat","area_code":"180"},{"name":"panna","area_code":"7732"},{"name":"panskura","area_code":"3228"},{"name":"panvel","area_code":"22"},{"name":"paralakhemundi","area_code":"6815"},{"name":"parbhani","area_code":"2452"},{"name":"pathanamthitta","area_code":"468"},{"name":"patiala","area_code":"175"},{"name":"patna","area_code":"612"},{"name":"perambalur","area_code":"4328"},{"name":"phulbani","area_code":"6842"},{"name":"pilibhit","area_code":"5882"},{"name":"ponnani","area_code":"483"},{"name":"port blair","area_code":"3192"},{"name":"pratapgarh","area_code":"5342"},{"name":"puducherry","area_code":"413"},{"name":"pudukkottai","area_code":"4322"},{"name":"pune","area_code":"20"},{"name":"pune (formerly poona)","area_code":"20"},{"name":"puri","area_code":"6752"},{"name":"purnia","area_code":"6454"},{"name":"purulia","area_code":"3252"},{"name":"pushkar","area_code":"145"},{"name":"rae bareli","area_code":"535"},{"name":"raebareli","area_code":"535"},{"name":"raiganj","area_code":"3523"},{"name":"raipur","area_code":"771"},{"name":"rajgarh","area_code":"7372"},{"name":"rajkot","area_code":"281"},{"name":"rajsamand","area_code":"2952"},{"name":"ramanathapuram","area_code":"4567"},{"name":"rampur","area_code":"595"},{"name":"ranchi","area_code":"651"},{"name":"ranthambhore natl. park","area_code":"7462"},{"name":"ratlam","area_code":"7412"},{"name":"ratnagiri","area_code":"2353"},{"name":"rayagada","area_code":"6856"},{"name":"rewa","area_code":"7662"},{"name":"robertsganj","area_code":"5444"},{"name":"roorkee","area_code":"1332"},{"name":"rourkela","area_code":"661"},{"name":"rupnagar","area_code":"1881"},{"name":"sagar","area_code":"7582"},{"name":"saharanpur","area_code":"132"},{"name":"saharsa","area_code":"6478"},{"name":"samastipur","area_code":"6274"},{"name":"sambalpur","area_code":"663"},{"name":"sangli","area_code":"233"},{"name":"sangrur","area_code":"1672"},{"name":"sariska","area_code":"144"},{"name":"sasaram","area_code":"6184"},{"name":"satara","area_code":"2162"},{"name":"satna","area_code":"7672"},{"name":"sawai madhopur","area_code":"7462"},{"name":"sehore","area_code":"7562"},{"name":"seoni","area_code":"7692"},{"name":"shahdol","area_code":"7652"},{"name":"shahjahanpur","area_code":"5842"},{"name":"shajapur","area_code":"7364"},{"name":"sheikhpura","area_code":"6341"},{"name":"sheohar","area_code":"6222"},{"name":"sheopur","area_code":"7530"},{"name":"shillong","area_code":"364"},{"name":"shimla","area_code":"177"},{"name":"shivpuri","area_code":"7492"},{"name":"sibsagar","area_code":"3772"},{"name":"sidhi","area_code":"7822"},{"name":"sikar","area_code":"1572"},{"name":"silchar","area_code":"3842"},{"name":"silvassa","area_code":"260"},{"name":"simla","area_code":"177"},{"name":"sindri","area_code":"326"},{"name":"sitamarhi","area_code":"6226"},{"name":"sitapur","area_code":"5862"},{"name":"sivaganga","area_code":"4575"},{"name":"siwan","area_code":"6154"},{"name":"solapur","area_code":"217"},{"name":"sonepur","area_code":"6654"},{"name":"sopore","area_code":"1954"},{"name":"srinagar","area_code":"194"},{"name":"sultanpur","area_code":"5362"},{"name":"sundergarh","area_code":"6622"},{"name":"supaul","area_code":"6473"},{"name":"surat","area_code":"261"},{"name":"suri","area_code":"3462"},{"name":"tamluk","area_code":"3228"},{"name":"tarn taran sahib","area_code":"1852"},{"name":"thalassery","area_code":"490"},{"name":"thane","area_code":"22"},{"name":"thanjavur","area_code":"4362"},{"name":"theni","area_code":"4546"},{"name":"thiruvan","area_code":"471"},{"name":"thiruvananthapuram","area_code":"471"},{"name":"thiruvannaamalai","area_code":"4175"},{"name":"thoothukudi","area_code":"461"},{"name":"thrissur","area_code":"487"},{"name":"tikamgarh","area_code":"7683"},{"name":"tinsukia","area_code":"374"},{"name":"tiruchirapalli","area_code":"431"},{"name":"tirumala","area_code":"877"},{"name":"tirunelveli","area_code":"462"},{"name":"tiruvallur","area_code":"44"},{"name":"tiruvarur","area_code":"4366"},{"name":"tonk","area_code":"1435"},{"name":"udaipur","area_code":"294"},{"name":"udhampur","area_code":"199"},{"name":"ujjain","area_code":"734"},{"name":"unnao","area_code":"515"},{"name":"vadodara","area_code":"265"},{"name":"vadodara (baroda)","area_code":"265"},{"name":"varanasi","area_code":"542"},{"name":"vasco da gama","area_code":"832"},{"name":"vellore","area_code":"416"},{"name":"vidisha","area_code":"7592"},{"name":"vijayawada","area_code":"866"},{"name":"viluppuram","area_code":"4146"},{"name":"virudhunagar","area_code":"4562"},{"name":"virudunagar","area_code":"4562"},{"name":"visakhapatnam","area_code":"891"},{"name":"warangal","area_code":"870"},{"name":"wardha","area_code":"7152"},{"name":"washim","area_code":"7252"},{"name":"yavatmal","area_code":"7232"}],"japan":[{"name":"akita","area_code":"96"},{"name":"aomori","area_code":"177"},{"name":"asahikawa","area_code":"166"},{"name":"chiba","area_code":"43"},{"name":"choshi","area_code":"43"},{"name":"fukuoka","area_code":"92"},{"name":"funabashi","area_code":"47"},{"name":"gifu","area_code":"58"},{"name":"hachioji","area_code":"42"},{"name":"hakodate","area_code":"138"},{"name":"himeji","area_code":"79"},{"name":"hiroshima","area_code":"82"},{"name":"ichikawa","area_code":"47"},{"name":"kagoshima","area_code":"99"},{"name":"kanazawa","area_code":"76"},{"name":"kasugai","area_code":"568"},{"name":"kawaguchi","area_code":"482"},{"name":"kawasaki","area_code":"44"},{"name":"kishiwada","area_code":"724"},{"name":"kitakyushu","area_code":"93"},{"name":"kobe","area_code":"78"},{"name":"kofu","area_code":"552"},{"name":"kumamoto","area_code":"96"},{"name":"kurashiki","area_code":"86"},{"name":"kure","area_code":"823"},{"name":"kurume","area_code":"942"},{"name":"kyoto","area_code":"75"},{"name":"machida","area_code":"427"},{"name":"matsudo","area_code":"47"},{"name":"matsumoto","area_code":"263"},{"name":"matsuyama","area_code":"89"},{"name":"mito","area_code":"292"},{"name":"miyazaki","area_code":"985"},{"name":"morioka","area_code":"196"},{"name":"nagano","area_code":"262"},{"name":"nagaoka","area_code":"258"},{"name":"nagasaki","area_code":"95"},{"name":"nagoya","area_code":"52"},{"name":"naha","area_code":"98"},{"name":"niigata","area_code":"25"},{"name":"ogaki","area_code":"584"},{"name":"okayama","area_code":"862"},{"name":"okazaki","area_code":"564"},{"name":"okinawa","area_code":"98"},{"name":"omiya","area_code":"48"},{"name":"omuta","area_code":"9445"},{"name":"osaka","area_code":"66"},{"name":"sakai","area_code":"72"},{"name":"sapporo","area_code":"11"},{"name":"sasebo","area_code":"956"},{"name":"sendai","area_code":"22"},{"name":"shimonoseki","area_code":"832"},{"name":"shizuoka","area_code":"54"},{"name":"takamatsu","area_code":"878"},{"name":"takaoka","area_code":"766"},{"name":"tokyo","area_code":"3"},{"name":"toyama","area_code":"764"},{"name":"toyonaka","area_code":"6"},{"name":"toyota","area_code":"565"},{"name":"tsu","area_code":"592"},{"name":"ube","area_code":"836"},{"name":"uji","area_code":"774"},{"name":"utsunomiya","area_code":"28"},{"name":"wakayama","area_code":"73"},{"name":"yamaguchi","area_code":"839"},{"name":"yao","area_code":"729"},{"name":"yokkaichi","area_code":"748"},{"name":"yokohama","area_code":"45"}],"indonesia":[{"name":"ambon","area_code":"911"},{"name":"bali","area_code":"36"},{"name":"balikpapan","area_code":"542"},{"name":"bandung","area_code":"22"},{"name":"banjarmasin","area_code":"511"},{"name":"batam","area_code":"77"},{"name":"batang","area_code":"77"},{"name":"betung","area_code":"22"},{"name":"bintan","area_code":"770"},{"name":"bogor","area_code":"25"},{"name":"cirebon","area_code":"23"},{"name":"demak","area_code":"29"},{"name":"denpasar","area_code":"36"},{"name":"ende","area_code":"38"},{"name":"irian","area_code":"9"},{"name":"jakarta","area_code":"21"},{"name":"jayapura","area_code":"967"},{"name":"jember","area_code":"33"},{"name":"jombang","area_code":"32"},{"name":"kalimantan islet","area_code":"5"},{"name":"kudus","area_code":"291"},{"name":"kupang","area_code":"39"},{"name":"madiun","area_code":"35"},{"name":"makassar","area_code":"411"},{"name":"malaku islets","area_code":"5"},{"name":"malang","area_code":"34"},{"name":"manado","area_code":"431"},{"name":"mataram","area_code":"370"},{"name":"medan","area_code":"61"},{"name":"north sumatra","area_code":"6"},{"name":"padang","area_code":"75"},{"name":"palembang","area_code":"71"},{"name":"pekalongan","area_code":"285"},{"name":"pekanbaru","area_code":"761"},{"name":"pematangsiantar","area_code":"622"},{"name":"purwakarta","area_code":"28"},{"name":"riau","area_code":"76"},{"name":"samarinda","area_code":"541"},{"name":"sekurang","area_code":"778"},{"name":"semarang","area_code":"24"},{"name":"singaraja","area_code":"362"},{"name":"solo","area_code":"27"},{"name":"sulawesi islet","area_code":"4"},{"name":"sumbawa","area_code":"37"},{"name":"sumedang","area_code":"26"},{"name":"surabaya","area_code":"31"},{"name":"tanjungkarang","area_code":"72"},{"name":"tasikmalaya","area_code":"265"},{"name":"tegal","area_code":""},{"name":"ternate","area_code":"921"},{"name":"west sumatra","area_code":"75"},{"name":"yogyakarta","area_code":"27"}],"philippines":[{"name":"angeles city","area_code":"455"},{"name":"bacolod city","area_code":"34"},{"name":"cavite","area_code":"46"},{"name":"cebu city","area_code":"32"},{"name":"dagupan city","area_code":"75"},{"name":"davao city","area_code":"82"},{"name":"general santos","area_code":"83"},{"name":"iloilo","area_code":"33"},{"name":"manila","area_code":"2"},{"name":"masbate","area_code":"56"},{"name":"puerto princesa city","area_code":"48"},{"name":"quezon city","area_code":"2"},{"name":"san fernando","area_code":"818"},{"name":"san jose","area_code":"309"},{"name":"san pablo city","area_code":"93"},{"name":"santa cruz","area_code":"831"},{"name":"tacloban city","area_code":"53"},{"name":"tarlac","area_code":"452"},{"name":"zamboanga","area_code":"62"}],"korea (south)":[{"name":"cheju","area_code":"64"},{"name":"incheon","area_code":"32"},{"name":"kwangju","area_code":"62"},{"name":"seoul","area_code":"2"},{"name":"ulsan","area_code":"52"}],"kazakhstan":[{"name":"aktjubinsk","area_code":"313"},{"name":"alma ata","area_code":"327"},{"name":"astana","area_code":"7172"},{"name":"atyrau","area_code":"312"},{"name":"baikonur","area_code":"73622"},{"name":"karaganda","area_code":"321"},{"name":"kzyl orda","area_code":"324"},{"name":"leninogorsk","area_code":"336"},{"name":"pavlodar","area_code":"318"},{"name":"petropavlovsk","area_code":"315"},{"name":"shymkent","area_code":"325"},{"name":"uralsk","area_code":"311"},{"name":"zhambyl","area_code":"326"},{"name":"zhezkazgan","area_code":"310"}],"saudi arabia":[{"name":"abha","area_code":"7"},{"name":"al khubar","area_code":"3"},{"name":"dammam","area_code":"3"},{"name":"ha il","area_code":"6"},{"name":"khamis mushayt","area_code":"7"},{"name":"makkah","area_code":"2"},{"name":"najran","area_code":"7"},{"name":"rabigh","area_code":"2"},{"name":"riyadh","area_code":"1"},{"name":"shaqra","area_code":"1"}],"thailand":[{"name":"bangkok","area_code":"2"},{"name":"chanthaburi","area_code":"39"},{"name":"chiang mai","area_code":"53"},{"name":"chon buri","area_code":"38"},{"name":"kanchanaburi","area_code":"34"},{"name":"khon kaen","area_code":"43"},{"name":"lampang","area_code":"54"},{"name":"nakhon ratchasima","area_code":"44"},{"name":"nong khai","area_code":"42"},{"name":"pattaya city","area_code":"38"},{"name":"phitsanulok","area_code":"55"},{"name":"phuket","area_code":"76"},{"name":"songkhla","area_code":"74"},{"name":"surat thani","area_code":"77"},{"name":"ubon ratchathani","area_code":"45"}],"taiwan":[{"name":"changhua","area_code":"4"},{"name":"chiayi","area_code":"5"},{"name":"fengyuan","area_code":"4"},{"name":"hualian","area_code":"38"},{"name":"kaohsiung","area_code":"7"},{"name":"pingtung","area_code":"8"},{"name":"taichung","area_code":"4"},{"name":"tainan","area_code":"6"},{"name":"taipei","area_code":"2"},{"name":"taitung","area_code":"89"},{"name":"taoyuan","area_code":"3"}],"iran":[{"name":"esfahan","area_code":"311"},{"name":"mashhad","area_code":"511"},{"name":"tabriz","area_code":"411"},{"name":"tehran","area_code":"21"},{"name":"yazd","area_code":"352"},{"name":"zanjan","area_code":"242"}],"mongolia":[{"name":"choibalsan","area_code":""},{"name":"hovdo","area_code":""},{"name":"ulaanbaatar","area_code":"11"}],"turkmenistan":[{"name":"ashgabat","area_code":"12"},{"name":"dashhowuz","area_code":"322"},{"name":"turkmenbashi","area_code":"378"}],"malaysia":[{"name":"bintulu","area_code":"8"},{"name":"ipoh","area_code":"5"},{"name":"johor bahru","area_code":"7"},{"name":"kajang","area_code":"3"},{"name":"kota baharu","area_code":"9"},{"name":"kota kinabalu","area_code":"8"},{"name":"kuala lumpur","area_code":"3"},{"name":"kuala terengganu","area_code":"9"},{"name":"kuantan","area_code":"9"},{"name":"kuching","area_code":"8"},{"name":"labuan","area_code":"8"},{"name":"melaka","area_code":"6"},{"name":"miri","area_code":"8"},{"name":"muar (bandar maharani)","area_code":"6"},{"name":"penang","area_code":"4"},{"name":"sandakan","area_code":"8"},{"name":"seremban","area_code":"6"},{"name":"sibu","area_code":"8"}],"israel":[{"name":"acre","area_code":"4"},{"name":"afula","area_code":"4"},{"name":"akko (acre)","area_code":"4"},{"name":"ashdod","area_code":"8"},{"name":"ashkelon","area_code":"8"},{"name":"bat iam","area_code":"3"},{"name":"bat yam","area_code":"3"},{"name":"be er sheva","area_code":"8"},{"name":"beersheba","area_code":"8"},{"name":"beersheva","area_code":"8"},{"name":"bnei brak","area_code":"3"},{"name":"carmiel","area_code":"4"},{"name":"dimona","area_code":"8"},{"name":"eilat","area_code":"8"},{"name":"hadera","area_code":"4"},{"name":"haifa","area_code":"4"},{"name":"herzliya","area_code":"9"},{"name":"herzliyya","area_code":"9"},{"name":"holon","area_code":"3"},{"name":"jaffa","area_code":"3"},{"name":"jerusalem","area_code":"2"},{"name":"kfar saba","area_code":"9"},{"name":"nazareth","area_code":"4"},{"name":"netanya","area_code":"9"},{"name":"petah tikva","area_code":"3"},{"name":"petah tiqwa","area_code":"3"},{"name":"qiryat shmona","area_code":"4"},{"name":"ra'anana","area_code":"9"},{"name":"raanana","area_code":"9"},{"name":"ramat gan","area_code":"3"},{"name":"rehovot","area_code":"8"},{"name":"rishon lezion","area_code":"3"},{"name":"rishon leziyyon","area_code":"3"},{"name":"safed","area_code":"4"},{"name":"tel aviv","area_code":"3"},{"name":"tiberias","area_code":"4"},{"name":"tiberius","area_code":"4"},{"name":"tsefat","area_code":"4"}],"vietnam":[{"name":"ba ria","area_code":"64"},{"name":"bac giang","area_code":"240"},{"name":"bac kan","area_code":"281"},{"name":"bac lieu","area_code":"781"},{"name":"bac ninh","area_code":"241"},{"name":"bien hoa","area_code":"61"},{"name":"binh dinh","area_code":"56"},{"name":"binh phuoc","area_code":"651"},{"name":"binh thuan","area_code":"62"},{"name":"ca mau","area_code":"780"},{"name":"can tho","area_code":"71"},{"name":"cao bang","area_code":"26"},{"name":"cuu long","area_code":"70"},{"name":"dak lak","area_code":"50"},{"name":"dong nai","area_code":"61"},{"name":"dong thap","area_code":"67"},{"name":"gia lai","area_code":"59"},{"name":"ha giang","area_code":"19"},{"name":"ha nam","area_code":"351"},{"name":"ha tay","area_code":"34"},{"name":"ha tinh","area_code":"39"},{"name":"hai duong","area_code":"320"},{"name":"hai phong","area_code":"31"},{"name":"haiphong","area_code":"31"},{"name":"hanoi","area_code":"4"},{"name":"hanoi city","area_code":"4"},{"name":"ho chi minh","area_code":"8"},{"name":"ho chi minh city","area_code":"8"},{"name":"ho chi minh city (saigon)","area_code":"8"},{"name":"ho chi minh city city (formerl","area_code":"8"},{"name":"hoa binh","area_code":"18"},{"name":"hue","area_code":"54"},{"name":"hung yen","area_code":"321"},{"name":"khanh hoa","area_code":"58"},{"name":"kien giang","area_code":"77"},{"name":"kon tum","area_code":"60"},{"name":"lai chau","area_code":"23"},{"name":"lang son","area_code":"25"},{"name":"lao cai","area_code":"20"},{"name":"long an","area_code":"72"},{"name":"long xuyen","area_code":"76"},{"name":"minh hai","area_code":"78"},{"name":"nam dinh","area_code":"350"},{"name":"nghe an","area_code":"38"},{"name":"nha trang","area_code":"58"},{"name":"nin thuan","area_code":"68"},{"name":"ninh binh","area_code":"30"},{"name":"phan thiet","area_code":"62"},{"name":"phu tho","area_code":"210"},{"name":"phu yen","area_code":"57"},{"name":"quang binh","area_code":"52"},{"name":"quang nam","area_code":"510"},{"name":"quang ngai","area_code":"55"},{"name":"quang tri","area_code":"53"},{"name":"quant ninh","area_code":"33"},{"name":"qui nhon","area_code":"56"},{"name":"saigon","area_code":"8"},{"name":"soc trang","area_code":"79"},{"name":"son la","area_code":"22"},{"name":"tay ninh","area_code":"66"},{"name":"thai binh","area_code":"36"},{"name":"thai nguyen","area_code":"280"},{"name":"thanh hoa","area_code":"37"},{"name":"thua thien hue","area_code":"54"},{"name":"thuan lam dong","area_code":"63"},{"name":"tien giang","area_code":"73"},{"name":"tra vinh","area_code":"74"},{"name":"tuyen quang","area_code":"27"},{"name":"vinh long","area_code":"70"},{"name":"vinh phu","area_code":"211"},{"name":"vung tàu","area_code":"64"},{"name":"yen bai","area_code":"29"}],"uzbekistan":[{"name":"bukhara","area_code":"65"},{"name":"samarkand","area_code":"66"},{"name":"tashkent","area_code":"71"}],"pakistan":[{"name":"faisalabad","area_code":"41"},{"name":"gujranwala","area_code":"431"},{"name":"hyderabad","area_code":"221"},{"name":"islamabad","area_code":"51"},{"name":"karachi","area_code":"21"},{"name":"lahore","area_code":"42"},{"name":"multan","area_code":"61"},{"name":"okara","area_code":"442"},{"name":"peshawar","area_code":"91"},{"name":"quetta","area_code":"81"},{"name":"rawalpindi","area_code":"51"},{"name":"sahiwal","area_code":"441"},{"name":"sargodha","area_code":"451"},{"name":"sialkot","area_code":"524"}],"oman":[{"name":"muscat","area_code":"24"}],"syria":[{"name":"adra","area_code":"11"},{"name":"al","area_code":"21"},{"name":"aleppo","area_code":"21"},{"name":"alhasakah","area_code":"52"},{"name":"amouda","area_code":"53"},{"name":"ansari","area_code":"21"},{"name":"ariha","area_code":"23"},{"name":"bab charqui","area_code":"11"},{"name":"banias","area_code":"43"},{"name":"barzeh","area_code":"11"},{"name":"basit","area_code":"41"},{"name":"bebila","area_code":"11"},{"name":"beit yashoot","area_code":"41"},{"name":"bloudan","area_code":"13"},{"name":"boussra","area_code":"15"},{"name":"chik badr","area_code":"43"},{"name":"chik meskin","area_code":"15"},{"name":"citadel","area_code":"33"},{"name":"côte d'azur and ras al","area_code":"41"},{"name":"daal","area_code":"15"},{"name":"damascus","area_code":"11"},{"name":"dana","area_code":"23"},{"name":"dara","area_code":"15"},{"name":"darayah","area_code":"11"},{"name":"darayya","area_code":"11"},{"name":"deir athieh","area_code":"12"},{"name":"deir ezzor","area_code":"51"},{"name":"deir ezzour","area_code":"51"},{"name":"derbasiah","area_code":"53"},{"name":"douma","area_code":"11"},{"name":"doumeir","area_code":"11"},{"name":"doummar","area_code":"11"},{"name":"dreikish","area_code":"43"},{"name":"edleb","area_code":"23"},{"name":"efrin","area_code":"21"},{"name":"ein arab","area_code":"25"},{"name":"ein hour","area_code":"12"},{"name":"ghazalah","area_code":"15"},{"name":"hama","area_code":"33"},{"name":"hamadaniyah","area_code":"21"},{"name":"hanano","area_code":"21"},{"name":"harastah","area_code":"11"},{"name":"harem","area_code":"23"},{"name":"homs","area_code":"31"},{"name":"izazz","area_code":"21"},{"name":"izraa","area_code":"15"},{"name":"j. artouz","area_code":"11"},{"name":"jamiliyah","area_code":"33"},{"name":"jarabless","area_code":"25"},{"name":"jaramanah","area_code":"11"},{"name":"jasem","area_code":"15"},{"name":"jebleh","area_code":"41"},{"name":"jerood","area_code":"12"},{"name":"jesr cheghour","area_code":"23"},{"name":"kafar sousseh","area_code":"11"},{"name":"kafar takharin","area_code":"23"},{"name":"kara","area_code":"12"},{"name":"kasab","area_code":"41"},{"name":"katana","area_code":"11"},{"name":"khan wazir","area_code":"21"},{"name":"kuraya","area_code":"16"},{"name":"kuteifeh","area_code":"12"},{"name":"kuwatly","area_code":"33"},{"name":"lattakia","area_code":"41"},{"name":"lattakiah","area_code":"41"},{"name":"maaloula","area_code":"12"},{"name":"maar tamsareen","area_code":"23"},{"name":"mahatta","area_code":"33"},{"name":"malekiha","area_code":"53"},{"name":"mashta","area_code":"43"},{"name":"matmyah","area_code":"33"},{"name":"menbej","area_code":"25"},{"name":"messiaf","area_code":"33"},{"name":"mezzeh","area_code":"11"},{"name":"mharda","area_code":"33"},{"name":"mouhajerin","area_code":"11"},{"name":"nashabieh","area_code":"11"},{"name":"nebek","area_code":"12"},{"name":"palmyra","area_code":"34"},{"name":"quneitra","area_code":"14"},{"name":"raas al","area_code":"52"},{"name":"ruheibeh","area_code":"12"},{"name":"rukn edin","area_code":"11"},{"name":"sabil","area_code":"21"},{"name":"safirah","area_code":"21"},{"name":"safita","area_code":"43"},{"name":"salkhad","area_code":"16"},{"name":"salkin","area_code":"23"},{"name":"sanamein","area_code":"15"},{"name":"sarakeb","area_code":"23"},{"name":"sednaya","area_code":"11"},{"name":"sehnayah","area_code":"11"},{"name":"shahbah","area_code":"16"},{"name":"sheen","area_code":"31"},{"name":"skelbya and madikk","area_code":"33"},{"name":"sleimaniyah","area_code":"21"},{"name":"sleinfah","area_code":"41"},{"name":"souran and kamhana","area_code":"33"},{"name":"sweidaa","area_code":"16"},{"name":"tafass","area_code":"15"},{"name":"taldo","area_code":"31"},{"name":"tartous","area_code":"43"},{"name":"tel","area_code":"31"},{"name":"tel abiad","area_code":"22"},{"name":"tel refat","area_code":"21"},{"name":"tel salhab","area_code":"33"},{"name":"telbisseh","area_code":"31"},{"name":"tesshrin","area_code":"41"},{"name":"yabrood","area_code":"12"},{"name":"zabadani","area_code":"13"},{"name":"zamalkah","area_code":"11"}],"korea (north)":[{"name":"pyongyang","area_code":"2"}],"yemen":[{"name":"aden","area_code":"2"},{"name":"san`a","area_code":"1"},{"name":"ta izz","area_code":"4"}],"united arab emirates":[{"name":"abu dhabi","area_code":"2"},{"name":"ajman","area_code":"6"},{"name":"dubai","area_code":"4"},{"name":"sharjah","area_code":"6"}],"bangladesh":[{"name":"alamdanga","area_code":"7622"},{"name":"ashugonj","area_code":"8528"},{"name":"avaynagar (noapara)","area_code":"4222"},{"name":"badargonj","area_code":"5222"},{"name":"bagerhat","area_code":"468"},{"name":"banaripara","area_code":"4332"},{"name":"bandarban","area_code":"361"},{"name":"banshkhali","area_code":"3037"},{"name":"barguna","area_code":"448"},{"name":"barisal","area_code":"431"},{"name":"bauphal","area_code":"4422"},{"name":"bazitpur","area_code":"9423"},{"name":"bhairab","area_code":"9424"},{"name":"bhandaria","area_code":"4623"},{"name":"bheramara","area_code":"7022"},{"name":"bhola","area_code":"491"},{"name":"bogra","area_code":"51"},{"name":"brahmanbaria","area_code":"851"},{"name":"chandpur","area_code":"841"},{"name":"chandraghona (kaptai)","area_code":"3529"},{"name":"chaudagram","area_code":"8034"},{"name":"chhatak","area_code":"8723"},{"name":"chittagong","area_code":"31"},{"name":"chuadanga","area_code":"761"},{"name":"comilla","area_code":"81"},{"name":"companigon (bashurhat)","area_code":"3223"},{"name":"cox's bazar","area_code":"341"},{"name":"daudkandi","area_code":"8023"},{"name":"daulatpur","area_code":"7023"},{"name":"dhaka","area_code":"2"},{"name":"dinajpur","area_code":"531"},{"name":"faridpur","area_code":"631"},{"name":"feni","area_code":"331"},{"name":"fulbari","area_code":"5327"},{"name":"gaibandha","area_code":"541"},{"name":"galachipa","area_code":"4424"},{"name":"gazipur","area_code":"681"},{"name":"ghatail","area_code":"9225"},{"name":"goalanda","area_code":"6423"},{"name":"gopalgonj","area_code":"423"},{"name":"hajigonj","area_code":"8424"},{"name":"hatiya (oshkhali)","area_code":"3224"},{"name":"hobigonj","area_code":"831"},{"name":"ishwardi","area_code":"732"},{"name":"jamalpur","area_code":"981"},{"name":"jessore","area_code":"421"},{"name":"jhalokathhi","area_code":"498"},{"name":"jhenaidah","area_code":"451"},{"name":"jhikargacha","area_code":"4225"},{"name":"joypurhat","area_code":"571"},{"name":"kalaroa","area_code":"4724"},{"name":"kanaighat","area_code":"8233"},{"name":"khagrachhari","area_code":"371"},{"name":"khepupara","area_code":"4425"},{"name":"khulna","area_code":"41"},{"name":"kishoregonj","area_code":"941"},{"name":"kurigram","area_code":"581"},{"name":"kustia","area_code":"71"},{"name":"laksham (daulatgonj)","area_code":"8032"},{"name":"lakshmipur","area_code":"381"},{"name":"lalmonirhat","area_code":"591"},{"name":"madaripur","area_code":"661"},{"name":"magura","area_code":"488"},{"name":"manikgonj","area_code":"651"},{"name":"mathabdi","area_code":"6257"},{"name":"meherpur","area_code":"791"},{"name":"mithamain","area_code":"9435"},{"name":"mohanganj","area_code":"9524"},{"name":"moheshkhali","area_code":"3424"},{"name":"mongla","area_code":"402"},{"name":"mongla new port","area_code":"4662"},{"name":"moulavibazar","area_code":"861"},{"name":"muktagacha","area_code":"9028"},{"name":"muladi","area_code":"4326"},{"name":"munshigonj","area_code":"691"},{"name":"mymensingh","area_code":"91"},{"name":"nabinagar","area_code":"8525"},{"name":"nagarpur","area_code":"9233"},{"name":"naogaon","area_code":"741"},{"name":"narail","area_code":"481"},{"name":"narsingdi","area_code":"628"},{"name":"natore","area_code":"771"},{"name":"nawabgonj (chapai)","area_code":"781"},{"name":"netrokona","area_code":"951"},{"name":"nilphamari","area_code":"551"},{"name":"noakhali","area_code":"321"},{"name":"pabna","area_code":"731"},{"name":"paikgacha","area_code":"4027"},{"name":"palash (ghorashal)","area_code":"6254"},{"name":"panchagar","area_code":"568"},{"name":"parbatipur","area_code":"5334"},{"name":"patuakhali","area_code":"441"},{"name":"perojpur","area_code":"461"},{"name":"plulpur","area_code":"9033"},{"name":"potiya","area_code":"3035"},{"name":"rajbari","area_code":"641"},{"name":"rajshahi","area_code":"721"},{"name":"ramgoti (char alexander)","area_code":"3823"},{"name":"rangamati","area_code":"351"},{"name":"rangpur","area_code":"521"},{"name":"saidpur","area_code":"5526"},{"name":"sarsha (benapol)","area_code":"4228"},{"name":"satkania","area_code":"3036"},{"name":"satkhira","area_code":"471"},{"name":"savar","area_code":"2"},{"name":"shariatpur","area_code":"601"},{"name":"sherpur","area_code":"931"},{"name":"shibganj","area_code":"5033"},{"name":"sirajgonj","area_code":"751"},{"name":"sitakundu (barabkundu)","area_code":"3028"},{"name":"srimangol","area_code":"8626"},{"name":"sunamgonj","area_code":"871"},{"name":"syedpur","area_code":"552"},{"name":"sylhet","area_code":"821"},{"name":"taherpur","area_code":"8732"},{"name":"tangail","area_code":"921"},{"name":"thakurgaon","area_code":"561"},{"name":"ukhia","area_code":"3427"}],"iraq":[{"name":"baghdad","area_code":"1"},{"name":"basra","area_code":"40"},{"name":"hilla","area_code":"30"},{"name":"irbil","area_code":"66"},{"name":"karbala","area_code":"32"},{"name":"kerbela","area_code":"32"},{"name":"kirkuk","area_code":"50"},{"name":"mosul","area_code":"60"},{"name":"mousil","area_code":"60"},{"name":"najaf","area_code":"33"},{"name":"nasiriya","area_code":"42"},{"name":"sulaimaniya","area_code":"53"}],"united states":{"california":[{"name":"alameda","area_code":"510"},{"name":"alhambra","area_code":"626"},{"name":"anaheim","area_code":"714"},{"name":"antioch","area_code":"925"},{"name":"apple valley","area_code":"760"},{"name":"arcadia","area_code":"626"},{"name":"bakersfield","area_code":"661"},{"name":"baldwin park","area_code":"626"},{"name":"bellflower","area_code":"562"},{"name":"berkeley","area_code":"510"},{"name":"buena park","area_code":"657"},{"name":"burbank","area_code":"818"},{"name":"camarillo","area_code":"805"},{"name":"carlsbad","area_code":"760"},{"name":"carson","area_code":"310"},{"name":"castro valley","area_code":"510"},{"name":"cathedral city","area_code":"760"},{"name":"cerritos","area_code":"562"},{"name":"chico","area_code":"916"},{"name":"chino","area_code":"909"},{"name":"chino hills","area_code":"909"},{"name":"chula vista","area_code":"619"},{"name":"citrus heights","area_code":"916"},{"name":"clovis","area_code":"559"},{"name":"colton","area_code":"909"},{"name":"compton","area_code":"310"},{"name":"concord","area_code":"603"},{"name":"corona","area_code":"909"},{"name":"costa mesa","area_code":"714"},{"name":"cupertino","area_code":"408"},{"name":"daly city","area_code":"650"},{"name":"davis","area_code":"530"},{"name":"delano","area_code":"661"},{"name":"diamond bar","area_code":"909"},{"name":"downey","area_code":"310"},{"name":"el cajon","area_code":"619"},{"name":"el monte","area_code":"626"},{"name":"elk grove","area_code":"916"},{"name":"encinitas","area_code":"760"},{"name":"escondido","area_code":"760"},{"name":"fairfield","area_code":"707"},{"name":"folsom","area_code":"916"},{"name":"fontana","area_code":"909"},{"name":"fountain valley","area_code":"714"},{"name":"fremont","area_code":"0"},{"name":"fresno","area_code":"559"},{"name":"fullerton","area_code":"714"},{"name":"garden grove","area_code":"714"},{"name":"gardena","area_code":"310"},{"name":"glendale","area_code":"818"},{"name":"hacienda heights","area_code":"626"},{"name":"hanford","area_code":"559"},{"name":"hawthorne","area_code":"424"},{"name":"hayward","area_code":"510"},{"name":"hemet","area_code":"909"},{"name":"hesperia","area_code":"442"},{"name":"highland","area_code":"909"},{"name":"huntington beach","area_code":"714"},{"name":"huntington park","area_code":"323"},{"name":"indio","area_code":"760"},{"name":"inglewood","area_code":"323"},{"name":"irvine","area_code":"949"},{"name":"la habra","area_code":"562"},{"name":"la mesa","area_code":"619"},{"name":"laguna niguel","area_code":"949"},{"name":"lakewood","area_code":"303"},{"name":"lancaster","area_code":"661"},{"name":"livermore","area_code":"925"},{"name":"lodi","area_code":"209"},{"name":"long beach","area_code":"562"},{"name":"los angeles","area_code":"213"},{"name":"lynwood","area_code":"310"},{"name":"madera","area_code":"559"},{"name":"manteca","area_code":"209"},{"name":"merced","area_code":"209"},{"name":"mission viejo","area_code":"949"},{"name":"modesto","area_code":"209"},{"name":"montebello","area_code":"323"},{"name":"monterey park","area_code":"626"},{"name":"moreno valley","area_code":"951"},{"name":"mountain view","area_code":"650"},{"name":"murrieta","area_code":"951"},{"name":"napa","area_code":"707"},{"name":"national city","area_code":"619"},{"name":"newport beach","area_code":"949"},{"name":"norwalk","area_code":"562"},{"name":"novato","area_code":"415"},{"name":"oakland","area_code":"510"},{"name":"oceanside","area_code":"760"},{"name":"ontario","area_code":"909"},{"name":"orange","area_code":"714"},{"name":"oxnard","area_code":"805"},{"name":"palm desert","area_code":"760"},{"name":"palmdale","area_code":"661"},{"name":"palo alto","area_code":"650"},{"name":"pasadena","area_code":"281"},{"name":"perris","area_code":"951"},{"name":"petaluma","area_code":"707"},{"name":"pico rivera","area_code":"562"},{"name":"pittsburg","area_code":"925"},{"name":"pleasanton","area_code":"925"},{"name":"pomona","area_code":"752"},{"name":"porterville","area_code":"559"},{"name":"rancho cordova","area_code":"916"},{"name":"rancho cucamonga","area_code":"909"},{"name":"redding","area_code":"530"},{"name":"redlands","area_code":"909"},{"name":"redondo beach","area_code":"424"},{"name":"redwood city","area_code":"650"},{"name":"rialto","area_code":"909"},{"name":"richmond","area_code":"604"},{"name":"riverside","area_code":"951"},{"name":"rocklin","area_code":"916"},{"name":"rosemead","area_code":"626"},{"name":"roseville","area_code":"916"},{"name":"rowland heights","area_code":"626"},{"name":"sacramento","area_code":"916"},{"name":"salinas","area_code":"831"},{"name":"san bernardino","area_code":"909"},{"name":"san clemente","area_code":"949"},{"name":"san diego","area_code":"619"},{"name":"san francisco","area_code":"415"},{"name":"san jose","area_code":"408"},{"name":"san leandro","area_code":"510"},{"name":"san marcos","area_code":"442"},{"name":"san mateo","area_code":"650"},{"name":"san rafael","area_code":"415"},{"name":"santa ana","area_code":"714"},{"name":"santa barbara","area_code":"805"},{"name":"santa clara","area_code":"408"},{"name":"santa clarita","area_code":"661"},{"name":"santa cruz","area_code":"831"},{"name":"santa maria","area_code":"805"},{"name":"santa monica","area_code":"310"},{"name":"santa rosa","area_code":"707"},{"name":"simi valley","area_code":"805"},{"name":"south gate","area_code":"323"},{"name":"south san francisco","area_code":"650"},{"name":"stockton","area_code":"209"},{"name":"sunnyvale","area_code":"408"},{"name":"temecula","area_code":"909"},{"name":"thousand oaks","area_code":"805"},{"name":"torrance","area_code":"310"},{"name":"tracy","area_code":"209"},{"name":"tulare","area_code":"559"},{"name":"turlock","area_code":"209"},{"name":"tustin","area_code":"714"},{"name":"union city","area_code":"510"},{"name":"upland","area_code":"909"},{"name":"vacaville","area_code":"707"},{"name":"vallejo","area_code":"707"},{"name":"victorville","area_code":"760"},{"name":"visalia","area_code":"559"},{"name":"vista","area_code":"442"},{"name":"walnut creek","area_code":"925"},{"name":"watsonville","area_code":"831"},{"name":"west covina","area_code":"626"},{"name":"westminster","area_code":"657"},{"name":"whittier","area_code":"562"},{"name":"woodland","area_code":"269"},{"name":"yorba linda","area_code":"657"}],"hawaii":[{"name":"hilo","area_code":"808"},{"name":"honolulu","area_code":"808"},{"name":"kailua","area_code":"808"},{"name":"kihei","area_code":"808"},{"name":"mountain view","area_code":"650"},{"name":"pearl city","area_code":"808"},{"name":"volcano","area_code":"209"},{"name":"wahiawa","area_code":"808"},{"name":"wailuku","area_code":"808"},{"name":"waimea","area_code":"808"}],"texas":[{"name":"abilene","area_code":"325"},{"name":"allen","area_code":"972"},{"name":"amarillo","area_code":"806"},{"name":"arlington","area_code":"817"},{"name":"austin","area_code":"512"},{"name":"baytown","area_code":"832"},{"name":"beaumont","area_code":"409"},{"name":"bedford","area_code":"817"},{"name":"brownsville","area_code":"956"},{"name":"bryan","area_code":"979"},{"name":"burleson","area_code":"817"},{"name":"carrollton","area_code":"972"},{"name":"cedar hill","area_code":"972"},{"name":"cedar park","area_code":"512"},{"name":"channelview","area_code":"832"},{"name":"college station","area_code":"979"},{"name":"conroe","area_code":"936"},{"name":"corpus christi","area_code":"361"},{"name":"dallas","area_code":"214"},{"name":"deer park","area_code":"832"},{"name":"del rio","area_code":"830"},{"name":"denton","area_code":"817"},{"name":"desoto","area_code":"214"},{"name":"duncanville","area_code":"972"},{"name":"edinburg","area_code":"956"},{"name":"el paso","area_code":"915"},{"name":"euless","area_code":"817"},{"name":"flower mound","area_code":"972"},{"name":"fort worth","area_code":"682"},{"name":"friendswood","area_code":"832"},{"name":"frisco","area_code":"972"},{"name":"galveston","area_code":"409"},{"name":"garland","area_code":"214"},{"name":"georgetown","area_code":"512"},{"name":"grand prairie","area_code":"214"},{"name":"grapevine","area_code":"817"},{"name":"haltom city","area_code":"817"},{"name":"harlingen","area_code":"956"},{"name":"houston","area_code":"281"},{"name":"huntsville","area_code":"256"},{"name":"hurst","area_code":"817"},{"name":"irving","area_code":"972"},{"name":"keller","area_code":"817"},{"name":"la porte","area_code":"832"},{"name":"lancaster","area_code":"661"},{"name":"laredo","area_code":"956"},{"name":"league city","area_code":"832"},{"name":"lewisville","area_code":"972"},{"name":"longview","area_code":"903"},{"name":"lubbock","area_code":"806"},{"name":"lufkin","area_code":"936"},{"name":"mansfield","area_code":"817"},{"name":"mcallen","area_code":"956"},{"name":"mckinney","area_code":"972"},{"name":"mesquite","area_code":"214"},{"name":"midland","area_code":"432"},{"name":"mission","area_code":"956"},{"name":"missouri city","area_code":"832"},{"name":"nacogdoches","area_code":"936"},{"name":"new braunfels","area_code":"830"},{"name":"north richland hills","area_code":"817"},{"name":"odessa","area_code":"432"},{"name":"pasadena","area_code":"281"},{"name":"pflugerville","area_code":"512"},{"name":"pharr","area_code":"956"},{"name":"plano","area_code":"214"},{"name":"port arthur","area_code":"409"},{"name":"richardson","area_code":"972"},{"name":"rockwall","area_code":"972"},{"name":"round rock","area_code":"512"},{"name":"rowlett","area_code":"972"},{"name":"san angelo","area_code":"325"},{"name":"san antonio","area_code":"210"},{"name":"san juan","area_code":"787"},{"name":"san marcos","area_code":"512"},{"name":"spring","area_code":"832"},{"name":"sugar land","area_code":"713"},{"name":"temple","area_code":"254"},{"name":"texarkana","area_code":"430"},{"name":"texas city","area_code":"409"},{"name":"the colony","area_code":"972"},{"name":"the woodlands","area_code":"832"},{"name":"tyler","area_code":"903"},{"name":"victoria","area_code":"250"},{"name":"waco","area_code":"254"},{"name":"weslaco","area_code":"956"},{"name":"wichita falls","area_code":"940"},{"name":"wylie","area_code":"972"}],"illinois":[{"name":"algonquin","area_code":"847"},{"name":"alton","area_code":"730"},{"name":"arlington heights","area_code":"847"},{"name":"aurora","area_code":"630"},{"name":"bartlett","area_code":"847"},{"name":"batavia","area_code":"630"},{"name":"belleville","area_code":"613"},{"name":"berwyn","area_code":"708"},{"name":"bloomington","area_code":"309"},{"name":"burbank","area_code":"818"},{"name":"calumet city","area_code":"708"},{"name":"champaign","area_code":"447"},{"name":"chicago","area_code":"312"},{"name":"chicago heights","area_code":"708"},{"name":"cicero","area_code":"708"},{"name":"danville","area_code":"217"},{"name":"decatur","area_code":"217"},{"name":"des plaines","area_code":"224"},{"name":"downers grove","area_code":"630"},{"name":"elgin","area_code":"630"},{"name":"elmhurst","area_code":"630"},{"name":"evanston","area_code":"847"},{"name":"glen ellyn","area_code":"630"},{"name":"glenview","area_code":"847"},{"name":"harvey","area_code":"708"},{"name":"highland park","area_code":"847"},{"name":"joliet","area_code":"815"},{"name":"lombard","area_code":"630"},{"name":"mundelein","area_code":"847"},{"name":"naperville","area_code":"630"},{"name":"northbrook","area_code":"847"},{"name":"oak lawn","area_code":"708"},{"name":"oak park","area_code":"708"},{"name":"orland park","area_code":"708"},{"name":"oswego","area_code":"331"},{"name":"palatine","area_code":"224"},{"name":"park ridge","area_code":"847"},{"name":"pekin","area_code":"309"},{"name":"peoria","area_code":"309"},{"name":"plainfield","area_code":"815"},{"name":"quincy","area_code":"217"},{"name":"rock island","area_code":"309"},{"name":"rockford","area_code":"815"},{"name":"schaumburg","area_code":"847"},{"name":"skokie","area_code":"847"},{"name":"springfield","area_code":"417"},{"name":"tinley park","area_code":"708"},{"name":"urbana","area_code":"217"},{"name":"wheaton","area_code":"630"},{"name":"wheeling","area_code":"847"}],"new york":[{"name":"albany","area_code":"518"},{"name":"auburn","area_code":"315"},{"name":"baldwin","area_code":"516"},{"name":"bay shore","area_code":"631"},{"name":"brentwood","area_code":"631"},{"name":"buffalo","area_code":"716"},{"name":"central islip","area_code":"631"},{"name":"commack","area_code":"631"},{"name":"deer park","area_code":"631"},{"name":"east meadow","area_code":"516"},{"name":"elmira","area_code":"607"},{"name":"elmont","area_code":"516"},{"name":"franklin square","area_code":"516"},{"name":"freeport","area_code":"516"},{"name":"glen cove","area_code":"516"},{"name":"harrison","area_code":"870"},{"name":"hempstead","area_code":"516"},{"name":"hicksville","area_code":"516"},{"name":"holbrook","area_code":"208"},{"name":"jamestown","area_code":"716"},{"name":"levittown","area_code":"516"},{"name":"lindenhurst","area_code":"631"},{"name":"long beach","area_code":"562"},{"name":"massapequa","area_code":"516"},{"name":"middletown","area_code":"914"},{"name":"mount vernon","area_code":"914"},{"name":"new city","area_code":"845"},{"name":"new rochelle","area_code":"914"},{"name":"new york","area_code":"212"},{"name":"newburgh","area_code":"845"},{"name":"niagara falls","area_code":"905"},{"name":"oceanside","area_code":"760"},{"name":"ossining","area_code":"914"},{"name":"peekskill","area_code":"914"},{"name":"plainview","area_code":"516"},{"name":"poughkeepsie","area_code":"914"},{"name":"rochester","area_code":"585"},{"name":"rockville centre","area_code":"516"},{"name":"rome","area_code":"315"},{"name":"saratoga springs","area_code":"518"},{"name":"schenectady","area_code":"518"},{"name":"shirley","area_code":"501"},{"name":"smithtown","area_code":"631"},{"name":"spring valley","area_code":"914"},{"name":"syracuse","area_code":"315"},{"name":"tonawanda","area_code":"716"},{"name":"troy","area_code":"334"},{"name":"uniondale","area_code":"516"},{"name":"utica","area_code":"315"},{"name":"valley stream","area_code":"516"},{"name":"white plains","area_code":"914"},{"name":"yonkers","area_code":"914"}],"massachusetts":[{"name":"arlington","area_code":"817"},{"name":"attleboro","area_code":"774"},{"name":"belmont","area_code":"857"},{"name":"beverly","area_code":"978"},{"name":"boston","area_code":"617"},{"name":"braintree","area_code":"781"},{"name":"brockton","area_code":"508"},{"name":"brookline","area_code":"617"},{"name":"burlington","area_code":"905"},{"name":"cambridge","area_code":"519"},{"name":"chelsea","area_code":"857"},{"name":"chicopee","area_code":"413"},{"name":"danvers","area_code":"978"},{"name":"dedham","area_code":"781"},{"name":"everett","area_code":"857"},{"name":"fall river","area_code":"508"},{"name":"fitchburg","area_code":"978"},{"name":"framingham","area_code":"508"},{"name":"franklin","area_code":"774"},{"name":"gloucester","area_code":"978"},{"name":"haverhill","area_code":"978"},{"name":"holyoke","area_code":"413"},{"name":"lawrence","area_code":"978"},{"name":"leominster","area_code":"978"},{"name":"lexington","area_code":"781"},{"name":"lowell","area_code":"978"},{"name":"lynn","area_code":"781"},{"name":"malden","area_code":"617"},{"name":"medford","area_code":"781"},{"name":"melrose","area_code":"781"},{"name":"milford","area_code":"508"},{"name":"milton","area_code":"857"},{"name":"needham","area_code":"781"},{"name":"new bedford","area_code":"508"},{"name":"newton","area_code":"857"},{"name":"northampton","area_code":"413"},{"name":"norwood","area_code":"781"},{"name":"peabody","area_code":"978"},{"name":"pittsfield","area_code":"413"},{"name":"quincy","area_code":"617"},{"name":"randolph","area_code":"781"},{"name":"reading","area_code":"781"},{"name":"revere","area_code":"781"},{"name":"salem","area_code":"503"},{"name":"saugus","area_code":"781"},{"name":"somerville","area_code":"857"},{"name":"springfield","area_code":"417"},{"name":"taunton","area_code":"508"},{"name":"wakefield","area_code":"781"},{"name":"waltham","area_code":"617"},{"name":"watertown","area_code":"857"},{"name":"wellesley","area_code":"781"},{"name":"westfield","area_code":"413"},{"name":"weymouth","area_code":"617"},{"name":"winthrop","area_code":"857"},{"name":"woburn","area_code":"781"},{"name":"worcester","area_code":"508"}],"michigan":[{"name":"ann arbor","area_code":"734"},{"name":"battle creek","area_code":"269"},{"name":"bay city","area_code":"989"},{"name":"canton","area_code":"734"},{"name":"clinton","area_code":"517"},{"name":"dearborn","area_code":"313"},{"name":"detroit","area_code":"313"},{"name":"flint","area_code":"810"},{"name":"garden city","area_code":"515"},{"name":"grand rapids","area_code":"616"},{"name":"harrison","area_code":"989"},{"name":"holland","area_code":"616"},{"name":"jackson","area_code":"601"},{"name":"lansing","area_code":"517"},{"name":"lincoln park","area_code":"313"},{"name":"livonia","area_code":"734"},{"name":"madison heights","area_code":"947"},{"name":"midland","area_code":"432"},{"name":"mount pleasant","area_code":"989"},{"name":"novi","area_code":"947"},{"name":"oak park","area_code":"947"},{"name":"pontiac","area_code":"947"},{"name":"port huron","area_code":"810"},{"name":"reading","area_code":"517"},{"name":"redford","area_code":"313"},{"name":"roseville","area_code":"586"},{"name":"royal oak","area_code":"947"},{"name":"saginaw","area_code":"989"},{"name":"shelby","area_code":"980"},{"name":"southfield","area_code":"810"},{"name":"sterling heights","area_code":"586"},{"name":"troy","area_code":"947"},{"name":"wakefield","area_code":"906"},{"name":"warren","area_code":"586"},{"name":"waterford","area_code":"947"},{"name":"westland","area_code":"734"},{"name":"wyandotte","area_code":"734"}],"florida":[{"name":"boca raton","area_code":"561"},{"name":"bonita springs","area_code":"239"},{"name":"boynton beach","area_code":"561"},{"name":"bradenton","area_code":"941"},{"name":"brandon","area_code":"204"},{"name":"cape coral","area_code":"239"},{"name":"clearwater","area_code":"727"},{"name":"daytona beach","area_code":"386"},{"name":"deerfield beach","area_code":"954"},{"name":"delray beach","area_code":"561"},{"name":"deltona","area_code":"407"},{"name":"fort lauderdale","area_code":"754"},{"name":"fort myers","area_code":"239"},{"name":"gainesville","area_code":"352"},{"name":"hialeah","area_code":"305"},{"name":"hollywood","area_code":"323"},{"name":"homestead","area_code":"305"},{"name":"jacksonville","area_code":"904"},{"name":"jupiter","area_code":"561"},{"name":"kissimmee","area_code":"321"},{"name":"lakeland","area_code":"863"},{"name":"largo","area_code":"727"},{"name":"lehigh acres","area_code":"239"},{"name":"melbourne","area_code":"321"},{"name":"miami","area_code":"305"},{"name":"miami beach","area_code":"786"},{"name":"naples","area_code":"239"},{"name":"north fort myers","area_code":"941"},{"name":"north port","area_code":"941"},{"name":"ocala","area_code":"352"},{"name":"orlando","area_code":"407"},{"name":"palm bay","area_code":"321"},{"name":"palm coast","area_code":"386"},{"name":"palm harbor","area_code":"727"},{"name":"pensacola","area_code":"0"},{"name":"pompano beach","area_code":"954"},{"name":"sanford","area_code":"321"},{"name":"sarasota","area_code":"941"},{"name":"spring hill","area_code":"352"},{"name":"tallahassee","area_code":"850"},{"name":"tampa","area_code":"813"},{"name":"titusville","area_code":"321"},{"name":"west palm beach","area_code":"561"}],"georgia":[{"name":"albany","area_code":"518"},{"name":"alpharetta","area_code":"404"},{"name":"americus","area_code":"229"},{"name":"athens","area_code":"762"},{"name":"atlanta","area_code":"404"},{"name":"augusta","area_code":"207"},{"name":"brunswick","area_code":"912"},{"name":"canton","area_code":"770"},{"name":"carrollton","area_code":"770"},{"name":"cartersville","area_code":"770"},{"name":"columbus","area_code":"614"},{"name":"dalton","area_code":"762"},{"name":"decatur","area_code":"404"},{"name":"dublin","area_code":"478"},{"name":"forest park","area_code":"404"},{"name":"gainesville","area_code":"770"},{"name":"griffin","area_code":"770"},{"name":"hinesville","area_code":"912"},{"name":"macon","area_code":"478"},{"name":"marietta","area_code":"770"},{"name":"milledgeville","area_code":"478"},{"name":"newnan","area_code":"770"},{"name":"roswell","area_code":"770"},{"name":"savannah","area_code":"912"},{"name":"statesboro","area_code":"912"},{"name":"thomasville","area_code":"229"},{"name":"tifton","area_code":"229"},{"name":"union city","area_code":"510"},{"name":"valdosta","area_code":"229"},{"name":"warner robins","area_code":"478"},{"name":"woodstock","area_code":"802"}],"wisconsin":[{"name":"appleton","area_code":"920"},{"name":"caledonia","area_code":"414"},{"name":"de pere","area_code":"920"},{"name":"eau claire","area_code":"715"},{"name":"fond du lac","area_code":"920"},{"name":"franklin","area_code":"414"},{"name":"green bay","area_code":"920"},{"name":"janesville","area_code":"608"},{"name":"kaukauna","area_code":"920"},{"name":"kenosha","area_code":"262"},{"name":"la crosse","area_code":"608"},{"name":"madison","area_code":"608"},{"name":"manitowoc","area_code":"920"},{"name":"menomonee falls","area_code":"262"},{"name":"middleton","area_code":"608"},{"name":"milwaukee","area_code":"414"},{"name":"muskego","area_code":"262"},{"name":"neenah","area_code":"920"},{"name":"oak creek","area_code":"414"},{"name":"oshkosh","area_code":"920"},{"name":"racine","area_code":"262"},{"name":"sheboygan","area_code":"920"},{"name":"sun prairie","area_code":"608"},{"name":"waukesha","area_code":"262"},{"name":"wauwatosa","area_code":"414"},{"name":"west bend","area_code":"262"}],"new jersey":[{"name":"atlantic city","area_code":"609"},{"name":"bayonne","area_code":"551"},{"name":"belleville","area_code":"613"},{"name":"bloomfield","area_code":"973"},{"name":"camden","area_code":"609"},{"name":"clifton","area_code":"862"},{"name":"east brunswick","area_code":"848"},{"name":"east orange","area_code":"862"},{"name":"edison","area_code":"848"},{"name":"elizabeth","area_code":"908"},{"name":"fair lawn","area_code":"551"},{"name":"fort lee","area_code":"201"},{"name":"hackensack","area_code":"551"},{"name":"hoboken","area_code":"201"},{"name":"irvington","area_code":"862"},{"name":"jersey city","area_code":"551"},{"name":"kearny","area_code":"551"},{"name":"lakewood","area_code":"303"},{"name":"linden","area_code":"908"},{"name":"long branch","area_code":"908"},{"name":"new brunswick","area_code":"908"},{"name":"newark","area_code":"973"},{"name":"north bergen","area_code":"201"},{"name":"orange","area_code":"714"},{"name":"passaic","area_code":"973"},{"name":"paterson","area_code":"973"},{"name":"perth amboy","area_code":"908"},{"name":"plainfield","area_code":"908"},{"name":"teaneck","area_code":"201"},{"name":"toms river","area_code":"908"},{"name":"trenton","area_code":"609"},{"name":"union","area_code":"815"},{"name":"union city","area_code":"551"},{"name":"vineland","area_code":"609"},{"name":"wayne","area_code":"862"},{"name":"west new york","area_code":"201"}],"north carolina":[{"name":"apex","area_code":"919"},{"name":"asheville","area_code":"828"},{"name":"burlington","area_code":"905"},{"name":"cary","area_code":"919"},{"name":"chapel hill","area_code":"919"},{"name":"charlotte","area_code":"704"},{"name":"concord","area_code":"603"},{"name":"durham","area_code":"919"},{"name":"fayetteville","area_code":"910"},{"name":"garner","area_code":"919"},{"name":"gastonia","area_code":"980"},{"name":"goldsboro","area_code":"919"},{"name":"greensboro","area_code":"336"},{"name":"greenville","area_code":"864"},{"name":"havelock","area_code":"252"},{"name":"hickory","area_code":"828"},{"name":"high point","area_code":"336"},{"name":"holly springs","area_code":"919"},{"name":"huntersville","area_code":"704"},{"name":"jacksonville","area_code":"904"},{"name":"kannapolis","area_code":"704"},{"name":"kernersville","area_code":"336"},{"name":"kinston","area_code":"252"},{"name":"lexington","area_code":"336"},{"name":"lumberton","area_code":"910"},{"name":"matthews","area_code":"980"},{"name":"monroe","area_code":"980"},{"name":"mooresville","area_code":"704"},{"name":"new bern","area_code":"252"},{"name":"raleigh","area_code":"919"},{"name":"rocky mount","area_code":"252"},{"name":"salisbury","area_code":"980"},{"name":"sanford","area_code":"919"},{"name":"shelby","area_code":"980"},{"name":"statesville","area_code":"704"},{"name":"thomasville","area_code":"336"},{"name":"wake forest","area_code":"919"},{"name":"wilmington","area_code":"910"},{"name":"wilson","area_code":"919"}],"minnesota":[{"name":"anoka","area_code":"763"},{"name":"austin","area_code":"512"},{"name":"blaine","area_code":"763"},{"name":"burnsville","area_code":"952"},{"name":"champlin","area_code":"763"},{"name":"chanhassen","area_code":"952"},{"name":"chaska","area_code":"952"},{"name":"duluth","area_code":"218"},{"name":"eden prairie","area_code":"952"},{"name":"faribault","area_code":"507"},{"name":"hastings","area_code":"651"},{"name":"mankato","area_code":"507"},{"name":"minneapolis","area_code":"612"},{"name":"minnetonka","area_code":"952"},{"name":"moorhead","area_code":"218"},{"name":"owatonna","area_code":"507"},{"name":"prior lake","area_code":"952"},{"name":"red wing","area_code":"651"},{"name":"rochester","area_code":"585"},{"name":"saint michael","area_code":"763"},{"name":"saint paul","area_code":"651"},{"name":"savage","area_code":"952"},{"name":"shakopee","area_code":"952"},{"name":"stillwater","area_code":"651"},{"name":"winona","area_code":"507"}],"washington":[{"name":"washington","area_code":"202"}],"ohio":[{"name":"akron","area_code":"330"},{"name":"bowling green","area_code":"567"},{"name":"canton","area_code":"330"},{"name":"cincinnati","area_code":"513"},{"name":"cleveland","area_code":"216"},{"name":"columbus","area_code":"614"},{"name":"dayton","area_code":"937"},{"name":"dublin","area_code":"614"},{"name":"elyria","area_code":"440"},{"name":"euclid","area_code":"216"},{"name":"findlay","area_code":"567"},{"name":"grove city","area_code":"614"},{"name":"hamilton","area_code":"905"},{"name":"lakewood","area_code":"303"},{"name":"lancaster","area_code":"661"},{"name":"lima","area_code":"567"},{"name":"lorain","area_code":"440"},{"name":"mansfield","area_code":"567"},{"name":"marion","area_code":"740"},{"name":"mason","area_code":"513"},{"name":"massillon","area_code":"330"},{"name":"mentor","area_code":"440"},{"name":"middletown","area_code":"513"},{"name":"newark","area_code":"973"},{"name":"north royalton","area_code":"440"},{"name":"reynoldsburg","area_code":"614"},{"name":"springfield","area_code":"417"},{"name":"strongsville","area_code":"440"},{"name":"toledo","area_code":"419"},{"name":"warren","area_code":"586"},{"name":"westerville","area_code":"614"},{"name":"youngstown","area_code":"330"}],"virginia":[{"name":"alexandria","area_code":"703"},{"name":"annandale","area_code":"703"},{"name":"arlington","area_code":"817"},{"name":"blacksburg","area_code":"540"},{"name":"burke","area_code":"703"},{"name":"centreville","area_code":"703"},{"name":"chantilly","area_code":"703"},{"name":"charlottesville","area_code":"434"},{"name":"chesapeake","area_code":"757"},{"name":"danville","area_code":"434"},{"name":"fairfax","area_code":"703"},{"name":"fredericksburg","area_code":"540"},{"name":"hampton","area_code":"757"},{"name":"harrisonburg","area_code":"540"},{"name":"herndon","area_code":"703"},{"name":"hopewell","area_code":"804"},{"name":"leesburg","area_code":"703"},{"name":"lynchburg","area_code":"434"},{"name":"manassas","area_code":"703"},{"name":"mechanicsville","area_code":"804"},{"name":"mount vernon","area_code":"703"},{"name":"newington","area_code":"703"},{"name":"newport news","area_code":"757"},{"name":"norfolk","area_code":"905"},{"name":"oakton","area_code":"703"},{"name":"petersburg","area_code":"804"},{"name":"portsmouth","area_code":"757"},{"name":"reston","area_code":"703"},{"name":"richmond","area_code":"604"},{"name":"roanoke","area_code":"276"},{"name":"salem","area_code":"503"},{"name":"springfield","area_code":"417"},{"name":"staunton","area_code":"540"},{"name":"suffolk","area_code":"757"},{"name":"virginia beach","area_code":"757"},{"name":"waynesboro","area_code":"931"},{"name":"winchester","area_code":"913"},{"name":"woodbridge","area_code":"703"}],"pennsylvania":[{"name":"allentown","area_code":"484"},{"name":"bethel park","area_code":"878"},{"name":"bethlehem","area_code":"835"},{"name":"carlisle","area_code":"717"},{"name":"chambersburg","area_code":"717"},{"name":"chester","area_code":"563"},{"name":"easton","area_code":"484"},{"name":"erie","area_code":"814"},{"name":"greensburg","area_code":"412"},{"name":"hanover","area_code":"204"},{"name":"harrisburg","area_code":"717"},{"name":"hermitage","area_code":"870"},{"name":"lancaster","area_code":"661"},{"name":"lansdale","area_code":"267"},{"name":"lebanon","area_code":"270"},{"name":"levittown","area_code":"267"},{"name":"monroeville","area_code":"878"},{"name":"new castle","area_code":"878"},{"name":"philadelphia","area_code":"267"},{"name":"phoenixville","area_code":"610"},{"name":"pittsburgh","area_code":"412"},{"name":"pottstown","area_code":"610"},{"name":"reading","area_code":"610"},{"name":"sharon","area_code":"724"},{"name":"springfield","area_code":"417"},{"name":"state college","area_code":"814"},{"name":"west chester","area_code":"610"},{"name":"williamsport","area_code":"240"},{"name":"york","area_code":"803"}],"indiana":[{"name":"bloomington","area_code":"812"},{"name":"carmel","area_code":"317"},{"name":"clarksville","area_code":"931"},{"name":"columbus","area_code":"614"},{"name":"crown point","area_code":"219"},{"name":"east chicago","area_code":"219"},{"name":"elkhart","area_code":"574"},{"name":"evansville","area_code":"812"},{"name":"fishers","area_code":"317"},{"name":"fort wayne","area_code":"260"},{"name":"franklin","area_code":"317"},{"name":"gary","area_code":"219"},{"name":"goshen","area_code":"574"},{"name":"greenwood","area_code":"317"},{"name":"hammond","area_code":"219"},{"name":"hobart","area_code":"219"},{"name":"indianapolis","area_code":"317"},{"name":"jeffersonville","area_code":"478"},{"name":"kokomo","area_code":"765"},{"name":"lafayette","area_code":"337"},{"name":"marion","area_code":"765"},{"name":"merrillville","area_code":"219"},{"name":"michigan city","area_code":"219"},{"name":"noblesville","area_code":"317"},{"name":"plainfield","area_code":"317"},{"name":"portage","area_code":"219"},{"name":"richmond","area_code":"604"},{"name":"south bend","area_code":"574"},{"name":"terre haute","area_code":"812"},{"name":"valparaiso","area_code":"219"}],"oregon":[{"name":"albany","area_code":"518"},{"name":"ashland","area_code":"606"},{"name":"beaverton","area_code":"503"},{"name":"bend","area_code":"541"},{"name":"central point","area_code":"541"},{"name":"coos bay","area_code":"541"},{"name":"dallas","area_code":"214"},{"name":"eugene","area_code":"541"},{"name":"grants pass","area_code":"541"},{"name":"gresham","area_code":"971"},{"name":"hillsboro","area_code":"606"},{"name":"lebanon","area_code":"270"},{"name":"mcminnville","area_code":"971"},{"name":"newberg","area_code":"971"},{"name":"pendleton","area_code":"541"},{"name":"portland","area_code":"207"},{"name":"redmond","area_code":"425"},{"name":"salem","area_code":"503"},{"name":"sherwood","area_code":"971"},{"name":"springfield","area_code":"417"},{"name":"woodburn","area_code":"971"}],"missouri":[{"name":"belton","area_code":"816"},{"name":"blue springs","area_code":"816"},{"name":"cape girardeau","area_code":"573"},{"name":"chesterfield","area_code":"636"},{"name":"columbia","area_code":"803"},{"name":"florissant","area_code":"314"},{"name":"independence","area_code":"816"},{"name":"jefferson city","area_code":"573"},{"name":"joplin","area_code":"417"},{"name":"kansas city","area_code":"660"},{"name":"kirksville","area_code":"660"},{"name":"liberty","area_code":"816"},{"name":"nixa","area_code":"417"},{"name":"ozark","area_code":"417"},{"name":"rolla","area_code":"620"},{"name":"saint charles","area_code":"636"},{"name":"sedalia","area_code":"303"},{"name":"sikeston","area_code":"573"},{"name":"springfield","area_code":"417"},{"name":"warrensburg","area_code":"660"},{"name":"wentzville","area_code":"636"}],"colorado":[{"name":"arvada","area_code":"720"},{"name":"aspen","area_code":"970"},{"name":"aurora","area_code":"630"},{"name":"boulder","area_code":"303"},{"name":"brighton","area_code":"303"},{"name":"broomfield","area_code":"720"},{"name":"canon city","area_code":"719"},{"name":"castle rock","area_code":"303"},{"name":"colorado springs","area_code":"719"},{"name":"commerce city","area_code":"303"},{"name":"denver","area_code":"303"},{"name":"durango","area_code":"970"},{"name":"englewood","area_code":"720"},{"name":"erie","area_code":"814"},{"name":"fort collins","area_code":"970"},{"name":"golden","area_code":"303"},{"name":"grand junction","area_code":"970"},{"name":"greeley","area_code":"970"},{"name":"lafayette","area_code":"337"},{"name":"lakewood","area_code":"303"},{"name":"littleton","area_code":"720"},{"name":"longmont","area_code":"720"},{"name":"louisville","area_code":"502"},{"name":"loveland","area_code":"970"},{"name":"montrose","area_code":"970"},{"name":"parker","area_code":"303"},{"name":"pueblo","area_code":"719"},{"name":"westminster","area_code":"720"},{"name":"wheat ridge","area_code":"303"},{"name":"windsor","area_code":"519"}],"tennessee":[{"name":"bristol","area_code":"423"},{"name":"chattanooga","area_code":"423"},{"name":"clarksville","area_code":"931"},{"name":"cleveland","area_code":"216"},{"name":"collierville","area_code":"901"},{"name":"columbia","area_code":"803"},{"name":"cookeville","area_code":"931"},{"name":"dyersburg","area_code":"731"},{"name":"franklin","area_code":"615"},{"name":"gallatin","area_code":"615"},{"name":"goodlettsville","area_code":"615"},{"name":"greeneville","area_code":"423"},{"name":"hendersonville","area_code":"615"},{"name":"jackson","area_code":"601"},{"name":"johnson city","area_code":"423"},{"name":"kingsport","area_code":"423"},{"name":"knoxville","area_code":"865"},{"name":"lebanon","area_code":"615"},{"name":"memphis","area_code":"901"},{"name":"morristown","area_code":"423"},{"name":"mount juliet","area_code":"615"},{"name":"murfreesboro","area_code":"615"},{"name":"nashville","area_code":"615"},{"name":"sevierville","area_code":"865"},{"name":"shelbyville","area_code":"931"},{"name":"smyrna","area_code":"615"},{"name":"spring hill","area_code":"352"},{"name":"springfield","area_code":"417"},{"name":"tullahoma","area_code":"931"}],"utah":[{"name":"american fork","area_code":"801"},{"name":"bountiful","area_code":"801"},{"name":"cedar city","area_code":"435"},{"name":"clearfield","area_code":"801"},{"name":"draper","area_code":"385"},{"name":"farmington","area_code":"801"},{"name":"kaysville","area_code":"801"},{"name":"layton","area_code":"385"},{"name":"lehi","area_code":"801"},{"name":"logan","area_code":"435"},{"name":"magna","area_code":"801"},{"name":"midvale","area_code":"801"},{"name":"ogden","area_code":"801"},{"name":"orem","area_code":"385"},{"name":"payson","area_code":"801"},{"name":"pleasant grove","area_code":"801"},{"name":"provo","area_code":"801"},{"name":"riverton","area_code":"385"},{"name":"roy","area_code":"385"},{"name":"salt lake city","area_code":"385"},{"name":"sandy","area_code":"385"},{"name":"south jordan","area_code":"385"},{"name":"spanish fork","area_code":"801"},{"name":"springville","area_code":"801"},{"name":"syracuse","area_code":"315"},{"name":"tooele","area_code":"435"},{"name":"west jordan","area_code":"385"}],"connecticut":[{"name":"ansonia","area_code":"475"},{"name":"bridgeport","area_code":"203"},{"name":"bristol","area_code":"860"},{"name":"danbury","area_code":"475"},{"name":"darien","area_code":"475"},{"name":"east haven","area_code":"475"},{"name":"hartford","area_code":"860"},{"name":"meriden","area_code":"475"},{"name":"middletown","area_code":"860"},{"name":"milford","area_code":"475"},{"name":"naugatuck","area_code":"475"},{"name":"new britain","area_code":"860"},{"name":"new haven","area_code":"203"},{"name":"new london","area_code":"860"},{"name":"north haven","area_code":"475"},{"name":"norwalk","area_code":"562"},{"name":"norwich","area_code":"860"},{"name":"shelton","area_code":"475"},{"name":"stamford","area_code":"203"},{"name":"stratford","area_code":"475"},{"name":"torrington","area_code":"860"},{"name":"trumbull","area_code":"475"},{"name":"waterbury","area_code":"203"},{"name":"west hartford","area_code":"860"},{"name":"west haven","area_code":"475"},{"name":"westport","area_code":"475"}],"oklahoma":[{"name":"ardmore","area_code":"580"},{"name":"bethany","area_code":"405"},{"name":"broken arrow","area_code":"918"},{"name":"claremore","area_code":"918"},{"name":"duncan","area_code":"928"},{"name":"el reno","area_code":"405"},{"name":"enid","area_code":"580"},{"name":"lawton","area_code":"580"},{"name":"mustang","area_code":"405"},{"name":"norman","area_code":"405"},{"name":"oklahoma city","area_code":"405"},{"name":"owasso","area_code":"918"},{"name":"sand springs","area_code":"918"},{"name":"shawnee","area_code":"405"},{"name":"stillwater","area_code":"405"},{"name":"tahlequah","area_code":"918"},{"name":"tulsa","area_code":"918"},{"name":"yukon","area_code":"405"}],"maryland":[{"name":"annapolis","area_code":"410"},{"name":"baltimore","area_code":"410"},{"name":"bethesda","area_code":"301"},{"name":"bowie","area_code":"301"},{"name":"catonsville","area_code":"443"},{"name":"clinton","area_code":"301"},{"name":"columbia","area_code":"803"},{"name":"dundalk","area_code":"443"},{"name":"ellicott city","area_code":"443"},{"name":"essex","area_code":"443"},{"name":"frederick","area_code":"301"},{"name":"gaithersburg","area_code":"240"},{"name":"germantown","area_code":"301"},{"name":"glen burnie","area_code":"443"},{"name":"hagerstown","area_code":"301"},{"name":"montgomery village","area_code":"301"},{"name":"olney","area_code":"301"},{"name":"parkville","area_code":"443"},{"name":"perry hall","area_code":"410"},{"name":"pikesville","area_code":"443"},{"name":"potomac","area_code":"301"},{"name":"randallstown","area_code":"410"},{"name":"rockville","area_code":"301"},{"name":"severn","area_code":"443"},{"name":"severna park","area_code":"443"},{"name":"silver spring","area_code":"301"},{"name":"towson","area_code":"410"}],"iowa":[{"name":"ames","area_code":"515"},{"name":"ankeny","area_code":"515"},{"name":"burlington","area_code":"905"},{"name":"cedar rapids","area_code":"319"},{"name":"clinton","area_code":"270"},{"name":"council bluffs","area_code":"712"},{"name":"davenport","area_code":"563"},{"name":"des moines","area_code":"515"},{"name":"dubuque","area_code":"563"},{"name":"fort dodge","area_code":"515"},{"name":"iowa city","area_code":"515"},{"name":"marion","area_code":"765"},{"name":"mason city","area_code":"641"},{"name":"muscatine","area_code":"563"},{"name":"newton","area_code":"316"},{"name":"sioux city","area_code":"712"},{"name":"waterloo","area_code":"519"}],"arkansas":[{"name":"benton","area_code":"501"},{"name":"bentonville","area_code":"479"},{"name":"cabot","area_code":"501"},{"name":"conway","area_code":"501"},{"name":"fayetteville","area_code":"479"},{"name":"fort smith","area_code":"867"},{"name":"hot springs","area_code":"501"},{"name":"jacksonville","area_code":"904"},{"name":"jonesboro","area_code":"870"},{"name":"little rock","area_code":"501"},{"name":"maumelle","area_code":"501"},{"name":"rogers","area_code":"479"},{"name":"russellville","area_code":"479"},{"name":"searcy","area_code":"501"},{"name":"sherwood","area_code":"501"},{"name":"springdale","area_code":"479"},{"name":"van buren","area_code":"479"},{"name":"west memphis","area_code":"870"}],"mississippi":[{"name":"biloxi","area_code":"228"},{"name":"brandon","area_code":"204"},{"name":"clinton","area_code":"270"},{"name":"columbus","area_code":"614"},{"name":"greenville","area_code":"662"},{"name":"greenwood","area_code":"662"},{"name":"gulfport","area_code":"228"},{"name":"hattiesburg","area_code":"769"},{"name":"jackson","area_code":"601"},{"name":"laurel","area_code":"601"},{"name":"long beach","area_code":"562"},{"name":"madison","area_code":"608"},{"name":"meridian","area_code":"601"},{"name":"natchez","area_code":"601"},{"name":"ocean springs","area_code":"228"},{"name":"oxford","area_code":"662"},{"name":"pascagoula","area_code":"228"},{"name":"starkville","area_code":"662"},{"name":"tupelo","area_code":"662"},{"name":"vicksburg","area_code":"769"}],"arizona":[{"name":"bullhead city","area_code":"928"},{"name":"casa grande","area_code":"520"},{"name":"chandler","area_code":"480"},{"name":"flagstaff","area_code":"928"},{"name":"gilbert","area_code":"480"},{"name":"glendale","area_code":"818"},{"name":"lake havasu city","area_code":"928"},{"name":"maricopa","area_code":"520"},{"name":"mesa","area_code":"480"},{"name":"peoria","area_code":"309"},{"name":"phoenix","area_code":"602"},{"name":"prescott","area_code":"520"},{"name":"scottsdale","area_code":"480"},{"name":"sierra vista","area_code":"520"},{"name":"tempe","area_code":"480"},{"name":"tucson","area_code":"520"},{"name":"yuma","area_code":"928"}],"south carolina":[{"name":"anderson","area_code":"864"},{"name":"charleston","area_code":"843"},{"name":"columbia","area_code":"803"},{"name":"conway","area_code":"843"},{"name":"easley","area_code":"864"},{"name":"florence","area_code":"843"},{"name":"greenville","area_code":"864"},{"name":"greenwood","area_code":"864"},{"name":"greer","area_code":"864"},{"name":"lexington","area_code":"803"},{"name":"mount pleasant","area_code":"843"},{"name":"myrtle beach","area_code":"843"},{"name":"north augusta","area_code":"803"},{"name":"rock hill","area_code":"803"},{"name":"simpsonville","area_code":"864"},{"name":"spartanburg","area_code":"864"},{"name":"summerville","area_code":"843"},{"name":"sumter","area_code":"803"}],"louisiana":[{"name":"alexandria","area_code":"703"},{"name":"baton rouge","area_code":"225"},{"name":"bossier city","area_code":"318"},{"name":"chalmette","area_code":"504"},{"name":"hammond","area_code":"985"},{"name":"houma","area_code":"985"},{"name":"kenner","area_code":"504"},{"name":"lafayette","area_code":"337"},{"name":"lake charles","area_code":"337"},{"name":"laplace","area_code":"985"},{"name":"metairie","area_code":"504"},{"name":"monroe","area_code":"318"},{"name":"new orleans","area_code":"504"},{"name":"opelousas","area_code":"337"},{"name":"shreveport","area_code":"318"},{"name":"slidell","area_code":"985"},{"name":"sulphur","area_code":"337"}],"kentucky":[{"name":"ashland","area_code":"606"},{"name":"bowling green","area_code":"270"},{"name":"covington","area_code":"859"},{"name":"frankfort","area_code":"502"},{"name":"georgetown","area_code":"502"},{"name":"henderson","area_code":"270"},{"name":"independence","area_code":"816"},{"name":"lexington","area_code":"859"},{"name":"louisville","area_code":"502"},{"name":"nicholasville","area_code":"859"},{"name":"owensboro","area_code":"270"},{"name":"paducah","area_code":"270"},{"name":"richmond","area_code":"604"},{"name":"winchester","area_code":"859"}],"alabama":[{"name":"alabaster","area_code":"205"},{"name":"anniston","area_code":"256"},{"name":"athens","area_code":"256"},{"name":"auburn","area_code":"334"},{"name":"bessemer","area_code":"205"},{"name":"decatur","area_code":"256"},{"name":"dothan","area_code":"334"},{"name":"enterprise","area_code":"334"},{"name":"huntsville","area_code":"256"},{"name":"madison","area_code":"608"},{"name":"mobile","area_code":"334"},{"name":"montgomery","area_code":"334"},{"name":"pelham","area_code":"229"},{"name":"phenix city","area_code":"334"},{"name":"prattville","area_code":"334"},{"name":"tuscaloosa","area_code":"205"}],"kansas":[{"name":"dodge city","area_code":"620"},{"name":"emporia","area_code":"620"},{"name":"garden city","area_code":"515"},{"name":"hays","area_code":"785"},{"name":"junction city","area_code":"785"},{"name":"kansas city","area_code":"660"},{"name":"lawrence","area_code":"785"},{"name":"leavenworth","area_code":"913"},{"name":"liberal","area_code":"620"},{"name":"manhattan","area_code":"785"},{"name":"olathe","area_code":"913"},{"name":"overland park","area_code":"913"},{"name":"salina","area_code":"785"},{"name":"shawnee","area_code":"303"},{"name":"topeka","area_code":"785"},{"name":"wichita","area_code":"316"}],"puerto rico":[{"name":"aguadilla","area_code":"939"},{"name":"arecibo","area_code":"939"},{"name":"bayamón","area_code":"939"},{"name":"caguas","area_code":"939"},{"name":"carolina","area_code":"939"},{"name":"guaynabo","area_code":"939"},{"name":"juana diaz","area_code":"939"},{"name":"mayaguez","area_code":"939"},{"name":"ponce","area_code":"939"},{"name":"san juan","area_code":"787"}],"rhode island":[{"name":"bristol","area_code":"401"},{"name":"cranston","area_code":"401"},{"name":"newport","area_code":"401"},{"name":"pawtucket","area_code":"401"},{"name":"providence","area_code":"401"},{"name":"warwick","area_code":"401"},{"name":"west warwick","area_code":"401"},{"name":"westerly","area_code":"401"},{"name":"woonsocket","area_code":"401"}],"idaho":[{"name":"boise","area_code":"208"},{"name":"caldwell","area_code":"208"},{"name":"idaho falls","area_code":"208"},{"name":"moscow","area_code":"620"},{"name":"pocatello","area_code":"208"}],"maine":[{"name":"auburn","area_code":"334"},{"name":"augusta","area_code":"207"},{"name":"bangor","area_code":"207"},{"name":"biddeford","area_code":"207"},{"name":"brunswick","area_code":"207"},{"name":"lewiston","area_code":"207"},{"name":"portland","area_code":"207"},{"name":"sanford","area_code":"321"},{"name":"waterville","area_code":"207"}],"new mexico":[{"name":"alamogordo","area_code":"575"},{"name":"albuquerque","area_code":"505"},{"name":"deming","area_code":"575"},{"name":"farmington","area_code":"505"},{"name":"gallup","area_code":"505"},{"name":"las cruces","area_code":"575"},{"name":"roswell","area_code":"575"},{"name":"santa fe","area_code":"505"}],"nebraska":[{"name":"columbus","area_code":"614"},{"name":"fremont","area_code":"0"},{"name":"kearney","area_code":"308"},{"name":"lincoln","area_code":"402"},{"name":"norfolk","area_code":"905"},{"name":"omaha","area_code":"402"}],"nevada":[{"name":"boulder city","area_code":"702"},{"name":"carson city","area_code":"775"},{"name":"henderson","area_code":"702"},{"name":"las vegas","area_code":"702"},{"name":"mesquite","area_code":"214"},{"name":"north las vegas","area_code":"702"},{"name":"reno","area_code":"775"},{"name":"sparks","area_code":"775"}],"west virginia":[{"name":"charleston","area_code":"843"},{"name":"dothan","area_code":"334"},{"name":"fairmont","area_code":"681"},{"name":"huntington","area_code":"681"},{"name":"morgantown","area_code":"681"},{"name":"parkersburg","area_code":"304"},{"name":"wheeling","area_code":"630"}],"new hampshire":[{"name":"concord","area_code":"603"},{"name":"derry","area_code":"603"},{"name":"dover","area_code":"302"},{"name":"keene","area_code":"603"},{"name":"laconia","area_code":"603"},{"name":"manchester","area_code":"603"},{"name":"nashua","area_code":"603"},{"name":"portsmouth","area_code":"757"},{"name":"rochester","area_code":"585"}],"north dakota":[{"name":"bismarck","area_code":"701"},{"name":"dickinson","area_code":"701"},{"name":"fargo","area_code":"701"},{"name":"grand forks","area_code":"701"},{"name":"mandan","area_code":"701"},{"name":"minot","area_code":"701"},{"name":"west fargo","area_code":"701"}],"montana":[{"name":"billings","area_code":"406"},{"name":"bozeman","area_code":"406"},{"name":"great falls","area_code":"406"},{"name":"helena","area_code":"406"},{"name":"missoula","area_code":"406"}],"wyoming":[{"name":"casper","area_code":"307"},{"name":"cheyenne","area_code":"307"},{"name":"gillette","area_code":"307"},{"name":"laramie","area_code":"307"},{"name":"rock springs","area_code":"307"},{"name":"sheridan","area_code":"307"}],"south dakota":[{"name":"pierre","area_code":"605"},{"name":"rapid city","area_code":"605"},{"name":"sioux falls","area_code":"605"}],"virgin islands":[],"alaska":[{"name":"anchorage","area_code":"907"},{"name":"fairbanks","area_code":"907"},{"name":"juneau","area_code":"907"},{"name":"sitka","area_code":"907"}],"vermont":[{"name":"burlington","area_code":"905"},{"name":"montpelier","area_code":"802"},{"name":"rutland","area_code":"802"}],"delaware":[{"name":"akron","area_code":"330"},{"name":"bowling green","area_code":"567"},{"name":"canton","area_code":"330"},{"name":"cincinnati","area_code":"513"},{"name":"cleveland","area_code":"216"},{"name":"columbus","area_code":"614"},{"name":"dayton","area_code":"937"},{"name":"dublin","area_code":"614"},{"name":"elyria","area_code":"440"},{"name":"euclid","area_code":"216"},{"name":"findlay","area_code":"567"},{"name":"grove city","area_code":"614"},{"name":"hamilton","area_code":"905"},{"name":"lakewood","area_code":"303"},{"name":"lancaster","area_code":"661"},{"name":"lima","area_code":"567"},{"name":"lorain","area_code":"440"},{"name":"mansfield","area_code":"567"},{"name":"marion","area_code":"740"},{"name":"mason","area_code":"513"},{"name":"massillon","area_code":"330"},{"name":"mentor","area_code":"440"},{"name":"middletown","area_code":"513"},{"name":"newark","area_code":"973"},{"name":"north royalton","area_code":"440"},{"name":"reynoldsburg","area_code":"614"},{"name":"springfield","area_code":"417"},{"name":"strongsville","area_code":"440"},{"name":"toledo","area_code":"419"},{"name":"warren","area_code":"586"},{"name":"westerville","area_code":"614"},{"name":"youngstown","area_code":"330"}],"district of columbia":[{"name":"washington","area_code":"202"}]},"mexico":[{"name":"acapulco","area_code":"744"},{"name":"aguascalientes","area_code":"449"},{"name":"cabo san lucas","area_code":"624"},{"name":"campeche","area_code":"981"},{"name":"cancún","area_code":"998"},{"name":"celaya","area_code":"461"},{"name":"chihuahua","area_code":"614"},{"name":"ciudad del carmen","area_code":"938"},{"name":"ciudad juárez","area_code":"656"},{"name":"cozumel","area_code":"987"},{"name":"cuernavaca","area_code":"777"},{"name":"culiacán","area_code":"667"},{"name":"durango","area_code":"618"},{"name":"ensenada","area_code":"646"},{"name":"guadalajara","area_code":"33"},{"name":"hermosillo","area_code":"662"},{"name":"irapuato","area_code":"462"},{"name":"ixtapa","area_code":"961"},{"name":"jalapa enríquez","area_code":"932"},{"name":"juchitán","area_code":"971"},{"name":"león","area_code":"477"},{"name":"los mochis","area_code":"668"},{"name":"matamoros","area_code":"871"},{"name":"mazatlán","area_code":"669"},{"name":"mérida","area_code":"999"},{"name":"mexicali","area_code":"686"},{"name":"mexico city","area_code":"55"},{"name":"monterrey","area_code":"81"},{"name":"morelia","area_code":"443"},{"name":"nogales","area_code":"631"},{"name":"nuevo laredo","area_code":"867"},{"name":"oaxaca de juárez","area_code":"951"},{"name":"playa del carmen","area_code":"984"},{"name":"progreso","area_code":"861"},{"name":"puebla","area_code":"222"},{"name":"puerto vallarta","area_code":"322"},{"name":"reynosa","area_code":"899"},{"name":"saltillo","area_code":"844"},{"name":"san luis potosí","area_code":"444"},{"name":"tampico","area_code":"833"},{"name":"tijuana","area_code":"664"},{"name":"toluca","area_code":"815"},{"name":"torreón","area_code":"871"},{"name":"veracruz","area_code":"229"},{"name":"villahermosa","area_code":"993"}],"canada":{"ontario":[{"name":"ajax","area_code":"905"},{"name":"barrie","area_code":"705"},{"name":"belleville","area_code":"613"},{"name":"brampton","area_code":"905"},{"name":"brantford","area_code":"519"},{"name":"burlington","area_code":"905"},{"name":"cambridge","area_code":"519"},{"name":"chatham","area_code":"217"},{"name":"guelph","area_code":"519"},{"name":"hamilton","area_code":"905"},{"name":"kingston","area_code":"613"},{"name":"kitchener","area_code":"519"},{"name":"london","area_code":"226"},{"name":"markham","area_code":"905"},{"name":"milton","area_code":"641"},{"name":"mississauga","area_code":"289"},{"name":"niagara falls","area_code":"905"},{"name":"north bay","area_code":"705"},{"name":"oakville","area_code":"905"},{"name":"oshawa","area_code":"905"},{"name":"ottawa","area_code":"343"},{"name":"peterborough","area_code":"705"},{"name":"pickering","area_code":"905"},{"name":"richmond hill","area_code":"905"},{"name":"sarnia","area_code":"519"},{"name":"timmins","area_code":"705"},{"name":"toronto","area_code":"416"},{"name":"trenton","area_code":"609"},{"name":"waterloo","area_code":"519"},{"name":"welland","area_code":"905"},{"name":"whitby","area_code":"905"},{"name":"woodbridge","area_code":"703"}],"british columbia":[{"name":"abbotsford","area_code":"604"},{"name":"burnaby","area_code":"604"},{"name":"chilliwack","area_code":"604"},{"name":"clinton","area_code":"270"},{"name":"cranbrook","area_code":"250"},{"name":"cumberland","area_code":"902"},{"name":"hope","area_code":"812"},{"name":"kamloops","area_code":"250"},{"name":"kelowna","area_code":"250"},{"name":"nanaimo","area_code":"250"},{"name":"nelson","area_code":"770"},{"name":"new westminster","area_code":"604"},{"name":"port coquitlam","area_code":"604"},{"name":"prince george","area_code":"250"},{"name":"richmond","area_code":"604"},{"name":"saanich","area_code":"604"},{"name":"summerland","area_code":"805"},{"name":"surrey","area_code":"604"},{"name":"vancouver","area_code":"604"},{"name":"victoria","area_code":"250"},{"name":"whistler","area_code":"604"},{"name":"yale","area_code":"918"}],"quebec":[{"name":"gatineau","area_code":"819"},{"name":"laval","area_code":"450"},{"name":"lévis","area_code":"418"},{"name":"longueuil","area_code":"450"},{"name":"montréal","area_code":"438"},{"name":"quebec city","area_code":"418"},{"name":"rimouski","area_code":"418"},{"name":"sherbrooke","area_code":"819"},{"name":"tracy","area_code":"209"},{"name":"trois rivières","area_code":"819"}],"alberta":[{"name":"banff","area_code":"403"},{"name":"calgary","area_code":"587"},{"name":"edmonton","area_code":"780"},{"name":"grande prairie","area_code":"780"},{"name":"lethbridge","area_code":"403"},{"name":"lloydminster","area_code":"780"},{"name":"medicine hat","area_code":"403"},{"name":"red deer","area_code":"403"}],"manitoba":[{"name":"arborg","area_code":"204"},{"name":"beausejour","area_code":"204"},{"name":"brandon","area_code":"204"},{"name":"cartwright","area_code":"204"},{"name":"churchill","area_code":"204"},{"name":"cranberry portage","area_code":"204"},{"name":"dauphin","area_code":"204"},{"name":"flin flon","area_code":"204"},{"name":"gillam","area_code":"204"},{"name":"gimli","area_code":"204"},{"name":"lynn lake","area_code":"204"},{"name":"melita","area_code":"204"},{"name":"minnedosa","area_code":"204"},{"name":"nelson house","area_code":"204"},{"name":"riverton","area_code":"204"},{"name":"selkirk","area_code":"204"},{"name":"souris","area_code":"204"},{"name":"stonewall","area_code":"204"},{"name":"swan river","area_code":"204"},{"name":"the pas","area_code":"204"},{"name":"thompson","area_code":"204"},{"name":"virden","area_code":"204"},{"name":"winnipeg","area_code":"204"}],"saskatchewan":[{"name":"broadview","area_code":"306"},{"name":"buffalo narrows","area_code":"306"},{"name":"caronport","area_code":"306"},{"name":"eastend","area_code":"306"},{"name":"estevan","area_code":"306"},{"name":"hudson bay","area_code":"306"},{"name":"kindersley","area_code":"306"},{"name":"la ronge","area_code":"306"},{"name":"langham","area_code":"306"},{"name":"meadow lake","area_code":"306"},{"name":"moose jaw","area_code":"306"},{"name":"north battleford","area_code":"306"},{"name":"prince albert","area_code":"306"},{"name":"regina","area_code":"306"},{"name":"rockglen","area_code":"306"},{"name":"rosetown","area_code":"306"},{"name":"saskatoon","area_code":"306"},{"name":"swift current","area_code":"306"},{"name":"warman","area_code":"306"},{"name":"weyburn","area_code":"306"},{"name":"wynyard","area_code":"306"},{"name":"yorkton","area_code":"306"}],"newfoundland":[{"name":"corner brook","area_code":"709"},{"name":"gander","area_code":"709"},{"name":"glenwood","area_code":"912"},{"name":"mount pearl","area_code":"709"},{"name":"st. john s","area_code":"709"},{"name":"stephenville","area_code":"709"},{"name":"windsor","area_code":"519"}],"new brunswick":[{"name":"dieppe","area_code":"506"},{"name":"edmundston","area_code":"506"},{"name":"fredericton","area_code":"506"},{"name":"hampton","area_code":"757"},{"name":"miramichi","area_code":"506"},{"name":"moncton","area_code":"506"},{"name":"rothesay","area_code":"506"},{"name":"saint john","area_code":"506"},{"name":"woodstock","area_code":"802"}],"nova scotia":[{"name":"halifax","area_code":"902"},{"name":"truro","area_code":"641"}],"northwest territories":[{"name":"fort simpson","area_code":"867"},{"name":"fort smith","area_code":"867"},{"name":"hay river","area_code":"867"},{"name":"rae","area_code":"867"},{"name":"slave lake","area_code":"867"},{"name":"yellowknife","area_code":"867"}],"nova scotia - north":[{"name":"cape breton","area_code":"902"},{"name":"sydney","area_code":"902"}],"ontario - lake nipigon":[],"ontario - thunder bay":[{"name":"thunder bay","area_code":"807"}],"yukon territory":[{"name":"carcross","area_code":"867"},{"name":"dawson city","area_code":"867"},{"name":"watson lake","area_code":"867"},{"name":"whitehorse","area_code":"867"}],"labrador":[{"name":"goose bay","area_code":"709"},{"name":"labrador city","area_code":"709"}],"british columbia - north":[{"name":"dawson creek","area_code":"250"}],"nunavut":[{"name":"iqaluit","area_code":"867"},{"name":"rankin inlet (kangiqliniq)","area_code":"867"}],"prince edward island":[{"name":"charlottetown","area_code":"902"},{"name":"summerside","area_code":"902"}],"quebec - north":[{"name":"blanc sablon","area_code":"418"}]},"dominican republic":[],"honduras":[{"name":"san pedro sula","area_code":"5"},{"name":"tegucigalpa","area_code":"2"}],"cuba":[{"name":"abreus","area_code":"43"},{"name":"aguacate","area_code":"64"},{"name":"aguada de pasajeros","area_code":"43"},{"name":"alquízar","area_code":"67"},{"name":"alto cedro","area_code":"24"},{"name":"amancio","area_code":"31"},{"name":"antilla","area_code":"24"},{"name":"artemisa","area_code":"63"},{"name":"baguanos","area_code":"24"},{"name":"bahia honda","area_code":"86"},{"name":"banes","area_code":"24"},{"name":"baragua","area_code":"33"},{"name":"bartle","area_code":"31"},{"name":"bartolome maso","area_code":"23"},{"name":"batabanó","area_code":"62"},{"name":"batalla de las guasimas","area_code":"32"},{"name":"bauta","area_code":"680"},{"name":"bayamo","area_code":"23"},{"name":"bejucal","area_code":"66"},{"name":"biran","area_code":"24"},{"name":"boca de jaruco","area_code":"6929"},{"name":"bolivia","area_code":"33"},{"name":"brasil","area_code":"32"},{"name":"buey arriba","area_code":"23"},{"name":"cabañas","area_code":"63"},{"name":"cacocum","area_code":"24"},{"name":"caimito del guayabal","area_code":"680"},{"name":"calimete","area_code":"5"},{"name":"calixto garcia","area_code":"24"},{"name":"camaguey","area_code":"32"},{"name":"camalote","area_code":"32"},{"name":"camarioca","area_code":"5"},{"name":"camilo cienfuegos","area_code":"692"},{"name":"camino","area_code":"61"},{"name":"campechuela","area_code":"23"},{"name":"canasí","area_code":"6929"},{"name":"candido gonzalez","area_code":"32"},{"name":"cárdenas","area_code":"45"},{"name":"cascorro","area_code":"32"},{"name":"catalina de güines","area_code":"62"},{"name":"cauto cristo","area_code":"23"},{"name":"cayo coco","area_code":"33"},{"name":"cayo largo","area_code":"5"},{"name":"ceba mocha","area_code":"5"},{"name":"ceballos","area_code":"33"},{"name":"ceiba nuevo","area_code":"680"},{"name":"cespedes","area_code":"32"},{"name":"chambas","area_code":"33"},{"name":"chile","area_code":"22"},{"name":"cidra","area_code":"5"},{"name":"ciego de Ávila","area_code":"33"},{"name":"ciénaga de zapata","area_code":"59"},{"name":"cienfuegos","area_code":"432"},{"name":"ciro redondo","area_code":"33"},{"name":"colón","area_code":"5"},{"name":"communidad pueblo nuevo","area_code":"32"},{"name":"consolación del sur","area_code":"8"},{"name":"contramaestre","area_code":"22"},{"name":"cortés","area_code":"84"},{"name":"cristino naranjo","area_code":"24"},{"name":"cueto","area_code":"24"},{"name":"dos caminos de san luis","area_code":"22"},{"name":"el cobre","area_code":"22"},{"name":"el cristo","area_code":"22"},{"name":"enrique varona","area_code":"33"},{"name":"entronque de herradura","area_code":"8"},{"name":"felton","area_code":"24"},{"name":"florencia","area_code":"33"},{"name":"florida","area_code":"32"},{"name":"floro perez","area_code":"24"},{"name":"frank pais","area_code":"24"},{"name":"gibara","area_code":"24"},{"name":"gramma","area_code":"23"},{"name":"guaimaro","area_code":"32"},{"name":"guanajay","area_code":"686"},{"name":"guane","area_code":"84"},{"name":"guantánamo","area_code":"21"},{"name":"guantanamo bay naval air stati","area_code":"21"},{"name":"guardalavaca","area_code":"24"},{"name":"guaro","area_code":"24"},{"name":"guatemala","area_code":"24"},{"name":"guayabal","area_code":"31"},{"name":"guayacanas","area_code":"33"},{"name":"güines","area_code":"62"},{"name":"güira de melena","area_code":"67"},{"name":"guisa","area_code":"23"},{"name":"haiti","area_code":"32"},{"name":"havana","area_code":"7"},{"name":"havana (ciudad la habana)","area_code":"7"},{"name":"holguin","area_code":"24"},{"name":"imias","area_code":"32"},{"name":"isabel rubio","area_code":"84"},{"name":"isla de la juventud","area_code":"61"},{"name":"jagüey grande","area_code":"59"},{"name":"jaruco","area_code":"64"},{"name":"jiguani","area_code":"23"},{"name":"jimaguayu","area_code":"32"},{"name":"jobabo","area_code":"31"},{"name":"jovellanos","area_code":"5"},{"name":"jucaro","area_code":"33"},{"name":"julio antonio mella","area_code":"225"},{"name":"la boca","area_code":"31"},{"name":"la coloma","area_code":"8"},{"name":"la demajagua","area_code":"61"},{"name":"la fé","area_code":"61"},{"name":"la jagua","area_code":"32"},{"name":"la reforma","area_code":"61"},{"name":"la salud","area_code":"66"},{"name":"la victoria","area_code":"61"},{"name":"las martinas","area_code":"84"},{"name":"las mercedes","area_code":"23"},{"name":"las ovas","area_code":"8"},{"name":"las parras","area_code":"31"},{"name":"las tunas","area_code":"31"},{"name":"limonar","area_code":"5"},{"name":"lopez peña","area_code":"85"},{"name":"los palacios","area_code":"8"},{"name":"los reynaldos","area_code":"22"},{"name":"lugareño","area_code":"32"},{"name":"mabay","area_code":"23"},{"name":"maceo","area_code":"24"},{"name":"madruga","area_code":"64"},{"name":"majagua","area_code":"33"},{"name":"majibacoa","area_code":"31"},{"name":"manati","area_code":"31"},{"name":"mangos de baragua","area_code":"225"},{"name":"mantua","area_code":"84"},{"name":"manzanillo","area_code":"23"},{"name":"marcane","area_code":"24"},{"name":"marea de portillo","area_code":"23"},{"name":"mariel","area_code":"63"},{"name":"martí","area_code":"5"},{"name":"matanzas","area_code":"52"},{"name":"mayari","area_code":"24"},{"name":"media luna","area_code":"23"},{"name":"melena del sur","area_code":"62"},{"name":"menendez","area_code":"31"},{"name":"minas","area_code":"32"},{"name":"minas de matahumbre","area_code":"8"},{"name":"mir","area_code":"24"},{"name":"miraflores","area_code":"338"},{"name":"moa","area_code":"24"},{"name":"mobile phones","area_code":"789"},{"name":"najasa","area_code":"32"},{"name":"neuvitas","area_code":"32"},{"name":"nicaragua","area_code":"32"},{"name":"nicaro","area_code":"24"},{"name":"niquero","area_code":"23"},{"name":"nueva","area_code":"62"},{"name":"nueva gerona","area_code":"61"},{"name":"nueva paz","area_code":"62"},{"name":"omaja","area_code":"31"},{"name":"orlando gonzalez","area_code":"33"},{"name":"pablo de torriente","area_code":"86"},{"name":"palma soriano","area_code":"225"},{"name":"pedro betancourt","area_code":"5"},{"name":"peralejo","area_code":"23"},{"name":"pilon","area_code":"23"},{"name":"pinar del rio","area_code":"82"},{"name":"playa baracoa","area_code":"680"},{"name":"playa garón","area_code":"5"},{"name":"playa girón","area_code":"5"},{"name":"playa santa lucia","area_code":"32"},{"name":"primero de enero","area_code":"33"},{"name":"puerto esperanza","area_code":"8"},{"name":"puerto marti","area_code":"31"},{"name":"puerto padre","area_code":"31"},{"name":"quivicán","area_code":"67"},{"name":"rafael freyre","area_code":"24"},{"name":"rio cauto","area_code":"23"},{"name":"rodolfo ramirez esquivel","area_code":"32"},{"name":"ruta invasora","area_code":"33"},{"name":"sábalo","area_code":"84"},{"name":"sagua de tanamo","area_code":"24"},{"name":"san antonio de las vegas","area_code":"64"},{"name":"san antonio de los baños","area_code":"650"},{"name":"san jose de las lajas","area_code":"64"},{"name":"san juan y martínez","area_code":"8"},{"name":"san nicolás de bari","area_code":"62"},{"name":"sancti spíritus","area_code":"41"},{"name":"sanguili","area_code":"33"},{"name":"santa cruz del norte","area_code":"692"},{"name":"santa cruz del sur","area_code":"32"},{"name":"santiago de cuba","area_code":"226"},{"name":"sibanicu","area_code":"32"},{"name":"siboney","area_code":"32"},{"name":"silvio caro","area_code":"63"},{"name":"sola","area_code":"32"},{"name":"tacajo","area_code":"24"},{"name":"tamarindo","area_code":"33"},{"name":"tapaste","area_code":"64"},{"name":"unión de reyes","area_code":"5"},{"name":"urbano noris","area_code":"24"},{"name":"varadero","area_code":"5"},{"name":"vasquez","area_code":"31"},{"name":"velasco","area_code":"24"},{"name":"venezuela","area_code":"33"},{"name":"vertientes","area_code":"32"},{"name":"villa clara","area_code":"42"},{"name":"viñales","area_code":"8"},{"name":"yado del yeso","area_code":"23"},{"name":"yara","area_code":"23"},{"name":"yarual","area_code":"338"}],"bahamas":[{"name":"andros town","area_code":""},{"name":"freeport/lucaya","area_code":""},{"name":"george town","area_code":""},{"name":"governor s harbour","area_code":""},{"name":"matthew town","area_code":""},{"name":"nassau","area_code":""}],"guatemala":[{"name":"guatemala city","area_code":"2"},{"name":"quetzaltenango","area_code":""},{"name":"san jose","area_code":"309"}],"costa rica":[{"name":"limon","area_code":"719"},{"name":"san josé","area_code":""}],"brazil":[{"name":"alagoinhas","area_code":"75"},{"name":"alexandria","area_code":"859"},{"name":"anápolis","area_code":"62"},{"name":"aracaju","area_code":"79"},{"name":"araguaina","area_code":"63"},{"name":"barreiras","area_code":"77"},{"name":"bauru","area_code":"14"},{"name":"belém","area_code":"91"},{"name":"belo horizonte","area_code":"31"},{"name":"blumenau","area_code":"47"},{"name":"boa vista","area_code":"95"},{"name":"brasilia","area_code":"61"},{"name":"campina grande","area_code":"83"},{"name":"campinas","area_code":"19"},{"name":"campo grande","area_code":"67"},{"name":"campos","area_code":"22"},{"name":"caruaru","area_code":"81"},{"name":"caxias do sul","area_code":"54"},{"name":"cuiaba","area_code":"65"},{"name":"curitiba","area_code":"41"},{"name":"feira de santana","area_code":"75"},{"name":"fernando de noronha","area_code":"81"},{"name":"florianopolis","area_code":"48"},{"name":"fortaleza","area_code":"85"},{"name":"garanhuns","area_code":"81"},{"name":"goiania","area_code":"62"},{"name":"governador valadares","area_code":"33"},{"name":"ilheus","area_code":"73"},{"name":"itabuna","area_code":"73"},{"name":"jequie","area_code":"73"},{"name":"joao pessoa","area_code":"83"},{"name":"joinville","area_code":"47"},{"name":"juazeiro do norte","area_code":"74"},{"name":"juiz de fora","area_code":"32"},{"name":"londrina","area_code":"43"},{"name":"macapa","area_code":"96"},{"name":"maceio","area_code":"82"},{"name":"manaus","area_code":"92"},{"name":"medina","area_code":"830"},{"name":"montes claros","area_code":"38"},{"name":"montezuma","area_code":"478"},{"name":"mossoro","area_code":"84"},{"name":"natal","area_code":"84"},{"name":"niteroi","area_code":"21"},{"name":"palmas","area_code":"63"},{"name":"panama","area_code":"712"},{"name":"parnaiba","area_code":"86"},{"name":"passo fundo","area_code":"54"},{"name":"pelotas","area_code":"532"},{"name":"ponta grossa","area_code":"42"},{"name":"porto alegre","area_code":"51"},{"name":"porto velho","area_code":"69"},{"name":"recife","area_code":"81"},{"name":"ribeirão preto","area_code":"16"},{"name":"rio branco","area_code":"68"},{"name":"rio de janeiro","area_code":"21"},{"name":"rio grande","area_code":"53"},{"name":"sacramento","area_code":"916"},{"name":"salinas","area_code":"408"},{"name":"salvador","area_code":"71"},{"name":"santa cruz","area_code":"831"},{"name":"santa fe","area_code":"505"},{"name":"santa maria","area_code":"34"},{"name":"santa rosa","area_code":"707"},{"name":"santo andré","area_code":"11"},{"name":"santos","area_code":"13"},{"name":"são jose do rio preto","area_code":"17"},{"name":"são jose dos campos","area_code":"12"},{"name":"são luis","area_code":"98"},{"name":"são paulo","area_code":"11"},{"name":"sobral","area_code":"88"},{"name":"sorocaba","area_code":"15"},{"name":"teofilo otoni","area_code":"33"},{"name":"teresina","area_code":"86"},{"name":"timbo","area_code":"870"},{"name":"uberaba","area_code":"34"},{"name":"uberlandia","area_code":"34"},{"name":"uruguaiana","area_code":"55"},{"name":"valparaiso","area_code":"850"},{"name":"vitoria","area_code":"27"},{"name":"vitoria da conquista","area_code":"77"},{"name":"volta redonda","area_code":"24"}],"argentina":[{"name":"bahía blanca","area_code":"291"},{"name":"buenos aires","area_code":"11"},{"name":"comodoro rivadavia","area_code":"297"},{"name":"concordia","area_code":"345"},{"name":"córdoba","area_code":"351"},{"name":"corrientes","area_code":"3783"},{"name":"formosa","area_code":"3717"},{"name":"jesús maría","area_code":"3525"},{"name":"junín","area_code":"2362"},{"name":"la plata","area_code":"221"},{"name":"la rioja","area_code":"3822"},{"name":"mar del plata","area_code":"223"},{"name":"mendoza","area_code":"261"},{"name":"mercedes","area_code":"2324"},{"name":"neuquén","area_code":"299"},{"name":"paraná","area_code":"343"},{"name":"posadas","area_code":"3752"},{"name":"resistencia","area_code":"3722"},{"name":"río cuarto","area_code":"358"},{"name":"río gallegos","area_code":"2966"},{"name":"rosario","area_code":"341"},{"name":"salta","area_code":"387"},{"name":"san francisco","area_code":"628"},{"name":"san juan","area_code":"264"},{"name":"san luis","area_code":"2652"},{"name":"san martín","area_code":"408"},{"name":"san nicolás de los arroyos","area_code":"3461"},{"name":"san pedro","area_code":"424"},{"name":"san rafael","area_code":"2627"},{"name":"santa fe","area_code":"342"},{"name":"santa rosa","area_code":"2954"},{"name":"santiago del estero","area_code":"385"},{"name":"santo tomé","area_code":"3756"},{"name":"tandil","area_code":"2293"},{"name":"trelew/rawson","area_code":"2965"},{"name":"ushuaia","area_code":"2901"},{"name":"viedma","area_code":"2920"},{"name":"zárate","area_code":"3487"}],"venezuela":[{"name":"barcelona","area_code":"281"},{"name":"barquisimeto","area_code":"251"},{"name":"cabimas","area_code":"264"},{"name":"caracas","area_code":"212"},{"name":"ciudad bolivar","area_code":"285"},{"name":"ciudad guayana","area_code":"285"},{"name":"coro","area_code":"268"},{"name":"cumana","area_code":"293"},{"name":"los teques","area_code":"212"},{"name":"maracaibo","area_code":"261"},{"name":"maracay","area_code":"243"},{"name":"maturin","area_code":"291"},{"name":"mérida","area_code":"274"},{"name":"puerto cabello","area_code":"242"},{"name":"san cristobal","area_code":"276"},{"name":"valencia","area_code":"241"}],"chile":[{"name":"antofagasta","area_code":"55"},{"name":"arica","area_code":"58"},{"name":"calama","area_code":"55"},{"name":"chillan","area_code":"42"},{"name":"concepcion","area_code":"41"},{"name":"copiapo","area_code":"52"},{"name":"coquimbo","area_code":"51"},{"name":"curico","area_code":"75"},{"name":"iquique","area_code":"57"},{"name":"la serena","area_code":"51"},{"name":"osorno","area_code":"64"},{"name":"ovalle","area_code":"53"},{"name":"puerto montt","area_code":"65"},{"name":"punta arenas","area_code":"61"},{"name":"rancagua","area_code":"72"},{"name":"santiago","area_code":"2"},{"name":"talca","area_code":"71"},{"name":"talcahuano","area_code":"41"},{"name":"temuco","area_code":"45"},{"name":"valdivia","area_code":"63"},{"name":"valparaiso","area_code":"32"},{"name":"vina del mar","area_code":"32"}],"peru":[{"name":"arequipa","area_code":"54"},{"name":"cajamarca","area_code":"44"},{"name":"callao","area_code":"14"},{"name":"chiclayo","area_code":"74"},{"name":"chimbote","area_code":"44"},{"name":"cusco","area_code":"84"},{"name":"ica","area_code":"34"},{"name":"iquitos","area_code":"94"},{"name":"lima","area_code":"1"},{"name":"piura","area_code":"74"},{"name":"tacna","area_code":"54"},{"name":"trujillo","area_code":"44"}],"colombia":[{"name":"armenia","area_code":"6"},{"name":"barranquilla","area_code":"5"},{"name":"bogota","area_code":"1"},{"name":"bucaramanga","area_code":"7"},{"name":"buenaventura","area_code":"222"},{"name":"cali","area_code":"2"},{"name":"cartagena","area_code":"5"},{"name":"cucuta","area_code":"7"},{"name":"ibague","area_code":"8"},{"name":"manizales","area_code":"6"},{"name":"medellin","area_code":"4"},{"name":"neiva","area_code":"8"},{"name":"palmira","area_code":"2"},{"name":"pasto","area_code":"27"},{"name":"pereira","area_code":"6"},{"name":"santa marta","area_code":"5"},{"name":"soledad","area_code":"831"},{"name":"villavicencio","area_code":"8"}],"bolivia":[{"name":"bermejo","area_code":"4"},{"name":"cobija","area_code":"3"},{"name":"cochabamba","area_code":"4"},{"name":"guayaramerín","area_code":"3"},{"name":"la paz","area_code":"2"},{"name":"oruro","area_code":"2"},{"name":"potosi","area_code":"2"},{"name":"riberalta","area_code":"3"},{"name":"sucre","area_code":"4"},{"name":"tarija","area_code":"4"},{"name":"trinidad","area_code":"3"}],"ecuador":[{"name":"guayaquil","area_code":"4"},{"name":"quito","area_code":"2"}],"uruguay":[{"name":"artigas","area_code":"772"},{"name":"durazno","area_code":"36"},{"name":"las piedras","area_code":"324"},{"name":"maldonado","area_code":"42"},{"name":"melo","area_code":"64"},{"name":"montevideo","area_code":"2"},{"name":"paso de los toros","area_code":"664"},{"name":"punta del este","area_code":"42"},{"name":"rivera","area_code":"62"},{"name":"salto","area_code":"73"},{"name":"tacuarembo","area_code":"63"},{"name":"treinta y tres","area_code":"45"}],"paraguay":[{"name":"asunción","area_code":"21"},{"name":"concepcion","area_code":"31"},{"name":"coronel oviedo","area_code":"521"},{"name":"encarnacion","area_code":"71"},{"name":"pilar","area_code":"86"}],"australia":[{"name":"adelaide","area_code":"8"},{"name":"albury","area_code":"2"},{"name":"alice springs","area_code":"8"},{"name":"ballarat","area_code":"3"},{"name":"bendigo","area_code":"3"},{"name":"brisbane","area_code":"7"},{"name":"bunbury","area_code":"8"},{"name":"bundaberg","area_code":"7"},{"name":"cairns","area_code":"7"},{"name":"canberra","area_code":"2"},{"name":"coffs harbour","area_code":"2"},{"name":"darwin","area_code":"8"},{"name":"forrest","area_code":"815"},{"name":"geelong","area_code":"3"},{"name":"gibson","area_code":"706"},{"name":"gold coast","area_code":"7"},{"name":"hamilton","area_code":"620"},{"name":"hobart","area_code":"3"},{"name":"kingston","area_code":"770"},{"name":"launceston","area_code":"3"},{"name":"mackay","area_code":"7"},{"name":"macquarie island","area_code":"13"},{"name":"marion","area_code":"765"},{"name":"melbourne","area_code":"3"},{"name":"newcastle","area_code":"2"},{"name":"perth","area_code":"8"},{"name":"portland","area_code":"207"},{"name":"richmond","area_code":"765"},{"name":"rockhampton","area_code":"7"},{"name":"sydney","area_code":"2"},{"name":"townsville","area_code":"7"},{"name":"warwick","area_code":"229"},{"name":"wollongong","area_code":"2"},{"name":"young","area_code":"928"}],"new zealand":[{"name":"auckland","area_code":"9"},{"name":"chatham islands","area_code":"3"},{"name":"christchurch","area_code":"3"},{"name":"dunedin","area_code":"3"},{"name":"hamilton","area_code":"7"},{"name":"hastings","area_code":"6"},{"name":"invercargill","area_code":"3"},{"name":"napier","area_code":"6"},{"name":"nelson","area_code":"3"},{"name":"new plymouth","area_code":"6"},{"name":"palmerston north","area_code":"6"},{"name":"richmond","area_code":"765"},{"name":"tauranga harbour","area_code":"7"},{"name":"timaru","area_code":"3"},{"name":"wellington","area_code":"4"},{"name":"westport","area_code":"812"}],"papua new guinea":[{"name":"port moresby","area_code":""}],"fiji":[{"name":"suva","area_code":""}]}